{
	"type": "FeatureCollection",
	"features": [
		{"geometry":{"coordinates":[-5.03215,50.31448],"type":"Point"},"properties":{"_source":"warm_welcome","address":"Trispen Chapel, Cornwall, Cornwall TR4 9BA","description":"Open every Friday from 9.15-12.15.**","hours":{"_text":"Friday: 09:15 - 12:15","opening":"Fr 09:15-12:15"},"title":"Buzz: The Free Community Cafe"},"type":"Feature"},
		{"geometry":{"coordinates":[-5.08671,50.41283],"type":"Point"},"properties":{"_source":"warm_welcome","address":"Newquay Library, Newquay, Cornwall TR7 1BD","description":"This warm space is open to all, we have some organised activities throughout the week (plus a puzzle table for adults)… newspapers to read, lots of lovely books, friendly staff, computers and more.","hours":{"_text":"Monday: 09:00 - 17:00, Tuesday: 09:00 - 17:00, Wednesday: 09:00 - 17:00, Thursday: 09:00 - 17:00, Friday: 09:00 - 17:00, Saturday: 09:00 - 17:00","opening":"Mo 09:00-17:00; Tu 09:00-17:00; We 09:00-17:00; Th 09:00-17:00; Fr 09:00-17:00; Sa 09:00-17:00"},"title":"Newquay Library"},"type":"Feature"},
		{"geometry":{"coordinates":[-5.08352,50.41239],"type":"Point"},"properties":{"_source":"warm_welcome","address":"St. Michaels Church, Cornwall TR7 1RA","description":"St Michael's Church, in the centre of Newquay","hours":{"_text":"Monday: 09:30 - 14:30, Tuesday: 09:30 - 14:30, Wednesday: 09:30 - 14:30, Thursday: 09:30 - 14:30, Friday: 09:30 - 14:30","opening":"Mo 09:30-14:30; Tu 09:30-14:30; We 09:30-14:30; Th 09:30-14:30; Fr 09:30-14:30"},"title":"St Michael's Church"},"type":"Feature"},
		{"geometry":{"coordinates":[-5.07291,50.40870],"type":"Point"},"properties":{"_source":"warm_welcome","address":"Newquay Methodist Church, Cornwall TR7 1RW","description":"A community space where all are welcome, weekly free and accessible groups, a warm cuppa and place to be calm or connect with others.","hours":{"_text":"Tuesday: 10:00 - 15:00, Wednesday: 10:00 - 15:00, Thursday: 10:00 - 15:00, Friday: 10:00 - 15:00, Sunday: 10:00 - 13:00","opening":"Tu 10:00-15:00; We 10:00-15:00; Th 10:00-15:00; Fr 10:00-15:00; Su 10:00-13:00"},"title":"The Oasis"},"type":"Feature"},
		{"geometry":{"coordinates":[-5.15260,50.34166],"type":"Point"},"properties":{"_source":"carefree_cornwall","address":"16 St Michael's Rd, Perrancoombe, TR6 0HG","description":"Address: 16 St Michael's Rd, Perrancoombe, TR6 0HG Contact details: info@imagineif.net Warm/Cool Hub: Opening hours: Activity-based: Mon 10:00–12:00; Wed 11:00–13:00; Thu 14:00–16:00; monthly Sat breakfast 09:00–11:00. Activities offered: Physical activity; Peer support Area of focus: Mental health & wellbeing; Loneliness & social connection Website: https://www.imagineif.net/ponsanooth-well-being-hub Community Maker Area: Mid (Carrick) Community Maker: Jeremy Rowe","loc_pcd":true,"title":"Perranporth Hub Imagine IF"},"type":"Feature"},
		{"geometry":{"coordinates":[-5.08823,50.41322],"type":"Point"},"properties":{"_source":"carefree_cornwall","address":"Crantock St, Newquay TR7 1JR. Located in Kimberly Cl, Newquay, TR7 1JG","description":"Address: Crantock St, Newquay TR7 1JR. Located in Kimberly Cl, Newquay, TR7 1JG Contact details: 01637 876150 | ncsc@ageukcornwall.org.uk Warm/Cool Hub: Opening hours: Mon–Fri 09:00–16:00. Activities offered: Peer support; Advice or external services; Food larder or café; Outdoor activity; Arts, crafts, games; Digital inclusion Area of focus: Older people; Carers; Memory / dementia; Loneliness & social connection Website: https://www.ageuk.org.uk/cornwall/our-services/govenek-community-hub-newquay-a4990350-809d-ed11-9ac4-0003ff32e812/ Community Maker Area: Mid (Restomal) Community Maker: Bill Davies","loc_pcd":true,"title":"Age UK Newquay (Govenek) In from Truro"},"type":"Feature"},
		{"geometry":{"coordinates":[-5.06236,50.41373],"type":"Point"},"properties":{"_source":"carefree_cornwall","address":"Yeoman Way, Newquay TR7 2SL","description":"Address: Yeoman Way, Newquay TR7 2SL Contact details: 01637 877182 | info@newquayorchard.co.uk Warm/Cool Hub: Opening hours: 09:30–16:30, 7 days a week (closures posted on social media/on the door). Activities offered: Peer support; Advice or external services; Food larder or café; Outdoor activity; Arts, crafts, games Area of focus: A broad community offer, with activities and support for people of all ages and needs. Website: https://newquayorchard.co.uk/ Community Maker Area: Mid (Restomal) Community Maker: Bill Davies","loc_pcd":true,"title":"Newquay Orchard"},"type":"Feature"},
		{"geometry":{"coordinates":[-4.94094,50.43393],"type":"Point"},"properties":{"_source":"carefree_cornwall","address":"26 Fore Street\nSt Columb TR9 6RH","description":"Address: 26 Fore Street St Columb TR9 6RH Contact details: 01637 889682 | enquiries@oasiscentre-cornwall.org.uk Warm/Cool Hub: Extreme weather support: During very hot or cold weather and storms, this hub provides a safe, comfortable space open to the public, with access to facilities and practical resources. Opening hours: Monday -Saturday Activities offered: Peer support; Advice or external services; Food larder or café; Outdoor activity; Digital inclusion Area of focus: A broad community offer, with activities and support for people of all ages and needs. Website: https://oasiscentre-cornwall.org.uk/ Community Maker Area: Mid (Restomal) Community Maker: Bill Davies","loc_pcd":true,"title":"The Oasis Centre"},"type":"Feature"},
		{"geometry":{"coordinates":[-5.08225,50.41328],"type":"Point"},"properties":{"_source":"carefree_cornwall","address":"Marcus Hill, Newquay TR7 1BP","description":"Address: Marcus Hill, Newquay TR7 1BP Contact details: 01637 820875 Warm/Cool Hub: Opening hours: 7 days a week Activities offered: Peer support; Advice or external services; Food larder or café; Arts, crafts, games Area of focus: Families; Older people; Learning disabilities; Carers; Cost of living / practical support Website: https://wavehouse.org.uk/houses/store-house/ Community Maker Area: Mid (Restomal) Community Maker: Bill Davies","loc_pcd":true,"title":"Store House Family Hub"},"type":"Feature"},
		{"geometry":{"coordinates":[-5.15260,50.34166],"type":"Point"},"properties":{"_source":"carefree_cornwall","address":"16 St Michael's Rd, Perrancoombe, TR6 0HG","description":"Address: 16 St Michael's Rd, Perrancoombe, TR6 0HG Contact details: info@imagineif.net Warm/Cool Hub: Opening hours: Activity-based: Mon 10:00–12:00; Wed 11:00–13:00; Thu 14:00–16:00; monthly Sat breakfast 09:00–11:00. Activities offered: Physical activity; Peer support Area of focus: Mental health & wellbeing; Loneliness & social connection Website: https://www.imagineif.net/ponsanooth-well-being-hub Community Maker Area: Mid (Carrick) Community Maker: Jeremy Rowe","loc_pcd":true,"title":"Perranporth Hub Imagine IF"},"type":"Feature"},
		{"geometry":{"coordinates":[-5.08823,50.41322],"type":"Point"},"properties":{"_source":"carefree_cornwall","address":"Crantock St, Newquay TR7 1JR. Located in Kimberly Cl, Newquay, TR7 1JG","description":"Address: Crantock St, Newquay TR7 1JR. Located in Kimberly Cl, Newquay, TR7 1JG Contact details: 01637 876150 | ncsc@ageukcornwall.org.uk Warm/Cool Hub: Opening hours: Mon–Fri 09:00–16:00. Activities offered: Peer support; Advice or external services; Food larder or café; Outdoor activity; Arts, crafts, games; Digital inclusion Area of focus: Older people; Carers; Memory / dementia; Loneliness & social connection Website: https://www.ageuk.org.uk/cornwall/our-services/govenek-community-hub-newquay-a4990350-809d-ed11-9ac4-0003ff32e812/ Community Maker Area: Mid (Restomal) Community Maker: Bill Davies","loc_pcd":true,"title":"Age UK Newquay (Govenek) In from Truro"},"type":"Feature"},
		{"geometry":{"coordinates":[-5.06236,50.41373],"type":"Point"},"properties":{"_source":"carefree_cornwall","address":"Yeoman Way, Newquay TR7 2SL","description":"Address: Yeoman Way, Newquay TR7 2SL Contact details: 01637 877182 | info@newquayorchard.co.uk Warm/Cool Hub: Opening hours: 09:30–16:30, 7 days a week (closures posted on social media/on the door). Activities offered: Peer support; Advice or external services; Food larder or café; Outdoor activity; Arts, crafts, games Area of focus: A broad community offer, with activities and support for people of all ages and needs. Website: https://newquayorchard.co.uk/ Community Maker Area: Mid (Restomal) Community Maker: Bill Davies","loc_pcd":true,"title":"Newquay Orchard"},"type":"Feature"},
		{"geometry":{"coordinates":[-4.94094,50.43393],"type":"Point"},"properties":{"_source":"carefree_cornwall","address":"26 Fore Street\nSt Columb TR9 6RH","description":"Address: 26 Fore Street St Columb TR9 6RH Contact details: 01637 889682 | enquiries@oasiscentre-cornwall.org.uk Warm/Cool Hub: Extreme weather support: During very hot or cold weather and storms, this hub provides a safe, comfortable space open to the public, with access to facilities and practical resources. Opening hours: Monday -Saturday Activities offered: Peer support; Advice or external services; Food larder or café; Outdoor activity; Digital inclusion Area of focus: A broad community offer, with activities and support for people of all ages and needs. Website: https://oasiscentre-cornwall.org.uk/ Community Maker Area: Mid (Restomal) Community Maker: Bill Davies","loc_pcd":true,"title":"The Oasis Centre"},"type":"Feature"},
		{"geometry":{"coordinates":[-5.08225,50.41328],"type":"Point"},"properties":{"_source":"carefree_cornwall","address":"Marcus Hill, Newquay TR7 1BP","description":"Address: Marcus Hill, Newquay TR7 1BP Contact details: 01637 820875 Warm/Cool Hub: Opening hours: 7 days a week Activities offered: Peer support; Advice or external services; Food larder or café; Arts, crafts, games Area of focus: Families; Older people; Learning disabilities; Carers; Cost of living / practical support Website: https://wavehouse.org.uk/houses/store-house/ Community Maker Area: Mid (Restomal) Community Maker: Bill Davies","loc_pcd":true,"title":"Store House Family Hub"},"type":"Feature"}
	]
}
