{
	"type": "FeatureCollection",
	"features": [
		{"geometry":{"coordinates":[-5.18541,50.23971],"type":"Point"},"properties":{"_source":"warm_welcome","address":"Methodist Church, Redruth, Cornwall TR16 5LY","description":"Monthly Coffee morning with Bacon or cheese and onion baps, cake stall and bric a brac. Activities for children, catching up with friends,","hours":{"_text":"Saturday: 10:30 - 12:00 Monthly","opening":"Sa 10:30-12:00"},"title":"Community Coffee Morning"},"type":"Feature"},
		{"geometry":{"coordinates":[-5.05430,50.26333],"type":"Point"},"properties":{"_source":"warm_welcome","address":"The Living Room, 10 River Street, Truro, Cornwall TR1 2SQ","description":"Hot drinks, toast and snacks with a food larder for all to access.","hours":{"_text":"Thursday: 13:30 - 15:00","opening":"Th 13:30-15:00"},"title":"Dockyard Food Larder"},"type":"Feature"},
		{"geometry":{"coordinates":[-5.10380,50.17014],"type":"Point"},"properties":{"_source":"warm_welcome","address":"Highway Community Centre, Penryn, Cornwall Tr10 8DA","description":"Warm and friendly, with great children facilities, we are partnering with Penryn and Falmouth Foodbank to provide a Warm space.","hours":{"_text":"Monday: 13:00 - 15:00, Thursday: 09:30 - 13:00, Sunday: 10:00 - 13:00","opening":"Mo 13:00-15:00; Th 09:30-13:00; Su 10:00-13:00"},"title":"Dwell Cafe at HighwayChurch"},"type":"Feature"},
		{"geometry":{"coordinates":[-5.07459,50.15374],"type":"Point"},"properties":{"_source":"warm_welcome","address":"The Salvation Army, Cornwall TR11 3RJ","description":"Here we serve free food, tea and coffee. There is also advice available from Salvation Army employees and other services.","hours":{"_text":"Monday: 10:00 - 12:00, Thursday: 10:00 - 15:00","opening":"Mo 10:00-12:00; Th 10:00-15:00"},"title":"Falmouth Drop In"},"type":"Feature"},
		{"geometry":{"coordinates":[-5.07249,50.15574],"type":"Point"},"properties":{"_source":"warm_welcome","address":"Municipal Building, Cornwall TR11 2RT","description":"Housed in the Passmore Edwards Municipal Building on the Moor, the Library on the ground floor and Art Gallery on the first floor offer a warm welcoming space 6 days a week, Monday - Saturday (Opening hours vary - times advertised are for library, Art Gallery hours are as follows: Mon, Tues, Thurs Fri, Sat: 10-4; Wednesday: 10-1).","hours":{"_text":"Monday: 09:30 - 17:00, Tuesday: 09:30 - 17:00, Wednesday: 09:30 - 13:00, Thursday: 09:30 - 17:00, Friday: 09:30 - 17:00, Saturday: 09:30 - 16:00","opening":"Mo 09:30-17:00; Tu 09:30-17:00; We 09:30-13:00; Th 09:30-17:00; Fr 09:30-17:00; Sa 09:30-16:00"},"title":"Falmouth Library and Art Gallery"},"type":"Feature"},
		{"geometry":{"coordinates":[-5.22172,50.22996],"type":"Point"},"properties":{"_source":"warm_welcome","address":"Victoria Park, Cornwall TR15 2JF","description":"Warm classroom space and community led cafe. Find us opposite the kids playground, through the gated community garden.","hours":{"_text":"Monday: 12:00 - 14:00, Tuesday: 12:00 - 14:30","opening":"Mo 12:00-14:00; Tu 12:00-14:30"},"title":"Food troops community kitchen and garden"},"type":"Feature"},
		{"geometry":{"coordinates":[-5.07811,50.28763],"type":"Point"},"properties":{"_source":"warm_welcome","address":"Shortlanesend Methodist Church, Truro, Cornwall TR4 9DU","description":"The space is open to everyone including children.","hours":{"_text":"Thursday: 10:30 - 12:00 Monthly, Saturday: 10:30 - 12:00 Monthly","opening":"Th 10:30-12:00; Sa 10:30-12:00"},"title":"Methodist Church"},"type":"Feature"},
		{"geometry":{"coordinates":[-5.22441,50.23406],"type":"Point"},"properties":{"_source":"warm_welcome","address":"Wesley Buildings, Redruth, Cornwall TR15 2EG","description":"The Memorial Hall in the Wesley Buildings.","hours":{"_text":"Saturday: 10:00 - 12:00 Monthly","opening":"Sa 10:00-12:00"},"title":"Monthly Coffee Morning - 4th Saturday"},"type":"Feature"},
		{"geometry":{"coordinates":[-5.08266,50.16061],"type":"Point"},"properties":{"_source":"warm_welcome","address":"the resource office, Cornwall Tr11 2pr","description":"Space open to all and pets. We are also a pet food bank and help support people who are struggling and needing a warm space.","hours":{"_text":"Monday: 11:00 - 14:00, Tuesday: 11:00 - 14:00, Wednesday: 11:00 - 14:00, Thursday: 11:00 - 14:00, Friday: 11:00 - 14:00","opening":"Mo 11:00-14:00; Tu 11:00-14:00; We 11:00-14:00; Th 11:00-14:00; Fr 11:00-14:00"},"title":"Pawsitive Pets"},"type":"Feature"},
		{"geometry":{"coordinates":[-5.04864,50.14984],"type":"Point"},"properties":{"_source":"warm_welcome","address":"Pendennis Community Centre, Falmouth, Cornwall TR11 4NG","description":"We are 100% volunteer powered and led and everyone is welcome. Our community cafe is open to all and you don't have to spend money to sit here, keep warm and use the wifi. We also offer a wide range of fitness and wellbeing activities which you can join.","hours":{"_text":"Monday: 09:00 - 13:00 / 17:45 - 20:30, Tuesday: 09:00 - 13:00 / 17:45 - 20:30, Wednesday: 09:00 - 13:00 / 17:45 - 20:30, Thursday: 09:00 - 13:00 / 17:45 - 20:30, Friday: 09:00 - 13:00 / 17:45 - 20:30, Saturday: 09:00 - 13:00, Sunday: 09:00 - 13:00","opening":"Mo 09:00-13:00,17:45-20:30; Tu 09:00-13:00,17:45-20:30; We 09:00-13:00,17:45-20:30; Th 09:00-13:00,17:45-20:30; Fr 09:00-13:00,17:45-20:30; Sa 09:00-13:00; Su 09:00-13:00"},"title":"Pendennis Community Centre"},"type":"Feature"},
		{"geometry":{"coordinates":[-5.06553,50.20998],"type":"Point"},"properties":{"_source":"warm_welcome","address":"Penpoll Methodist Church, Truro, Cornwall TR3 6RR","description":"Village Methodist church building with both a worship space, and 2 rooms suitable for meetings, entertaining (fully equipped kitchen) and sports (table tennis, yoga).","hours":{"_text":"Sunday: 10:00 - 12:00","opening":"Su 10:00-12:00"},"title":"Penpoll Community Space"},"type":"Feature"},
		{"geometry":{"coordinates":[-5.19010,50.18970],"type":"Point"},"properties":{"_source":"warm_welcome","address":"Stithians Methodist Church, Truro, Cornwall TR3 7AN","description":"Soup and sweet lunch served on the third Monday of the month from 12 noon.","hours":{"_text":"Monday: 12:00 - 14:00","opening":"Mo 12:00-14:00"},"title":"Pop In."},"type":"Feature"},
		{"geometry":{"coordinates":[-4.97243,50.17863],"type":"Point"},"properties":{"_source":"warm_welcome","address":"Portscatho United Church, Truro, Cornwall TR2 5HN","description":"The church building is on the South West Coast Path, and at the end of the Harbour in the coastal village of Portscatho. It is open daily, with free tea and coffee, book exchange and community jigsaw. You are very welcome to come and spend time in this peaceful (and warm!) space.","hours":{"_text":"Monday: 09:00 - 17:00, Tuesday: 09:00 - 17:00, Wednesday: 09:00 - 17:00, Thursday: 09:00 - 17:00, Friday: 09:00 - 17:00, Saturday: 09:00 - 17:00, Sunday: 09:00 - 17:00","opening":"Mo 09:00-17:00; Tu 09:00-17:00; We 09:00-17:00; Th 09:00-17:00; Fr 09:00-17:00; Sa 09:00-17:00; Su 09:00-17:00"},"title":"Portscatho United Church Welcome space"},"type":"Feature"},
		{"geometry":{"coordinates":[-5.06338,50.14762],"type":"Point"},"properties":{"_source":"warm_welcome","address":"Princess Pavilion, Cornwall TR11 4AR","description":"Space is a welcoming place for all.","hours":{"_text":"Monday: 10:00 - 16:00, Tuesday: 10:00 - 16:00, Wednesday: 10:00 - 16:00, Thursday: 10:00 - 16:00, Friday: 10:00 - 16:00, Saturday: 10:00 - 16:00, Sunday: 10:00 - 16:00","opening":"Mo 10:00-16:00; Tu 10:00-16:00; We 10:00-16:00; Th 10:00-16:00; Fr 10:00-16:00; Sa 10:00-16:00; Su 10:00-16:00"},"title":"Princess Pavilion"},"type":"Feature"},
		{"geometry":{"coordinates":[-5.22572,50.23138],"type":"Point"},"properties":{"_source":"warm_welcome","address":"Redruth Library, Redruth, Cornwall TR15 2AT","description":"The warm space is open to all with access to books, computers, printing and regular activities.","hours":{"_text":"Monday: 09:00 - 05:00, Tuesday: 09:00 - 05:00, Wednesday: 09:00 - 05:00, Thursday: 09:00 - 05:00, Friday: 09:00 - 05:00, Saturday: 10:00 - 01:00","opening":"Mo 09:00-17:00; Tu 09:00-17:00; We 09:00-17:00; Th 09:00-17:00; Fr 09:00-17:00; Sa 10:00-13:00"},"title":"Redruth Library & Information Service"},"type":"Feature"},
		{"geometry":{"coordinates":[-5.22412,50.23471],"type":"Point"},"properties":{"_source":"warm_welcome","address":"Middletons Row, Redruth, Cornwall TR15 1NH","description":"Wednesdays 10am-1pm we have a drop in with free refreshments and bacon butties. On Friday mornings 10am-12pm we have a wellbeing drop in with free refreshments. Both are an opportunity to make friends whilst keeping warm.","hours":{"_text":"Wednesday: 10:00 - 13:00, Friday: 10:00 - 12:00","opening":"We 10:00-13:00; Fr 10:00-12:00"},"title":"Redruth Salvation Army"},"type":"Feature"},
		{"geometry":{"coordinates":[-4.97570,50.17879],"type":"Point"},"properties":{"_source":"warm_welcome","address":"Portscatho United Church, Portscatho, Cornwall TR2 5HN","description":"Small and welcoming Chapel just yards from the coastal path at Portscatho.","hours":{"_text":"Monday: 10:00 - 16:00, Tuesday: 10:00 - 16:00, Wednesday: 10:00 - 16:00, Thursday: 10:00 - 16:00, Friday: 10:00 - 16:00, Saturday: 10:00 - 16:00, Sunday: 10:30 - 16:00","opening":"Mo 10:00-16:00; Tu 10:00-16:00; We 10:00-16:00; Th 10:00-16:00; Fr 10:00-16:00; Sa 10:00-16:00; Su 10:30-16:00"},"title":"The Retreat @ Portscatho United Church"},"type":"Feature"},
		{"geometry":{"coordinates":[-5.09321,50.21089],"type":"Point"},"properties":{"_source":"carefree_cornwall","address":"The Old Market Hall, Market St, Devoran, Truro TR3 6QA","description":"Address: The Old Market Hall, Market St, Devoran, Truro TR3 6QA Contact details: 01872 863333 | info@feockparishcouncil.co.uk Warm/Cool Hub: Extreme weather support: During very hot weather, this hub provides a safe, comfortable space open to the public, with access to facilities and practical resources. Opening hours: Monday-Friday (9:30am - 12pm) Activities offered: Physical activity; Food larder or café; Arts, crafts, games Area of focus: A broad community offer, with activities and support for people of all ages and needs. Website: https://myfeock.co.uk/index.php/whats-on/events-calendar Community Maker Area: Mid (Carrick) Community Maker: Jeremy Rowe","loc_pcd":true,"title":"MyFeock"},"type":"Feature"},
		{"geometry":{"coordinates":[-5.08442,50.16050],"type":"Point"},"properties":{"_source":"carefree_cornwall","address":"Dracaena Avenue, Falmouth, Cornwall, TR11 2ES","description":"Address: Dracaena Avenue, Falmouth, Cornwall, TR11 2ES Contact details: 01326 319414 | admin@dracaenacentre.org Warm/Cool Hub: Extreme weather support: During very hot weather, this hub provides a safe, comfortable space open to the public, with access to facilities and practical resources. Opening hours: Open to the public on weekdays, additional services within Hub at the weekend. Activities offered: Physical activity; Peer support; Advice or external services; Health professionals visiting or personal care; Food larder or café; Arts, crafts, games Area of focus: A broad community offer, with activities and support for people of all ages and needs. Website: https://dracaenacentre.org/ Community Maker Area: Mid (Carrick) Community Maker: Jeremy Rowe","loc_pcd":true,"title":"Dracaena Centre"},"type":"Feature"},
		{"geometry":{"coordinates":[-5.07182,50.15587],"type":"Point"},"properties":{"_source":"carefree_cornwall","address":"Killigrew St, Falmouth TR11 3PQ","description":"Address: Killigrew St, Falmouth TR11 3PQ Contact details: 01326 316880 | email@ageukcornwall.org.uk Warm/Cool Hub: Opening hours: Weekdays Activities offered: Physical activity; Peer support; Advice or external services; Health professionals visiting or personal care; Food larder or café; Outdoor activity; Arts, crafts, games; Digital inclusion Area of focus: Older people; Carers; Disability / additional needs; Loneliness & social connection Website: https://www.ageuk.org.uk/cornwall/our-services/falmouth-community-hub-c8cee2d1-809d-ed11-9ac4-0003ff32e812/ Community Maker Area: Mid (Carrick) Community Maker: Jeremy Rowe","loc_pcd":true,"title":"Age UK Falmouth"},"type":"Feature"},
		{"geometry":{"coordinates":[-5.20524,50.28015],"type":"Point"},"properties":{"_source":"carefree_cornwall","address":"Mount Hawke Wellbeing Hub, 61 Charlotte Cl, Mount Hawke, Truro TR4 8TN","description":"Address: Mount Hawke Wellbeing Hub, 61 Charlotte Cl, Mount Hawke, Truro TR4 8TN Contact details: 07855 434518 | mounthawkewellbeinghub@gmail.com Warm/Cool Hub: Opening hours: Fortnightly on Thursdays 10:30am - 1pm Activities offered: Peer support; Advice or external services; Health professionals visiting or personal care; Food larder or café Area of focus: Mental health & wellbeing; Loneliness & social connection Website: https://www.youtube.com/watch?v=4f7m0QMasdo Community Maker Area: Mid (Carrick) Community Maker: Jeremy Rowe","loc_pcd":true,"title":"Mount Hawke Wellbeing Hub"},"type":"Feature"},
		{"geometry":{"coordinates":[-5.14008,50.19540],"type":"Point"},"properties":{"_source":"carefree_cornwall","address":"St Michael's Rd, Ponsanooth, Truro TR3 7EE & Chacewater Village Hall, Church Hill, Chacewater, Truro TR4 8PZ","description":"Address: St Michael's Rd, Ponsanooth, Truro TR3 7EE & Chacewater Village Hall, Church Hill, Chacewater, Truro TR4 8PZ Contact details: info@imagineif.net Warm/Cool Hub: Opening hours: Ponsanooth: 3rd Thu monthly 11:00–13:00. Chacewater: activity-based; check the current programme. Activities offered: Area of focus: Mental health & wellbeing; Loneliness & social connection Website: https://www.imagineif.net/ponsanooth-well-being-hub Community Maker Area: Mid (Carrick) Community Maker: Jeremy Rowe","loc_pcd":true,"title":"Ponsanooth/Chacewater Imagine IF"},"type":"Feature"},
		{"geometry":{"coordinates":[-4.92289,50.21866],"type":"Point"},"properties":{"_source":"carefree_cornwall","address":"Veryan Parish Hall, Veryan, Truro, TR2 5QA","description":"Address: Veryan Parish Hall, Veryan, Truro, TR2 5QA Contact details: 01872 580345 | letters.portscatho@nhs.net Warm/Cool Hub: Opening hours: Wednesday 10:00–13:00. Activities offered: Physical activity; Peer support; Food larder or café; Arts, crafts, games Area of focus: Older people; Long-term conditions; Health & wellbeing Website: https://veryanparishhall.co.uk/ Community Maker Area: Mid (Carrick) Community Maker: Jeremy Rowe","loc_pcd":true,"title":"Roseland Surgeries Patient Group"},"type":"Feature"},
		{"geometry":{"coordinates":[-5.04862,50.26445],"type":"Point"},"properties":{"_source":"carefree_cornwall","address":"Moresk Centre, Kemp Cl, Truro TR1 1EF (Mondays and Fridays)\nMalabar Community Centre, Albany Rd, Truro TR1 3PQ (Wednesdays)","description":"Address: Moresk Centre, Kemp Cl, Truro TR1 1EF (Mondays and Fridays) Malabar Community Centre, Albany Rd, Truro TR1 3PQ (Wednesdays) Contact details: 01872 274766 | moresk.centre@gmail.com; malabarcentre@hotmail.co.uk Warm/Cool Hub: Opening hours: Monday, Wednesday, Friday Activities offered: Physical activity; Peer support; Advice or external services; Food larder or café; Arts, crafts, games Area of focus: Loneliness & social connection; Cost of living / practical support Website: https://cornwallvsf.org/supporting/resources/community-hub-spotlight-the-sunshine-club-at-malabar-moresk-truro/ Community Maker Area: Mid (Carrick) Community Maker: Jeremy Rowe","loc_pcd":true,"title":"Truro - Sunshine Café Community Hub"},"type":"Feature"},
		{"geometry":{"coordinates":[-5.22933,50.23690],"type":"Point"},"properties":{"_source":"carefree_cornwall","address":"The Elms, 61 Green Ln, Redruth TR15 1LS","description":"Address: The Elms, 61 Green Ln, Redruth TR15 1LS Contact details: 01209 310610 | info@cn4c.org.uk Warm/Cool Hub: Opening hours: 7 days a week Activities offered: Peer support; Advice or external services; Health professionals visiting or personal care; Food larder or café; Arts, crafts, games; Digital inclusion Area of focus: Cost of living / practical support; Skills / employment; Health & wellbeing Website: https://www.cn4c.org.uk/whats-on Community Maker Area: West (Kerrier) Community Maker: Josh Clarke","loc_pcd":true,"title":"CN4C The Elms"},"type":"Feature"},
		{"geometry":{"coordinates":[-5.27075,50.22560],"type":"Point"},"properties":{"_source":"carefree_cornwall","address":"Heartlands, Unit 4 TR15 3FE","description":"Address: Heartlands, Unit 4 TR15 3FE Contact details: info@penleefamilyproject.org Warm/Cool Hub: Opening hours: Weekdays Activities offered: Peer support; Food larder or café; Arts, crafts, games Area of focus: Families & children; Parents / carers; Early years Website: https://penleefamilyproject.org/ Community Maker Area: West (Kerrier) Community Maker: Josh Clarke","loc_pcd":true,"title":"Penlee Family Project"},"type":"Feature"},
		{"geometry":{"coordinates":[-5.27327,50.10162],"type":"Point"},"properties":{"_source":"carefree_cornwall","address":"The Open Door, 14 Wendron Street, Helston. TR13 8PS","description":"Address: The Open Door, 14 Wendron Street, Helston. TR13 8PS Contact details: 01326 564194 | mustardseed@post.com Warm/Cool Hub: Opening hours: Monday, Wednesday, Thursday, Friday Activities offered: Peer support; Advice or external services; Food larder or café; Outdoor activity; Arts, crafts, games Area of focus: Learning disabilities; Cost of living / food support; Skills / employment; Mental health & wellbeing Website: https://mustardseedcharity.org.uk/ Community Maker Area: West (Kerrier) Community Maker: Josh Clarke","loc_pcd":true,"title":"Mustard Seed"},"type":"Feature"},
		{"geometry":{"coordinates":[-5.09321,50.21089],"type":"Point"},"properties":{"_source":"carefree_cornwall","address":"The Old Market Hall, Market St, Devoran, Truro TR3 6QA","description":"Address: The Old Market Hall, Market St, Devoran, Truro TR3 6QA Contact details: 01872 863333 | info@feockparishcouncil.co.uk Warm/Cool Hub: Extreme weather support: During very hot weather, this hub provides a safe, comfortable space open to the public, with access to facilities and practical resources. Opening hours: Monday-Friday (9:30am - 12pm) Activities offered: Physical activity; Food larder or café; Arts, crafts, games Area of focus: A broad community offer, with activities and support for people of all ages and needs. Website: https://myfeock.co.uk/index.php/whats-on/events-calendar Community Maker Area: Mid (Carrick) Community Maker: Jeremy Rowe","loc_pcd":true,"title":"MyFeock"},"type":"Feature"},
		{"geometry":{"coordinates":[-5.08442,50.16050],"type":"Point"},"properties":{"_source":"carefree_cornwall","address":"Dracaena Avenue, Falmouth, Cornwall, TR11 2ES","description":"Address: Dracaena Avenue, Falmouth, Cornwall, TR11 2ES Contact details: 01326 319414 | admin@dracaenacentre.org Warm/Cool Hub: Extreme weather support: During very hot weather, this hub provides a safe, comfortable space open to the public, with access to facilities and practical resources. Opening hours: Open to the public on weekdays, additional services within Hub at the weekend. Activities offered: Physical activity; Peer support; Advice or external services; Health professionals visiting or personal care; Food larder or café; Arts, crafts, games Area of focus: A broad community offer, with activities and support for people of all ages and needs. Website: https://dracaenacentre.org/ Community Maker Area: Mid (Carrick) Community Maker: Jeremy Rowe","loc_pcd":true,"title":"Dracaena Centre"},"type":"Feature"},
		{"geometry":{"coordinates":[-5.07182,50.15587],"type":"Point"},"properties":{"_source":"carefree_cornwall","address":"Killigrew St, Falmouth TR11 3PQ","description":"Address: Killigrew St, Falmouth TR11 3PQ Contact details: 01326 316880 | email@ageukcornwall.org.uk Warm/Cool Hub: Opening hours: Weekdays Activities offered: Physical activity; Peer support; Advice or external services; Health professionals visiting or personal care; Food larder or café; Outdoor activity; Arts, crafts, games; Digital inclusion Area of focus: Older people; Carers; Disability / additional needs; Loneliness & social connection Website: https://www.ageuk.org.uk/cornwall/our-services/falmouth-community-hub-c8cee2d1-809d-ed11-9ac4-0003ff32e812/ Community Maker Area: Mid (Carrick) Community Maker: Jeremy Rowe","loc_pcd":true,"title":"Age UK Falmouth"},"type":"Feature"},
		{"geometry":{"coordinates":[-5.20524,50.28015],"type":"Point"},"properties":{"_source":"carefree_cornwall","address":"Mount Hawke Wellbeing Hub, 61 Charlotte Cl, Mount Hawke, Truro TR4 8TN","description":"Address: Mount Hawke Wellbeing Hub, 61 Charlotte Cl, Mount Hawke, Truro TR4 8TN Contact details: 07855 434518 | mounthawkewellbeinghub@gmail.com Warm/Cool Hub: Opening hours: Fortnightly on Thursdays 10:30am - 1pm Activities offered: Peer support; Advice or external services; Health professionals visiting or personal care; Food larder or café Area of focus: Mental health & wellbeing; Loneliness & social connection Website: https://www.youtube.com/watch?v=4f7m0QMasdo Community Maker Area: Mid (Carrick) Community Maker: Jeremy Rowe","loc_pcd":true,"title":"Mount Hawke Wellbeing Hub"},"type":"Feature"},
		{"geometry":{"coordinates":[-5.14008,50.19540],"type":"Point"},"properties":{"_source":"carefree_cornwall","address":"St Michael's Rd, Ponsanooth, Truro TR3 7EE & Chacewater Village Hall, Church Hill, Chacewater, Truro TR4 8PZ","description":"Address: St Michael's Rd, Ponsanooth, Truro TR3 7EE & Chacewater Village Hall, Church Hill, Chacewater, Truro TR4 8PZ Contact details: info@imagineif.net Warm/Cool Hub: Opening hours: Ponsanooth: 3rd Thu monthly 11:00–13:00. Chacewater: activity-based; check the current programme. Activities offered: Area of focus: Mental health & wellbeing; Loneliness & social connection Website: https://www.imagineif.net/ponsanooth-well-being-hub Community Maker Area: Mid (Carrick) Community Maker: Jeremy Rowe","loc_pcd":true,"title":"Ponsanooth/Chacewater Imagine IF"},"type":"Feature"},
		{"geometry":{"coordinates":[-4.92289,50.21866],"type":"Point"},"properties":{"_source":"carefree_cornwall","address":"Veryan Parish Hall, Veryan, Truro, TR2 5QA","description":"Address: Veryan Parish Hall, Veryan, Truro, TR2 5QA Contact details: 01872 580345 | letters.portscatho@nhs.net Warm/Cool Hub: Opening hours: Wednesday 10:00–13:00. Activities offered: Physical activity; Peer support; Food larder or café; Arts, crafts, games Area of focus: Older people; Long-term conditions; Health & wellbeing Website: https://veryanparishhall.co.uk/ Community Maker Area: Mid (Carrick) Community Maker: Jeremy Rowe","loc_pcd":true,"title":"Roseland Surgeries Patient Group"},"type":"Feature"},
		{"geometry":{"coordinates":[-5.04862,50.26445],"type":"Point"},"properties":{"_source":"carefree_cornwall","address":"Moresk Centre, Kemp Cl, Truro TR1 1EF (Mondays and Fridays)\nMalabar Community Centre, Albany Rd, Truro TR1 3PQ (Wednesdays)","description":"Address: Moresk Centre, Kemp Cl, Truro TR1 1EF (Mondays and Fridays) Malabar Community Centre, Albany Rd, Truro TR1 3PQ (Wednesdays) Contact details: 01872 274766 | moresk.centre@gmail.com; malabarcentre@hotmail.co.uk Warm/Cool Hub: Opening hours: Monday, Wednesday, Friday Activities offered: Physical activity; Peer support; Advice or external services; Food larder or café; Arts, crafts, games Area of focus: Loneliness & social connection; Cost of living / practical support Website: https://cornwallvsf.org/supporting/resources/community-hub-spotlight-the-sunshine-club-at-malabar-moresk-truro/ Community Maker Area: Mid (Carrick) Community Maker: Jeremy Rowe","loc_pcd":true,"title":"Truro - Sunshine Café Community Hub"},"type":"Feature"},
		{"geometry":{"coordinates":[-5.22933,50.23690],"type":"Point"},"properties":{"_source":"carefree_cornwall","address":"The Elms, 61 Green Ln, Redruth TR15 1LS","description":"Address: The Elms, 61 Green Ln, Redruth TR15 1LS Contact details: 01209 310610 | info@cn4c.org.uk Warm/Cool Hub: Opening hours: 7 days a week Activities offered: Peer support; Advice or external services; Health professionals visiting or personal care; Food larder or café; Arts, crafts, games; Digital inclusion Area of focus: Cost of living / practical support; Skills / employment; Health & wellbeing Website: https://www.cn4c.org.uk/whats-on Community Maker Area: West (Kerrier) Community Maker: Josh Clarke","loc_pcd":true,"title":"CN4C The Elms"},"type":"Feature"},
		{"geometry":{"coordinates":[-5.27075,50.22560],"type":"Point"},"properties":{"_source":"carefree_cornwall","address":"Heartlands, Unit 4 TR15 3FE","description":"Address: Heartlands, Unit 4 TR15 3FE Contact details: info@penleefamilyproject.org Warm/Cool Hub: Opening hours: Weekdays Activities offered: Peer support; Food larder or café; Arts, crafts, games Area of focus: Families & children; Parents / carers; Early years Website: https://penleefamilyproject.org/ Community Maker Area: West (Kerrier) Community Maker: Josh Clarke","loc_pcd":true,"title":"Penlee Family Project"},"type":"Feature"},
		{"geometry":{"coordinates":[-5.27327,50.10162],"type":"Point"},"properties":{"_source":"carefree_cornwall","address":"The Open Door, 14 Wendron Street, Helston. TR13 8PS","description":"Address: The Open Door, 14 Wendron Street, Helston. TR13 8PS Contact details: 01326 564194 | mustardseed@post.com Warm/Cool Hub: Opening hours: Monday, Wednesday, Thursday, Friday Activities offered: Peer support; Advice or external services; Food larder or café; Outdoor activity; Arts, crafts, games Area of focus: Learning disabilities; Cost of living / food support; Skills / employment; Mental health & wellbeing Website: https://mustardseedcharity.org.uk/ Community Maker Area: West (Kerrier) Community Maker: Josh Clarke","loc_pcd":true,"title":"Mustard Seed"},"type":"Feature"}
	]
}
