{
	"type": "FeatureCollection",
	"features": [
		{"geometry":{"coordinates":[-3.42468,53.33512],"type":"Point"},"properties":{"_source":"warm_welcome","address":"The Church of the Holy Spirit, Prestatyn, Denbighshire LL19 7SS","description":"A totally free warm space on Wednesdays 10am-Midday, where refreshments are available and there are optional quizzes, games and activities as well as plenty of others to chat with. All very welcome.","hours":{"_text":"Wednesday: 10:00 - 12:00","opening":"We 10:00-12:00"},"title":"Chatty Café"},"type":"Feature"}
	]
}
