{
	"type": "FeatureCollection",
	"features": [
		{"geometry":{"coordinates":[-4.48604,54.81773],"type":"Point"},"properties":{"_source":"warm_welcome","address":"12 Main Street, Wigtownshire DG8 9SD","description":"Provides a warm welcoming space for the community","hours":{"_text":"Sunday: 11:00 - 15:00","opening":"Su 11:00-15:00"},"title":"Number 12"},"type":"Feature"},
		{"geometry":{"coordinates":[-4.44050,54.86844],"type":"Point"},"properties":{"_source":"warm_welcome","address":"The Wigtown Ploughman, Newton Stewart, Wigtownshire DG8 9HG","description":"The Wigtown Ploughman is a community owned pub and hotel in the heart of Wigown - Scotland's National Book Town. The Lounge is run by volunteers as a warm space where locals and visitors alike are welcomed to enjoy a coffee and a chat, read a book, play a game or join one of our regular activities.","hours":{"_text":"Monday: 10:00 - 12:00, Tuesday: 10:00 - 12:00, Wednesday: 10:00 - 12:00, Thursday: 10:00 - 12:00, Friday: 10:00 - 12:00","opening":"Mo 10:00-12:00; Tu 10:00-12:00; We 10:00-12:00; Th 10:00-12:00; Fr 10:00-12:00"},"title":"The Lounge @ The Wigtown Ploughman"},"type":"Feature"}
	]
}
