{
	"type": "FeatureCollection",
	"features": [
		{"geometry":{"coordinates":[-4.50081,50.74941],"type":"Point"},"properties":{"_source":"warm_welcome","address":"The Chapel, Holsworthy, Cornwall EX22 6UL","description":"We offer a drop--in Coffee Morning fortnightly on Thursday 10.30am to 12noon at the Chapel. Everyone is welcome, regularly or occasionally, for friendship, meeting new people and refreshments.","hours":{"_text":"Thursday: 10:30 - 12:00 Fortnightly","opening":"Th 10:30-12:00"},"title":"Chapel, Week St Mary"},"type":"Feature"},
		{"geometry":{"coordinates":[-4.35360,50.80905],"type":"Point"},"properties":{"_source":"warm_welcome","address":"Holsworthy Methodist Church,, Devon EX22 6BB","description":"Open to the public 1-2 pm on FRIDAYS for free tea and coffee and a snack (biscuits or cake) Please just go into the hall and let the person on the desk know you have come for refreshments only.","hours":{"_text":"Friday: 13:00 - 14:00","opening":"Fr 13:00-14:00"},"title":"Holsworthy Food Hub at Holsworthy Methodist Church"},"type":"Feature"},
		{"geometry":{"coordinates":[-4.35284,50.81083],"type":"Point"},"properties":{"_source":"warm_welcome","address":"Holsworthy Library, North Road, Devon, Devon Ex22 7TJ","hours":{"_text":"Monday: 14:00 - 17:00, Wednesday: 10:00 - 18:00, Thursday: 10:00 - 17:00, Saturday: 10:00 - 13:00","opening":"Mo 14:00-17:00; We 10:00-18:00; Th 10:00-17:00; Sa 10:00-13:00"},"title":"Holsworthy Library"},"type":"Feature"},
		{"geometry":{"coordinates":[-4.35270,50.81092],"type":"Point"},"properties":{"_source":"warm_welcome","address":"Holsworthy Library, Holsworthy, Devon EX22 6HA","description":"Library is open for public access to books, Wi-Fi, printing, jigsaws and free warm drinks. Additional winter opening hours are Friday mornings 10am - 1pm. Activities are also available as advertised. Usual opening hours. Mon 2pm-5pm, Tues closed, Wednesday 10am - 6pm, Thursday 10am - 5pm, Saturday 10am -1pm.","hours":{"_text":"Monday: 14:00 - 17:00, Wednesday: 10:00 - 18:00, Thursday: 10:00 - 17:00, Friday: 10:00 - 13:00, Saturday: 10:00 - 13:00","opening":"Mo 14:00-17:00; We 10:00-18:00; Th 10:00-17:00; Fr 10:00-13:00; Sa 10:00-13:00"},"title":"Holsworthy Library"},"type":"Feature"},
		{"geometry":{"coordinates":[-4.37728,50.83572],"type":"Point"},"properties":{"_source":"warm_welcome","address":"Holsworthy Methodist Church,, Holsworthy, Devon EX22 6BB","description":"The weekly Friendship Group is a warm, open space held on Church Premises. It runs on a Thursday afternoon throughout the year, is open to anyone and everyone, is free and offers a social space, games, refreshments (always cake!), occasional speakers, information on other services in the area and a listening ear.","hours":{"_text":"Thursday: 14:00 - 16:00","opening":"Th 14:00-16:00"},"title":"Holsworthy Methodist Church"},"type":"Feature"},
		{"geometry":{"coordinates":[-4.53893,50.82296],"type":"Point"},"properties":{"_source":"carefree_cornwall","address":"Berries Community Cafe, 40 Berries Ave, Bude EX23 8QE","description":"Address: Berries Community Cafe, 40 Berries Ave, Bude EX23 8QE Contact details: 01288 353403 | enquiries@neetside.co.uk Warm/Cool Hub: Opening hours: Neetside: weekdays 09:00–17:00. Berries café and hub sessions include Tue 14:30–16:30 and 1st/3rd Thu 10:00–12:00 and 14:30–16:30. Activities offered: Peer support; Advice or external services; Health professionals visiting or personal care; Food larder or café Area of focus: A broad community offer, with activities and support for people of all ages and needs. Website: https://neetside.co.uk/ Community Maker Area: North Community Maker: Penny Steventon","loc_pcd":true,"title":"Berries Community Café and Neetside Community Centre (Bude Stratton Community Project)"},"type":"Feature"},
		{"geometry":{"coordinates":[-4.53893,50.82296],"type":"Point"},"properties":{"_source":"carefree_cornwall","address":"Berries Community Cafe, 40 Berries Ave, Bude EX23 8QE","description":"Address: Berries Community Cafe, 40 Berries Ave, Bude EX23 8QE Contact details: 01288 353403 | enquiries@neetside.co.uk Warm/Cool Hub: Opening hours: Neetside: weekdays 09:00–17:00. Berries café and hub sessions include Tue 14:30–16:30 and 1st/3rd Thu 10:00–12:00 and 14:30–16:30. Activities offered: Peer support; Advice or external services; Health professionals visiting or personal care; Food larder or café Area of focus: A broad community offer, with activities and support for people of all ages and needs. Website: https://neetside.co.uk/ Community Maker Area: North Community Maker: Penny Steventon","loc_pcd":true,"title":"Berries Community Café and Neetside Community Centre (Bude Stratton Community Project)"},"type":"Feature"}
	]
}
