{
	"type": "FeatureCollection",
	"features": [
		{"geometry":{"coordinates":[-4.40777,50.56625],"type":"Point"},"properties":{"_source":"warm_welcome","address":"Coads Green Methodist Church, Launceston, Cornwall PL15 7LY","description":"You are very warmly welcomed! The space is open to all. Pop in for tea or coffee and a chat. At the same time, the chapel is also open for quiet time and prayer.","hours":{"_text":"Thursday: 10:00 - 12:00","opening":"Th 10:00-12:00"},"title":"Chapel Champions Drop In Coffee"},"type":"Feature"},
		{"geometry":{"coordinates":[-4.36342,50.64126],"type":"Point"},"properties":{"_source":"warm_welcome","address":"Southern Court, Newport Ind. Estate, Launceston, Cornwall PL15 8EX","description":"We cater from everyone and have toys for children, magazines, books and puzzles. A warm welcome from The Foodbank and Launceston Community Church providing a friendly space next to the Foodbank Charity Shop. Everyone welcome... bring along your craft projects, knitting and art materials. Enjoy free hot drinks, homemade soup, light lunches and afternoon cake.","hours":{"_text":"Thursday: 13:00 - 16:00","opening":"Th 13:00-16:00"},"title":"Launceston Community Church"},"type":"Feature"},
		{"geometry":{"coordinates":[-4.36990,50.64411],"type":"Point"},"properties":{"_source":"warm_welcome","address":"21 Mayne Close, Launceston, Cornwall PL15 8XQ","description":"This space is open to all every Thursday morning between 10-12. All are welcome to join us for a free cuppa and chat with other activities too.","hours":{"_text":"Thursday: 10:00 - 12:00","opening":"Th 10:00-12:00"},"title":"St. Cuthbert Mayne church hall"},"type":"Feature"},
		{"geometry":{"coordinates":[-4.36011,50.63591],"type":"Point"},"properties":{"_source":"warm_welcome","address":"Gateway 2 New Life, Gateway Centre, Madford Lane, Cornwall, Cornwall PL15 9TR","description":"The largest community centre in Launceston. We offer plenty of space to come and relax in our community cafe, Cafe Avodah.","hours":{"_text":"Monday: 09:00 - 13:00, Tuesday: 09:00 - 15:00, Wednesday: 09:00 - 15:00, Thursday: 09:00 - 15:00, Friday: 09:00 - 15:00, Sunday: 09:00 - 13:00","opening":"Mo 09:00-13:00; Tu 09:00-15:00; We 09:00-15:00; Th 09:00-15:00; Fr 09:00-15:00; Su 09:00-13:00"},"title":"The Gateway Centre"},"type":"Feature"},
		{"geometry":{"coordinates":[-4.35968,50.63531],"type":"Point"},"properties":{"_source":"carefree_cornwall","address":"Launceston Library, 1 Bounsall's Ln, Launceston PL15 9AB","description":"Address: Launceston Library, 1 Bounsall's Ln, Launceston PL15 9AB Contact details: 0300 1234 111 | launceston.library@liscornwall.org.uk Warm/Cool Hub: Opening hours: Library: Tue, Wed and Fri 09:30–17:00; Sat 10:00–13:00. The Health Hub: Weekdays Activities offered: Physical activity; Peer support; Advice or external services; Health professionals visiting or personal care; Food larder or café Area of focus: A broad community offer, with activities and support for people of all ages and needs. Website: https://www.cornwall.gov.uk/libraries-museums-and-archives/libraries/your-local-library/launceston-library-and-information-service/ Community Maker Area: East Community Maker: Jayne Roycroft and Carolyn Trevethick","loc_pcd":true,"title":"Launceston Community Hub Partnership"},"type":"Feature"},
		{"geometry":{"coordinates":[-4.43580,50.68147],"type":"Point"},"properties":{"_source":"carefree_cornwall","address":"North Petherwin Parish Hall, Hall, Launceston PL15 8LR","description":"Address: North Petherwin Parish Hall, Hall, Launceston PL15 8LR Contact details: Online contact form: https://www.npph.org.uk/ Warm/Cool Hub: Extreme weather support: During very cold or hot weather, this hub provides a safe, comfortable space open to the public, with access to facilities and practical resources. Opening hours: Activity-based. Open for scheduled community activities. Activities offered: Peer support; Arts, crafts, games Area of focus: Website: https://www.npph.org.uk/ Community Maker Area: East Community Maker: Jayne Roycroft and Carolyn Trevethick","loc_pcd":true,"title":"Rural East Group - North Petherwin"},"type":"Feature"},
		{"geometry":{"coordinates":[-4.35968,50.63531],"type":"Point"},"properties":{"_source":"carefree_cornwall","address":"Launceston Library, 1 Bounsall's Ln, Launceston PL15 9AB","description":"Address: Launceston Library, 1 Bounsall's Ln, Launceston PL15 9AB Contact details: 0300 1234 111 | launceston.library@liscornwall.org.uk Warm/Cool Hub: Opening hours: Library: Tue, Wed and Fri 09:30–17:00; Sat 10:00–13:00. The Health Hub: Weekdays Activities offered: Physical activity; Peer support; Advice or external services; Health professionals visiting or personal care; Food larder or café Area of focus: A broad community offer, with activities and support for people of all ages and needs. Website: https://www.cornwall.gov.uk/libraries-museums-and-archives/libraries/your-local-library/launceston-library-and-information-service/ Community Maker Area: East Community Maker: Jayne Roycroft and Carolyn Trevethick","loc_pcd":true,"title":"Launceston Community Hub Partnership"},"type":"Feature"},
		{"geometry":{"coordinates":[-4.43580,50.68147],"type":"Point"},"properties":{"_source":"carefree_cornwall","address":"North Petherwin Parish Hall, Hall, Launceston PL15 8LR","description":"Address: North Petherwin Parish Hall, Hall, Launceston PL15 8LR Contact details: Online contact form: https://www.npph.org.uk/ Warm/Cool Hub: Extreme weather support: During very cold or hot weather, this hub provides a safe, comfortable space open to the public, with access to facilities and practical resources. Opening hours: Activity-based. Open for scheduled community activities. Activities offered: Peer support; Arts, crafts, games Area of focus: Website: https://www.npph.org.uk/ Community Maker Area: East Community Maker: Jayne Roycroft and Carolyn Trevethick","loc_pcd":true,"title":"Rural East Group - North Petherwin"},"type":"Feature"}
	]
}
