{
	"type": "FeatureCollection",
	"features": [
		{"geometry":{"coordinates":[-4.23870,50.41360],"type":"Point"},"properties":{"_source":"warm_welcome","address":"Burraton Methodist Church, Saltash, Cornwall PL12 4RH","description":"Coffee Morning","hours":{"_text":"Saturday: 10:30 - 12:00","opening":"Sa 10:30-12:00"},"title":"Burraton Methodist Church"},"type":"Feature"},
		{"geometry":{"coordinates":[-4.31173,50.50571],"type":"Point"},"properties":{"_source":"warm_welcome","address":"Cornwall Council, Callington, Cornwall PL17 7DR","description":"The space is free, welcoming and open to all. Regular free events for all ages.","hours":{"_text":"Tuesday: 13:00 - 17:00, Thursday: 13:00 - 17:00, Friday: 09:00 - 13:00, Saturday: 10:00 - 13:00","opening":"Tu 13:00-17:00; Th 13:00-17:00; Fr 09:00-13:00; Sa 10:00-13:00"},"title":"Callington Library"},"type":"Feature"},
		{"geometry":{"coordinates":[-4.31802,50.50330],"type":"Point"},"properties":{"_source":"warm_welcome","address":"Callington Methodist Church, Callington, Cornwall PL17 7JJ","description":"Ground floor space with easy access to toilet facilities and parking","hours":{"_text":"Wednesday: 10:30 - 12:00, Sunday: 10:00 - 12:00","opening":"We 10:30-12:00; Su 10:00-12:00"},"title":"Callington Methodist Church, Haye Road, Callington, PL17 7JJ"},"type":"Feature"},
		{"geometry":{"coordinates":[-4.36941,50.36185],"type":"Point"},"properties":{"_source":"warm_welcome","address":"The Zone Health & Wellbeing Hub, Torpoint, Cornwall PL11 3JZ","description":"On a Monday afternoon 2pm-4pm you can have a go at a craft or just join us for a cuppa & a chat at our Craft Cafe & Art Group We also run evening & Saturday workshops from time time . Wednesday afternoons 2pm-3.30pm you can join our Music Club & learn how to play the ukulele or the guitar or have a sing. Wednesday evening at 6pm there is the opportunity to play table tennis-no experience needed & all equipment provided. During school holidays we run activities for primary school aged children & their parents.","hours":{"_text":"Monday: 14:00 - 16:00, Wednesday: 14:00 - 15:30 / 18:00 - 19:00","opening":"Mo 14:00-16:00; We 14:00-15:30,18:00-19:00"},"title":"Deviock Activities Group at the Zone, Downderry"},"type":"Feature"},
		{"geometry":{"coordinates":[-4.51421,50.45809],"type":"Point"},"properties":{"_source":"warm_welcome","address":"Dobwalls United Church, Cornwall PL14 6JF","description":"Open to all.","hours":{"_text":"Tuesday: 11:00 - 03:00","opening":"Tu 11:00-15:00"},"title":"Dobwalls Warm Space"},"type":"Feature"},
		{"geometry":{"coordinates":[-4.28772,50.42267],"type":"Point"},"properties":{"_source":"warm_welcome","address":"Landrake Methodist Church, Landrake, Cornwall PL12 5EA","description":"A lovely, safe, warm space where we gather for a Community Cafe 9-12 every Wednesday morning. Plus crafts, art, music and other activities throughout the month.","hours":{"_text":"Monday: 10:00 - 20:00, Wednesday: 09:00 - 12:00","opening":"Mo 10:00-20:00; We 09:00-12:00"},"title":"Landrake Chapel Community Hub"},"type":"Feature"},
		{"geometry":{"coordinates":[-4.45782,50.35713],"type":"Point"},"properties":{"_source":"warm_welcome","address":"Looe Library & Community Hub, Looe, Cornwall PL13 2AF","description":"A relaxed environment with seating with free hot drinks & snacks, soups and porridge. Plus a friendly face to sit and have a chat with.","hours":{"_text":"Tuesday: 10:00 - 12:00, Friday: 10:00 - 12:00","opening":"Tu 10:00-12:00; Fr 10:00-12:00"},"title":"Looe Library & Community Hub"},"type":"Feature"},
		{"geometry":{"coordinates":[-4.45712,50.35697],"type":"Point"},"properties":{"_source":"warm_welcome","address":"Looe Town Council, Cornwall PL13 2AF","description":"SPACE OPENING ON 14th November 2023** Our Warm Space is held in our community room/council chambers, which is on the first floor of our building.","hours":{"_text":"Tuesday: 10:00 - 12:00, Friday: 10:00 - 12:00","opening":"Tu 10:00-12:00; Fr 10:00-12:00"},"title":"Looe Library & Community Hub"},"type":"Feature"},
		{"geometry":{"coordinates":[-4.52019,50.33153],"type":"Point"},"properties":{"_source":"warm_welcome","address":"Polperro Methodist Chapel, 62 Fore Streert, Polperro, Cornwall PL13 2QR","description":"A very warm welcome awaits everyone at our beautiful chapel in the heart of Polperro. Our cosy room with a sunny balcony overlooking the streets of this pretty coastal village buzzes with laughter and camaraderie.","hours":{"_text":"Thursday: 10:00 - 04:00","opening":"Th 10:00-16:00"},"title":"Polperro Methodist Chapel"},"type":"Feature"},
		{"geometry":{"coordinates":[-4.22071,50.40998],"type":"Point"},"properties":{"_source":"warm_welcome","address":"Saltash Town Council Library Hub, Plougastel Drive, Saltash, Saltash, Cornwall PL12 6DX","description":"Saltash Town Council Library Hub is a library and community hub for everyone to use. We welcome all ages and backgrounds and a have warm, comfortable space for people to enjoy. What3Words- reverted.scanty.held","hours":{"_text":"Monday: 09:30 - 17:00, Tuesday: 09:30 - 17:00, Thursday: 09:30 - 17:00, Friday: 09:30 - 17:00, Saturday: 10:00 - 13:00","opening":"Mo 09:30-17:00; Tu 09:30-17:00; Th 09:30-17:00; Fr 09:30-17:00; Sa 10:00-13:00"},"title":"Saltash Town Council Library Hub"},"type":"Feature"},
		{"geometry":{"coordinates":[-4.31416,50.39744],"type":"Point"},"properties":{"_source":"warm_welcome","address":"St. Germans Methodist Church, Saltash, Cornwall PL12 5NR","description":"This coffee morning welcomes everyone","hours":{"_text":"Saturday: 10:00 - 12:00","opening":"Sa 10:00-12:00"},"title":"St Germans Charity Coffee & Cake Morning"},"type":"Feature"},
		{"geometry":{"coordinates":[-4.22620,50.51320],"type":"Point"},"properties":{"_source":"warm_welcome","address":"Tamar Valley Methodist Church, Cornwall, Cornwall PL18 9EP","description":"Open from 10/11/2022. Building is of one level with easy access, toilets and parking","hours":{"_text":"Monday: 10:00 - 12:00, Thursday: 10:00 - 12:00, Sunday: 10:00 - 12:00","opening":"Mo 10:00-12:00; Th 10:00-12:00; Su 10:00-12:00"},"title":"Tamar Valley Methodist Church"},"type":"Feature"},
		{"geometry":{"coordinates":[-4.45478,50.35422],"type":"Point"},"properties":{"_source":"warm_welcome","address":"The Haven, Cornwall PL13 1DX","description":"A welcome space with community freezer and food hub. Coffee tea cake and a warm welcome to all. Open Mon and Wed 2-4pm","hours":{"_text":"Monday: 14:00 - 16:00, Thursday: 10:30 - 16:00","opening":"Mo 14:00-16:00; Th 10:30-16:00"},"title":"The Haven"},"type":"Feature"},
		{"geometry":{"coordinates":[-4.45712,50.35697],"type":"Point"},"properties":{"_source":"warm_welcome","address":"Boundless Trust, Looe, Cornwall PL13 2AF","description":"Community centre next to the library","hours":{"_text":"Monday: 14:00 - 16:00, Wednesday: 16:00 - 19:00, Thursday: 10:30 - 16:00, Sunday: 17:00 - 19:00","opening":"Mo 14:00-16:00; We 16:00-19:00; Th 10:30-16:00; Su 17:00-19:00"},"title":"The Meeting Place"},"type":"Feature"},
		{"geometry":{"coordinates":[-4.36941,50.36185],"type":"Point"},"properties":{"_source":"warm_welcome","address":"The Zone, Downderry, Torpoint, Cornwall PL11 3JZ","description":"SPACE OPENING ON 1st December 2025** Old Methodist Chapel used as community facility, open to all","title":"The Zone Downderry"},"type":"Feature"},
		{"geometry":{"coordinates":[-4.23127,50.40965],"type":"Point"},"properties":{"_source":"carefree_cornwall","address":"Oaklands Community Centre, Saltash PL12 4EZ","description":"Address: Oaklands Community Centre, Saltash PL12 4EZ Contact details: oaklands@insaltash.co.uk Warm/Cool Hub: Opening hours: 7 days a week Activities offered: Peer support; Advice or external services; Food larder or café; Outdoor activity; Arts, crafts, games; Digital inclusion Area of focus: A broad community offer, with activities and support for people of all ages and needs. Website: https://visitsaltash.co.uk/listing/oaklands-community-centre/ Community Maker Area: East Community Maker: Jayne Roycroft and Carolyn Trevethick","loc_pcd":true,"title":"Oaklands"},"type":"Feature"},
		{"geometry":{"coordinates":[-4.21877,50.34716],"type":"Point"},"properties":{"_source":"carefree_cornwall","address":"The Peninsula Trust, 3 West St, Millbrook, Torpoint PL10 1AA","description":"Address: The Peninsula Trust, 3 West St, Millbrook, Torpoint PL10 1AA Contact details: Rame Centre: 01752 823909; Office: 01752 658516 | admin@thepeninsulatrust.org.uk Warm/Cool Hub: Extreme weather support: During very hot or cold weather and storms, this hub provides a safe, comfortable space open to the public, with access to facilities and practical resources. Opening hours: Weekday mornings Activities offered: Physical activity; Peer support; Advice or external services; Health professionals visiting or personal care; Food larder or café; Outdoor activity; Arts, crafts, games Area of focus: A broad community offer, with activities and support for people of all ages and needs. Website: https://www.thepeninsulatrust.org.uk/ Community Maker Area: East Community Maker: Jayne Roycroft and Carolyn Trevethick","loc_pcd":true,"title":"Rame Peninsula (Peninsula Trust)"},"type":"Feature"},
		{"geometry":{"coordinates":[-4.46271,50.45429],"type":"Point"},"properties":{"_source":"carefree_cornwall","address":"Bell House, 7 - 9 Church Street, Liskeard, PL143AG.","description":"Address: Bell House, 7 - 9 Church Street, Liskeard, PL143AG. Contact details: 01579 344102 | lighthousecicoffice@gmail.com Warm/Cool Hub: Opening hours: Weekdays Activities offered: Peer support; Advice or external services; Food larder or café; Arts, crafts, games Area of focus: A broad community offer, with activities and support for people of all ages and needs. Website: https://www.lighthousecommunitycentre.co.uk/ Community Maker Area: East Community Maker: Jayne Roycroft and Carolyn Trevethick","loc_pcd":true,"title":"Lighthouse Community Centre"},"type":"Feature"},
		{"geometry":{"coordinates":[-4.36933,50.36182],"type":"Point"},"properties":{"_source":"carefree_cornwall","address":"THE ZONE HEALTH & WELL BEING HUB\nMAIN ROAD DOWNDERRY, PL11 3JZ","description":"Address: THE ZONE HEALTH & WELL BEING HUB MAIN ROAD DOWNDERRY, PL11 3JZ Contact details: 01503 250052 | clerk.deviockpc@btinternet.com Warm/Cool Hub: Opening hours: Monday & Wednesday Activities offered: Physical activity; Peer support; Arts, crafts, games Area of focus: Physical activity; Health & Wellbeing; Loneliness & social connection Website: https://www.zonedownderry.org/ Community Maker Area: East Community Maker: Jayne Roycroft and Carolyn Trevethick","loc_pcd":true,"title":"Rural East Group - Deviock Action Group"},"type":"Feature"},
		{"geometry":{"coordinates":[-4.28984,50.42269],"type":"Point"},"properties":{"_source":"carefree_cornwall","address":"The Geffery Memorial Hall, 1 Fore St, Landrake, Saltash PL12 5DZ","description":"Address: The Geffery Memorial Hall, 1 Fore St, Landrake, Saltash PL12 5DZ Contact details: 01752 851196 Warm/Cool Hub: Opening hours: Activity-based. Regular sessions include Mon 09:30–11:30 and 13:30–15:30; Tue 10:00–12:00; Thu social hub 13:00–16:00. Activities offered: Area of focus: Website: https://www.facebook.com/groups/1564578373782538/ Community Maker Area: East Community Maker: Jayne Roycroft and Carolyn Trevethick","loc_pcd":true,"title":"Rural East Group - Landrake"},"type":"Feature"},
		{"geometry":{"coordinates":[-4.31432,50.39747],"type":"Point"},"properties":{"_source":"carefree_cornwall","address":"Eliot Hall, Church Street, St Germans, PL12 5NR","description":"Address: Eliot Hall, Church Street, St Germans, PL12 5NR Contact details: Online contact form: https://www.stgermanscommunityhall.org/ Warm/Cool Hub: Opening hours: Activity-based. Open for scheduled community activities. Activities offered: Physical activity; Arts, crafts, games Area of focus: Website: https://www.stgermanscommunityhall.org/ Community Maker Area: East Community Maker: Jayne Roycroft and Carolyn Trevethick","loc_pcd":true,"title":"Rural East Group - St Germans"},"type":"Feature"},
		{"geometry":{"coordinates":[-4.46775,50.45263],"type":"Point"},"properties":{"_source":"carefree_cornwall","address":"Liskerrett Community Centre, Community Centre, Varley Ln, Liskeard PL14 4AP","description":"Address: Liskerrett Community Centre, Community Centre, Varley Ln, Liskeard PL14 4AP Contact details: 01579 340307 | admin@liskerrett.co.uk Warm/Cool Hub: Opening hours: Reception open to the public on weekdays, additional services within Hub at the weekend. Activities offered: Physical activity; Peer support; Advice or external services; Food larder or café Area of focus: A broad community offer, with activities and support for people of all ages and needs. Website: https://www.liskerrett.co.uk/ Community Maker Area: East Community Maker: Jayne Roycroft and Carolyn Trevethick","loc_pcd":true,"title":"Liskerrett Community Centre"},"type":"Feature"},
		{"geometry":{"coordinates":[-4.45487,50.35448],"type":"Point"},"properties":{"_source":"carefree_cornwall","address":"The Haven community hub, Unit 6, The Quay, Looe PL13 1DX","description":"Address: The Haven community hub, Unit 6, The Quay, Looe PL13 1DX Contact details: 07766 020524 | looecommunitymeals@gmail.com Warm/Cool Hub: Opening hours: Activity-based: Mon and Thu Welcome Space 14:00–16:00; other regular sessions Wed, Thu and Sun. Activities offered: Food larder or café; Arts, crafts, games; Digital inclusion Area of focus: Families & children; Cost of Living; Health & Wellbeing; Loneliness & social connection Website: https://www.facebook.com/p/Boundless-Trust-100070465923972/ Community Maker Area: East Community Maker: Jayne Roycroft and Carolyn Trevethick","loc_pcd":true,"title":"Looe (Boundless Trust)"},"type":"Feature"},
		{"geometry":{"coordinates":[-4.31172,50.50571],"type":"Point"},"properties":{"_source":"carefree_cornwall","address":"Callington Library, Cornonation Road, Callington PL17 7DR","description":"Address: Callington Library, Cornonation Road, Callington PL17 7DR Contact details: 0300 1234 111 | libraries@cornwall.gov.uk Warm/Cool Hub: Opening hours: Tuesday, Thursday, Friday & Saturday Activities offered: Peer support; Arts, crafts, games Area of focus: Families & children; Loneliness & social connection Website: https://www.cornwall.gov.uk/libraries-museums-and-archives/libraries/your-local-library/callington-library/ Community Maker Area: East Community Maker: Jayne Roycroft and Carolyn Trevethick","loc_pcd":true,"title":"Callington Library"},"type":"Feature"},
		{"geometry":{"coordinates":[-4.23127,50.40965],"type":"Point"},"properties":{"_source":"carefree_cornwall","address":"Oaklands Community Centre, Saltash PL12 4EZ","description":"Address: Oaklands Community Centre, Saltash PL12 4EZ Contact details: oaklands@insaltash.co.uk Warm/Cool Hub: Opening hours: 7 days a week Activities offered: Peer support; Advice or external services; Food larder or café; Outdoor activity; Arts, crafts, games; Digital inclusion Area of focus: A broad community offer, with activities and support for people of all ages and needs. Website: https://visitsaltash.co.uk/listing/oaklands-community-centre/ Community Maker Area: East Community Maker: Jayne Roycroft and Carolyn Trevethick","loc_pcd":true,"title":"Oaklands"},"type":"Feature"},
		{"geometry":{"coordinates":[-4.21877,50.34716],"type":"Point"},"properties":{"_source":"carefree_cornwall","address":"The Peninsula Trust, 3 West St, Millbrook, Torpoint PL10 1AA","description":"Address: The Peninsula Trust, 3 West St, Millbrook, Torpoint PL10 1AA Contact details: Rame Centre: 01752 823909; Office: 01752 658516 | admin@thepeninsulatrust.org.uk Warm/Cool Hub: Extreme weather support: During very hot or cold weather and storms, this hub provides a safe, comfortable space open to the public, with access to facilities and practical resources. Opening hours: Weekday mornings Activities offered: Physical activity; Peer support; Advice or external services; Health professionals visiting or personal care; Food larder or café; Outdoor activity; Arts, crafts, games Area of focus: A broad community offer, with activities and support for people of all ages and needs. Website: https://www.thepeninsulatrust.org.uk/ Community Maker Area: East Community Maker: Jayne Roycroft and Carolyn Trevethick","loc_pcd":true,"title":"Rame Peninsula (Peninsula Trust)"},"type":"Feature"},
		{"geometry":{"coordinates":[-4.46271,50.45429],"type":"Point"},"properties":{"_source":"carefree_cornwall","address":"Bell House, 7 - 9 Church Street, Liskeard, PL143AG.","description":"Address: Bell House, 7 - 9 Church Street, Liskeard, PL143AG. Contact details: 01579 344102 | lighthousecicoffice@gmail.com Warm/Cool Hub: Opening hours: Weekdays Activities offered: Peer support; Advice or external services; Food larder or café; Arts, crafts, games Area of focus: A broad community offer, with activities and support for people of all ages and needs. Website: https://www.lighthousecommunitycentre.co.uk/ Community Maker Area: East Community Maker: Jayne Roycroft and Carolyn Trevethick","loc_pcd":true,"title":"Lighthouse Community Centre"},"type":"Feature"},
		{"geometry":{"coordinates":[-4.36933,50.36182],"type":"Point"},"properties":{"_source":"carefree_cornwall","address":"THE ZONE HEALTH & WELL BEING HUB\nMAIN ROAD DOWNDERRY, PL11 3JZ","description":"Address: THE ZONE HEALTH & WELL BEING HUB MAIN ROAD DOWNDERRY, PL11 3JZ Contact details: 01503 250052 | clerk.deviockpc@btinternet.com Warm/Cool Hub: Opening hours: Monday & Wednesday Activities offered: Physical activity; Peer support; Arts, crafts, games Area of focus: Physical activity; Health & Wellbeing; Loneliness & social connection Website: https://www.zonedownderry.org/ Community Maker Area: East Community Maker: Jayne Roycroft and Carolyn Trevethick","loc_pcd":true,"title":"Rural East Group - Deviock Action Group"},"type":"Feature"},
		{"geometry":{"coordinates":[-4.28984,50.42269],"type":"Point"},"properties":{"_source":"carefree_cornwall","address":"The Geffery Memorial Hall, 1 Fore St, Landrake, Saltash PL12 5DZ","description":"Address: The Geffery Memorial Hall, 1 Fore St, Landrake, Saltash PL12 5DZ Contact details: 01752 851196 Warm/Cool Hub: Opening hours: Activity-based. Regular sessions include Mon 09:30–11:30 and 13:30–15:30; Tue 10:00–12:00; Thu social hub 13:00–16:00. Activities offered: Area of focus: Website: https://www.facebook.com/groups/1564578373782538/ Community Maker Area: East Community Maker: Jayne Roycroft and Carolyn Trevethick","loc_pcd":true,"title":"Rural East Group - Landrake"},"type":"Feature"},
		{"geometry":{"coordinates":[-4.31432,50.39747],"type":"Point"},"properties":{"_source":"carefree_cornwall","address":"Eliot Hall, Church Street, St Germans, PL12 5NR","description":"Address: Eliot Hall, Church Street, St Germans, PL12 5NR Contact details: Online contact form: https://www.stgermanscommunityhall.org/ Warm/Cool Hub: Opening hours: Activity-based. Open for scheduled community activities. Activities offered: Physical activity; Arts, crafts, games Area of focus: Website: https://www.stgermanscommunityhall.org/ Community Maker Area: East Community Maker: Jayne Roycroft and Carolyn Trevethick","loc_pcd":true,"title":"Rural East Group - St Germans"},"type":"Feature"},
		{"geometry":{"coordinates":[-4.46775,50.45263],"type":"Point"},"properties":{"_source":"carefree_cornwall","address":"Liskerrett Community Centre, Community Centre, Varley Ln, Liskeard PL14 4AP","description":"Address: Liskerrett Community Centre, Community Centre, Varley Ln, Liskeard PL14 4AP Contact details: 01579 340307 | admin@liskerrett.co.uk Warm/Cool Hub: Opening hours: Reception open to the public on weekdays, additional services within Hub at the weekend. Activities offered: Physical activity; Peer support; Advice or external services; Food larder or café Area of focus: A broad community offer, with activities and support for people of all ages and needs. Website: https://www.liskerrett.co.uk/ Community Maker Area: East Community Maker: Jayne Roycroft and Carolyn Trevethick","loc_pcd":true,"title":"Liskerrett Community Centre"},"type":"Feature"},
		{"geometry":{"coordinates":[-4.45487,50.35448],"type":"Point"},"properties":{"_source":"carefree_cornwall","address":"The Haven community hub, Unit 6, The Quay, Looe PL13 1DX","description":"Address: The Haven community hub, Unit 6, The Quay, Looe PL13 1DX Contact details: 07766 020524 | looecommunitymeals@gmail.com Warm/Cool Hub: Opening hours: Activity-based: Mon and Thu Welcome Space 14:00–16:00; other regular sessions Wed, Thu and Sun. Activities offered: Food larder or café; Arts, crafts, games; Digital inclusion Area of focus: Families & children; Cost of Living; Health & Wellbeing; Loneliness & social connection Website: https://www.facebook.com/p/Boundless-Trust-100070465923972/ Community Maker Area: East Community Maker: Jayne Roycroft and Carolyn Trevethick","loc_pcd":true,"title":"Looe (Boundless Trust)"},"type":"Feature"},
		{"geometry":{"coordinates":[-4.31172,50.50571],"type":"Point"},"properties":{"_source":"carefree_cornwall","address":"Callington Library, Cornonation Road, Callington PL17 7DR","description":"Address: Callington Library, Cornonation Road, Callington PL17 7DR Contact details: 0300 1234 111 | libraries@cornwall.gov.uk Warm/Cool Hub: Opening hours: Tuesday, Thursday, Friday & Saturday Activities offered: Peer support; Arts, crafts, games Area of focus: Families & children; Loneliness & social connection Website: https://www.cornwall.gov.uk/libraries-museums-and-archives/libraries/your-local-library/callington-library/ Community Maker Area: East Community Maker: Jayne Roycroft and Carolyn Trevethick","loc_pcd":true,"title":"Callington Library"},"type":"Feature"}
	]
}
