{
	"type": "FeatureCollection",
	"features": [
		{"geometry":{"coordinates":[-0.05835,52.07639],"type":"Point"},"properties":{"_source":"warm_welcome","address":"United Reformed Church, Bassingbourn, Cambridgeshire SG8 5NJ","description":"Community Hub that's welcome to all. Open Thursdays 2pm-4pm for a warm space to enjoy free refreshments and meet others.","hours":{"_text":"Thursday: 14:00 - 16:00","opening":"Th 14:00-16:00"},"title":"Bassingbourn Chatty Cafe"},"type":"Feature"},
		{"geometry":{"coordinates":[-0.26026,52.08752],"type":"Point"},"properties":{"_source":"warm_welcome","address":"The Labour Hall, Biggleswade, Bedfordshire SG18 0LN","description":"SPACE OPENING ON 2nd November 2024**","hours":{"_text":"Thursday: 14:00 - 20:00, Saturday: 13:00 - 16:00","opening":"Th 14:00-20:00; Sa 13:00-16:00"},"title":"Biggleswade Warm Space"},"type":"Feature"},
		{"geometry":{"coordinates":[-0.02615,52.20782],"type":"Point"},"properties":{"_source":"warm_welcome","address":"Caldecote Pavilion, Caldecote, Cambridgeshire CB23 7ZH","description":"Community Hub that's welcome to all and provides a warm space to enjoy free refreshments and meet others. Lunch provided for a small donation.","hours":{"_text":"Tuesday: 10:00 - 16:00","opening":"Tu 10:00-16:00"},"title":"Caldecote Community Hub"},"type":"Feature"},
		{"geometry":{"coordinates":[-0.06580,52.21928],"type":"Point"},"properties":{"_source":"warm_welcome","address":"Sackville House, Cambourne, Cambridgeshire CB23 HLHL 6HL","description":"Open from 27/11/2023","hours":{"_text":"Monday: 09:00 - 17:00, Tuesday: 09:00 - 13:00, Thursday: 13:00 - 19:00, Friday: 09:00 - 17:00, Saturday: 09:00 - 13:00","opening":"Mo 09:00-17:00; Tu 09:00-13:00; Th 13:00-19:00; Fr 09:00-17:00; Sa 09:00-13:00"},"title":"Cambourne Library"},"type":"Feature"},
		{"geometry":{"coordinates":[-0.27195,52.22855],"type":"Point"},"properties":{"_source":"warm_welcome","address":"Priory Centre, St. Neots, Cambridgeshire PE19 2BH","description":"SPACE OPENING ON 8th January 2024** A fun but easy dance class to Musicals showstoppers. Broadway Boogie Encore is for everyone including older adults . Free hot drinks afterwards. Mondays 9.30am The Priory Centre, St Neots","hours":{"_text":"Monday: 09:30 - 11:00","opening":"Mo 09:30-11:00"},"title":"DANCE WITH LYNNE"},"type":"Feature"},
		{"geometry":{"coordinates":[-0.27157,52.22822],"type":"Point"},"properties":{"_source":"warm_welcome","address":"Cambridgeshire County Council, St. Neots, Cambridgeshire PE19 2BH","description":"We welcome you to browse and borrow our collection, access our PCs and WI-FI for free and use our space to study, meet, share or just relax. We cater for all ages with many free events and activities throughout the week.","hours":{"_text":"Monday: 09:30 - 17:00, Tuesday: 09:30 - 17:00, Wednesday: 13:30 - 19:00, Thursday: 09:30 - 17:00, Friday: 09:30 - 17:00, Saturday: 09:30 - 16:00","opening":"Mo 09:30-17:00; Tu 09:30-17:00; We 13:30-19:00; Th 09:30-17:00; Fr 09:30-17:00; Sa 09:30-16:00"},"title":"St Neots Library"},"type":"Feature"},
		{"geometry":{"coordinates":[-0.26258,52.08553],"type":"Point"},"properties":{"_source":"warm_welcome","address":"St. Peters Church, Biggleswade, Bedfordshire SG18 8AL","description":"SPACE OPENING ON 1st December 2025** TEA AND CHAT - MONDAYS - 10AM TO 12PM - ALL WELCOME","hours":{"_text":"Monday: 10:00 - 12:00","opening":"Mo 10:00-12:00"},"title":"ST PETERS CHURCH"},"type":"Feature"},
		{"geometry":{"coordinates":[-0.30190,52.16362],"type":"Point"},"properties":{"_source":"warm_welcome","address":"Wheatsheaf, Sandy, Bedfordshire SG19 2AN","description":"Pub at the heart of the village, which is open from 12pm and always warm. Free tea and coffee available from our urns.","hours":{"_text":"Monday: 12:00 - 22:00, Tuesday: 12:00 - 22:00, Wednesday: 12:00 - 22:00, Thursday: 12:00 - 22:00, Friday: 12:00 - 23:30, Saturday: 12:00 - 23:30, Sunday: 12:00 - 21:30","opening":"Mo 12:00-22:00; Tu 12:00-22:00; We 12:00-22:00; Th 12:00-22:00; Fr 12:00-23:30; Sa 12:00-23:30; Su 12:00-21:30"},"title":"The Wheatsheaf Tempsford"},"type":"Feature"},
		{"geometry":{"coordinates":[-0.01150,52.18650],"type":"Point"},"properties":{"_source":"warm_welcome","address":"Toft People’s Hall, Cambridge, CB23 2RJ","description":"A place for connection, conversation, and light refreshments. Seasonal or winter opening for local communities.","hours":{"_text":"Monday: 10:00 - 12:00","opening":"Mo 10:00-12:00"},"title":"Toft Community Hub"},"type":"Feature"},
		{"geometry":{"coordinates":[-0.02613,52.20782],"type":"Point"},"properties":{"_source":"cambridgeshire_acre","address":"Caldecote Pavilion, Furlong Way, Highfields, Caldecote, Cambridge, CB23 7ZH","hours":{"_text":"Tuesday, 11am - 1pm","opening":"Tu 11:00-13:00"},"loc_pcd":true,"title":"Caldecote Community Hub"},"type":"Feature"},
		{"geometry":{"coordinates":[-0.01439,52.18285],"type":"Point"},"properties":{"_source":"cambridgeshire_acre","address":"Toft People’s Hall, 1 School Lane, Toft, Cambridge, CB23 2RJ","loc_pcd":true,"title":"Toft Community Hub"},"type":"Feature"},
		{"geometry":{"coordinates":[-0.26795,52.24322],"type":"Point"},"properties":{"_source":"huntingdonshire_council","address":"Little Paxton - Kingfisher Church Coffee Stop, 2 Samuel Jones Crescent, Little Paxton, Saint Neots, PE19 6QY","contact":"Email: admin@kclp.uk","description":"Facilities: Accessible toilets, Accessible access in and out of the building, Fully accessible access throughout the building, Changing facilities, Car park, Free WiFi access, Available power sockets for people to use, Kitchen, Facilities to make hot food/drink (kettle/microwave), Secure building","loc_pcd":true,"url":"tel:07907016457"},"type":"Feature"},
		{"geometry":{"coordinates":[-0.25957,52.25074],"type":"Point"},"properties":{"_source":"huntingdonshire_council","address":"Little Paxton - St James' Church, High Street, PE19 6EY","contact":"Email: admin@thepaxtonsbenefice.org","description":"1.30pm - 3.30pm, 1.30pm - 5pm, 11am - 12.30pm, 10.30am - 12pm, 12.30pm - 2.30pm, 10.45am - 12pm, 9.15am - 10.15am, 29 January<br />5 February<br />12 February<br />26 February, 12pm - 2pmFacilities: Accessible toilets, Accessible access in and out of the building, Power sockets for people to use, Facilities to make hot food and drinks - kettle/microwave, Secure building, Hearing loop, Screen or television, Access to free activities, eg board games, jigsaws, drawing and colouring resources","loc_pcd":true,"url":"tel:01480877215"},"type":"Feature"},
		{"geometry":{"coordinates":[-0.25735,52.22778],"type":"Point"},"properties":{"_source":"huntingdonshire_council","address":"St Neots Evangelical Church, Cambridge Street, St Neots, PE19 1PL","contact":"Email: admin@snec.org.uk","description":"Facilities: Accessible toilets, Accessible access in and out of the building, Car park, Secure building","loc_pcd":true},"type":"Feature"},
		{"geometry":{"coordinates":[-0.27195,52.22855],"type":"Point"},"properties":{"_source":"huntingdonshire_council","address":"St Neots Library, Priory Lane, St Neots, PE19 2BH","description":"Monday: 9.30am – 5pm<br />Tuesday: 9.30am – 5pm<br />Wednesday: 1.30pm – 7pm<br />Thursday: 9.30am – 5pm<br />Friday: 9.30am – 5pm<br />Saturday: 9.30am – 4pm<br />Sunday: ClosedFacilities: Toilet facilities, including disabled toilets, Baby changing facilities , Private changing area, Free WiFi - you don't need a library card to use this service, Computer - available to book","hours":{"_text":"Monday: 9.30am – 5pm; Tuesday: 9.30am – 5pm; Wednesday: 1.30pm – 7pm; Thursday: 9.30am – 5pm; Friday: 9.30am – 5pm; Saturday: 9.30am – 4pm; Sunday: Closed","opening":"Mo 09:30-17:00; Tu 09:30-17:00; We 13:30-19:00; Th 09:30-17:00; Fr 09:30-17:00; Sa 09:30-16:00"},"loc_pcd":true,"url":"tel:03450455225"},"type":"Feature"},
		{"geometry":{"coordinates":[-0.24580,52.23220],"type":"Point"},"properties":{"_source":"huntingdonshire_council","address":"St Neots - Love's Farm House, 17 Kester Way, St Neots, PE19 6SL","contact":"Email: bookings@lovesfarmhouse.co.uk","description":"Facilities: Accessible toilets, Accessible access in and out of the building, Fully accessible access throughout the building, Car park (limited parking available), Free Wi-Fi access, Available power sockets for people to use, Access to free activities, for example jigsaws, drawing and colouring resources","loc_pcd":true,"url":"tel:01480454441"},"type":"Feature"},
		{"geometry":{"coordinates":[-0.26858,52.21686],"type":"Point"},"properties":{"_source":"huntingdonshire_council","address":"St Neots One Leisure Centre Cafe Area, Barford Road, Eynesbury, St Neots, PE19 2SA","description":"Monday to Friday: 10am to 6pm, Saturday to Sunday: 10am to 3pm, <strong>Please note: the cafe is not open. However, you are more than welcome to come and use our space during the opening hours as you wish. You may choose to attend to keep warm, read a magazine or meet a friend.</strong>Facilities: Accessible toilets, Accessible access in and out of the building, Fully accessible access throughout the building, Changing facilities, Car park, Free WiFi access, Available power sockets for people to use, Secure building.","loc_pcd":true,"url":"tel:01480388111"},"type":"Feature"},
		{"geometry":{"coordinates":[-0.28308,52.22372],"type":"Point"},"properties":{"_source":"huntingdonshire_council","address":"St Neots - Open Door Church Centre, 31a St Neots Road, St Neots, PE19 7BA","contact":"Email: office@opendoorchurch.co.uk","description":"Facilities: Accessible toilets, Accessible access in and out of the building, Changing facilities, Car park, Power sockets for people to use, Kitchen, Facilities to make hot food/drink, for example kettle/microwave, Secure building","loc_pcd":true,"url":"tel:01480211066"},"type":"Feature"},
		{"geometry":{"coordinates":[-0.27195,52.22855],"type":"Point"},"properties":{"_source":"huntingdonshire_council","address":"St Neots Town Council / Priory Centre, Priory Lane, St Neots, PE19 2BH","contact":"Email: priory.centre@stneots-tc.gov.uk","description":"9am - 11am, 9am - 5pm, 9.30am - 12.30pmFacilities: Accessible toilets, Accessible access in and out of the building, Fully accessible access throughout the building, Free WiFi, Power sockets available for people to use, Secure building, Hearing loop, Food hygiene registered","loc_pcd":true,"url":"tel:01480388922"},"type":"Feature"},
		{"geometry":{"coordinates":[-0.02802,52.20742],"type":"Point"},"properties":{"_source":"south_cambs_council","address":"Open on Tuesdays from 11am to 1pm","title":"Caldecote Sports Pavilion"},"type":"Feature"},
		{"geometry":{"coordinates":[-0.06408,52.21865],"type":"Point"},"properties":{"_source":"south_cambs_council","address":"Cambourne Community Centre<br>High Street<br>Great Cambourne<br>Cambridge<br>CB23 6GW<br><br>","hours":{"_text":"Monday and Friday, 9:30am to 1pm","opening":"Mo 09:30-13:00; Fr 09:30-13:00"},"title":"Cambourne Community Hub"},"type":"Feature"},
		{"geometry":{"coordinates":[-0.01338,52.18662],"type":"Point"},"properties":{"_source":"south_cambs_council","address":"Toft People’s Hall<br> 1 School Lane<br>Toft, Cambridge<br>CB23 2RJ<br><br>","hours":{"_text":"Mondays, 10am to 12pm","opening":"Mo 10:00-12:00"},"title":"Toft Community Hub"},"type":"Feature"}
	]
}
