{
	"type": "FeatureCollection",
	"features": [
		{"geometry":{"coordinates":[-0.22687,51.97966],"type":"Point"},"properties":{"_source":"warm_welcome","address":"Broadway Studio & Gallery, Letchworth Garden City, Hertfordshire SG6 3ES","description":"Broadway Gallery is based in Letchworth Garden City. We support and develop a programme of exhibitions, events and educational activities that inspire our community. At the heart of the Gallery is the Garden City Arts Club, a relaxed, informal space at the heart of the Gallery. It is a free, public area where you can meet others, catch up on work, or simply take a break. It’s open to everyone – whether you’re visiting the Gallery or just looking for a quiet, welcoming space. There are plenty of activities available for children too, making it a space for all ages. Bring your own packed lunch, connect to our free Wi-Fi, or help yourself to a hot drink or squash. There’s no pressure to buy anything, and no time limit on your stay – though donations are always welcome. The space also includes our shop, featuring a carefully curated range of greeting cards, gifts, and locally inspired items that celebrate Letchworth’s unique character.","hours":{"_text":"Wednesday: 10:00 - 17:00, Thursday: 10:00 - 17:00, Friday: 10:00 - 17:00, Saturday: 10:00 - 17:00","opening":"We 10:00-17:00; Th 10:00-17:00; Fr 10:00-17:00; Sa 10:00-17:00"},"title":"Broadway Gallery"},"type":"Feature"},
		{"geometry":{"coordinates":[-0.27195,51.95036],"type":"Point"},"properties":{"_source":"warm_welcome","address":"Walsworth Road Baptist Church, Hertfordshire SG4 9SP","description":"Cafe style space for all ages. Free drinks and snacks plus grab bags (to takeaway) with food, toiletries and general items. A chance to pop in, meet friends old and new, or just chill out on your own. All are welcome - Come & Say Hello!","hours":{"_text":"Saturday: 10:00 - 12:30","opening":"Sa 10:00-12:30"},"title":"Cafe Connect"},"type":"Feature"},
		{"geometry":{"coordinates":[-0.18528,51.90308],"type":"Point"},"properties":{"_source":"warm_welcome","address":"190 Bedwell Crescent, Stevenage, Herts SG1 1NE","description":"Drop-in open to all. A place to meet, to relax or chat. A listening ear and advice service available.","hours":{"_text":"Wednesday: 10:00 - 12:00","opening":"We 10:00-12:00"},"title":"Community Connect Drop-In"},"type":"Feature"},
		{"geometry":{"coordinates":[-0.18839,51.88538],"type":"Point"},"properties":{"_source":"warm_welcome","address":"1a Broad Oak Way, Stevenage, Hertfordshire SG2 8QL","description":"The space is open to all , in the heart of the community space is limited but you can get a hot / cold drinks and some food, free WiFi , information support social activities","hours":{"_text":"Tuesday: 10:00 - 12:00","opening":"Tu 10:00-12:00"},"title":"Crossroads Community Hub"},"type":"Feature"},
		{"geometry":{"coordinates":[-0.21668,51.98149],"type":"Point"},"properties":{"_source":"warm_welcome","address":"Letchworth Garden City Heritage Foundation, Letchworth Garden City, Hertfordshire SG6 3BF","description":"Museum at One Garden City is a vibrant micro-museum in Letchworth inviting visitors to discover the story of the world’s first Garden City. Beautifully designed, welcoming and interactive, the museum’s photographs, iconic objects and rotating décor, take audiences on a memorable journey through the commercial, educational, and domestic history of Letchworth Garden City. Learn how Letchworth’s founder, Ebenezer Howard, combined the best of both town and country to make the Garden City a great place to live and work. Admire the 60s retro sideboard and telephone table, and immerse yourself in the style of a mid-century home furnished by Meredew of Letchworth, one of the most important contemporary furniture manufacturers in the UK. Other design success stories that you can admire include the Chater-Lea bicycles and the Everyman’s Library, created by publisher J. M. Dent who built Temple Press in Letchworth to print the one shilling, which are now collectable classics. Offering something for everyone, young children can play at a full-size shop with counter and original working till. A smaller market stall entertains the younger shoppers with aromatic carbolic soap and pear drops evoking days gone by. Grab a pen and leave your mark on the museum’s whiteboard wall! Exhibits are updated regularly with historical objects from the Garden City Collection: an archive of over 250,000 objects looked after by the Heritage Foundation. The museum is located at One Garden City, off Broadway Gardens, and open every Monday to Saturday from 10am to 4pm.","hours":{"_text":"Monday: 10:00 - 16:00, Tuesday: 10:00 - 16:00, Wednesday: 10:00 - 16:00, Thursday: 10:00 - 16:00, Friday: 10:00 - 16:00, Saturday: 10:00 - 16:00","opening":"Mo 10:00-16:00; Tu 10:00-16:00; We 10:00-16:00; Th 10:00-16:00; Fr 10:00-16:00; Sa 10:00-16:00"},"title":"Museum at One Garden City"},"type":"Feature"},
		{"geometry":{"coordinates":[-0.28174,51.95039],"type":"Point"},"properties":{"_source":"warm_welcome","address":"Bedford Road, Hitchin, Hertfordshire SG5 1HF","description":"Refresh is a drop-in, open Tuesday and Friday morning, 10:00 - 13:00. All are assured of a warm welcome and the opportunity to either sit and chat with others over a cuppa with cake/biscuits or there's space in the church or hall if you just want some down time by yourself. Some people drop in every week, others less frequently. Some stay all morning, others for just a short while. There is the opportunity to play board games ( a small group play Scrabble every week) and the Knit and Natter group meet some weeks.","hours":{"_text":"Tuesday: 10:00 - 13:00, Friday: 10:00 - 13:00","opening":"Tu 10:00-13:00; Fr 10:00-13:00"},"title":"Refresh@Christchurch Hitchin"},"type":"Feature"},
		{"geometry":{"coordinates":[-0.27190,51.95035],"type":"Point"},"properties":{"_source":"warm_welcome","address":"Walsworth Road Baptist Church, Hertfordshire SG4 9SP","description":"Renew 2-9 is based around the 5 Ways to Wellbeing and is a space where those of any faith and of none are welcome to belong, to reduce social isolation and where people can encounter God's love. There is a short time of reflection at the beginning and end of each session for those that would like to join in. Our leaders look forward to welcoming you.","hours":{"_text":"Monday: 14:00 - 16:00","opening":"Mo 14:00-16:00"},"title":"Renew 2-9"},"type":"Feature"},
		{"geometry":{"coordinates":[-0.33560,52.04144],"type":"Point"},"properties":{"_source":"warm_welcome","address":"Shefford Baptist Church, 4 Bedford Road, Bedfordshire SG17 5DJ","description":"Relaxed and friendly space with jigsaws, games, crafts, and quiet space/prayer corner. A space to connect, or just to breathe. Simple free lunch available, freshly prepared. Light refreshments too. Social Prescriber present to chat to for further help and information. All welcome, drop-in or stay all day.","hours":{"_text":"Monday: 10:00 - 14:00","opening":"Mo 10:00-14:00"},"title":"Shared Space"},"type":"Feature"},
		{"geometry":{"coordinates":[-0.33460,52.04142],"type":"Point"},"properties":{"_source":"warm_welcome","address":"Shefford Baptist Church, Bedfordshire SG17 5DJ","description":"A place where you will get a warm welcome and refreshments together with the opportunity to socialise between 10am and 2pm between now and March 2024. A social prescriber will be on hand to advise on such things as benefit entitlements. There will be prayer corner should you wish to use it.","hours":{"_text":"Monday: 10:00 - 14:00","opening":"Mo 10:00-14:00"},"title":"Shefford Baptist Church"},"type":"Feature"},
		{"geometry":{"coordinates":[-0.34478,52.03671],"type":"Point"},"properties":{"_source":"warm_welcome","address":"Ampthill Road, Shefford, Bedfordshire SG17 5BD","description":"Games, Jigsaws, magazines","hours":{"_text":"Wednesday: 08:00 - 14:00","opening":"We 08:00-14:00"},"title":"Shefford Methodist Church"},"type":"Feature"},
		{"geometry":{"coordinates":[-0.16959,51.91076],"type":"Point"},"properties":{"_source":"warm_welcome","address":"Mobbsbury Way, Stevenage","description":"Open from September 2023 All welcome for tea/coffee/ cheese sandwiches and cuppa soup and loadsa custard creams","hours":{"_text":"Tuesday: 12:00 - 01:00, Thursday: 12:00 - 01:00","opening":"Tu 12:00-13:00; Th 12:00-13:00"},"title":"St Hugh and St John's Church"},"type":"Feature"},
		{"geometry":{"coordinates":[-0.18341,51.85215],"type":"Point"},"properties":{"_source":"communities_1st","address":"Woolmer Green Village Hall, Hall Ln, Woolmer Green SG3 6XA","description":"Supported Area: Welwyn Hatfield Borough\nAccessible entrance\nFree Wifi\nCharging facilities\nHot drinks\nToilets\nAccessible toilets\nBaby changing facilities\nParking","loc_pcd":true,"title":"St Michael's Woolmer Green Warm Welcome","url":"https://www.communities1st.org.uk/warm-hubs/st-michael039s-woolmer-green-warm-welcome/626941"},"type":"Feature"},
		{"geometry":{"coordinates":[-0.22760,51.97970],"type":"Point"},"properties":{"_source":"communities_1st","address":"19 Station Road, Letchworth, Herts, SG6 3BB","description":"Supported Area: North Hertfordshire\nAccessible entrance\nFree Wifi\nFree use of computers/devices\nHot drinks\nBook borrowing / swap\nAccessible toilets\nActivities\nAdvice, information &amp; guidance","loc_pcd":true,"title":"Create Community Network CIC","url":"https://www.communities1st.org.uk/warm-hubs/create-community-network-cic/633928"},"type":"Feature"}
	]
}
