{
	"type": "FeatureCollection",
	"features": [
		{"geometry":{"coordinates":[-0.06852,51.38512],"type":"Point"},"properties":{"_source":"warm_welcome","address":"Ashburton Hall & Park, London CR0 6NN","description":"Ashburton Hall, Croydon's Community Hub, aims to create a place for local groups, charities, artists and fitness enthusiasts to meet and enjoy and socialise in this beautiful space. The Better Coffee Corner at Ashburton Hall is located right in the heart of Ashburton Park and is open to all. Starting from Monday 4th December, local residents will be able to keep warm, charge a phone and enjoy a friendly chat over a cuppa with our new Warm Spaces Scheme. Feel free to drop-in during the times below and enjoy the company of your community. We'll also be able to sign post to local leisure and sport activities available at the centre.","hours":{"_text":"Tuesday: 13:00 - 15:00","opening":"Tu 13:00-15:00"},"title":"Ashburton Hall & Park"},"type":"Feature"},
		{"geometry":{"coordinates":[-0.30246,51.31346],"type":"Point"},"properties":{"_source":"warm_welcome","address":"Ashtead Library, Surrey KT21 2BQ","description":"A warm space open to all. Includes books for pleasure and learning, free Wi-Fi and computer access. Also available are free hot and cold drinks and activities such as games and puzzles.","hours":{"_text":"Monday: 10:00 - 13:00 / 14:00 - 17:00, Tuesday: 10:00 - 13:00 / 14:00 - 17:00, Thursday: 10:00 - 13:00 / 14:00 - 17:00, Friday: 10:00 - 13:00 / 14:00 - 17:00, Saturday: 09:30 - 17:00","opening":"Mo 10:00-13:00,14:00-17:00; Tu 10:00-13:00,14:00-17:00; Th 10:00-13:00,14:00-17:00; Fr 10:00-13:00,14:00-17:00; Sa 09:30-17:00"},"title":"Ashtead Library"},"type":"Feature"},
		{"geometry":{"coordinates":[-0.20560,51.32180],"type":"Point"},"properties":{"_source":"warm_welcome","address":"Banstead Library, Banstead, Surrey SM7 2AW","description":"A warm space open to everyone. It’s a welcoming place where you can enjoy books for pleasure and learning, access free Wi-Fi and computers, or simply relax. Whether you want to work, study, or join in our events and activities, this is your space. We also offer free hot and cold drinks, along with games, puzzles, and more to help you unwind and connect. Banstead Library SM7 2AW","hours":{"_text":"Tuesday: 09:30 - 17:00, Wednesday: 09:30 - 17:00, Thursday: 09:30 - 17:00, Friday: 09:30 - 17:00, Saturday: 09:30 - 17:00","opening":"Tu 09:30-17:00; We 09:30-17:00; Th 09:30-17:00; Fr 09:30-17:00; Sa 09:30-17:00"},"title":"Banstead Library"},"type":"Feature"},
		{"geometry":{"coordinates":[-0.20754,51.32222],"type":"Point"},"properties":{"_source":"warm_welcome","address":"Civic Centre, The Horseshoe,, SM7 2BQ","description":"SPACE OPENING ON 7th November 2023** Our music hubs are designed to bring together all members from the local community for an hour of intergeneration fun. This includes singing, arts&crafts and lots of music to kick start conversations.","hours":{"_text":"Tuesday: 10:00 - 11:00","opening":"Tu 10:00-11:00"},"title":"Banstead Music Hub"},"type":"Feature"},
		{"geometry":{"coordinates":[-0.15572,51.37819],"type":"Point"},"properties":{"_source":"warm_welcome","address":"Brio Retirement, Wallington, Surrey SM6 7GD","description":"Button House is open Tuesday - Sunday offering soup of the day and a roll for £2 for 55s in the local community.","hours":{"_text":"Tuesday: 13:00 - 15:00, Wednesday: 13:00 - 15:00, Thursday: 13:00 - 15:00, Friday: 13:00 - 15:00, Saturday: 13:00 - 15:00, Sunday: 13:00 - 15:00","opening":"Tu 13:00-15:00; We 13:00-15:00; Th 13:00-15:00; Fr 13:00-15:00; Sa 13:00-15:00; Su 13:00-15:00"},"title":"Brio Retirement Living Button House"},"type":"Feature"},
		{"geometry":{"coordinates":[-0.16256,51.36276],"type":"Point"},"properties":{"_source":"warm_welcome","address":"7 Ruskin Hall, Surrey SM5 3DE","description":"We meet in the Ruskin Hall on Thursdays from10am -1pm. Free refreshments, tea, coffee biscuits. Light lunches served at low prices. A friendly welcome is assured.","hours":{"_text":"Thursday: 10:00 - 13:00","opening":"Th 10:00-13:00"},"title":"Carshalton Methodist Church"},"type":"Feature"},
		{"geometry":{"coordinates":[-0.08010,51.28357],"type":"Point"},"properties":{"_source":"warm_welcome","address":"Stafford Road, Caterham, Surrey CR3 6JG","hours":{"_text":"Tuesday: 09:30 - 17:00, Wednesday: 09:30 - 17:00, Thursday: 09:30 - 17:00, Friday: 09:30 - 17:00, Saturday: 09:30 - 17:00","opening":"Tu 09:30-17:00; We 09:30-17:00; Th 09:30-17:00; Fr 09:30-17:00; Sa 09:30-17:00"},"title":"Caterham Valley Library"},"type":"Feature"},
		{"geometry":{"coordinates":[-0.21668,51.36019],"type":"Point"},"properties":{"_source":"warm_welcome","address":"Cheam Library, Church Road, Sutton, Sutton SM3 8QH","description":"Cheam Library is accessible on the ground floor where all services and public toilets are located. There is a public pay & display car park adjacent plus spaces for Blue Badge holders. Opening Hours: Monday: 8am to 9pm Tuesday: 8am to 9pm Wednesday: 8am to 9pm (staffed 9am to 5pm) Thursday: 8am to 9pm (staffed 9am to 5pm) Friday: 8am to 9pm Saturday: 9am - 5pm (staffed alternate Saturdays) Sunday: 9am to 6pm Self Access Hours Monday: 8am to 9pm Tuesday: 8am to 9pm Wednesday: 8am to 9am and 5pm to 9pm Thursday: 8am to 9am and 5pm to 9pm Friday: 8am to 9pm Saturday: 8am to 9pm Sunday: 9am to 6pm Self access lets you use the library independently during extended hours. Simply complete the self induction here to use self access: https://libraries.sutton.gov.uk/the-blog/get-ready-for-self-access","hours":{"_text":"Monday: 08:00 - 21:00, Tuesday: 08:00 - 21:00, Wednesday: 08:00 - 21:00, Thursday: 08:00 - 21:00, Friday: 08:00 - 21:00, Saturday: 09:00 - 17:00, Sunday: 09:00 - 18:00","opening":"Mo 08:00-21:00; Tu 08:00-21:00; We 08:00-21:00; Th 08:00-21:00; Fr 08:00-21:00; Sa 09:00-17:00; Su 09:00-18:00"},"title":"Cheam Library"},"type":"Feature"},
		{"geometry":{"coordinates":[-0.22520,51.37299],"type":"Point"},"properties":{"_source":"warm_welcome","address":"London Borough Of Sutton, Surrey SM3 8QH","description":"The library is fully accessible. We provide: - Free access to wifi - Free access to PCs - Digital resources for skills building and reading - Charging points","hours":{"_text":"Tuesday: 09:30 - 19:00, Wednesday: 09:30 - 17:00, Thursday: 09:30 - 18:00, Friday: 09:30 - 17:00, Saturday: 09:30 - 17:00","opening":"Tu 09:30-19:00; We 09:30-17:00; Th 09:30-18:00; Fr 09:30-17:00; Sa 09:30-17:00"},"title":"Cheam Library"},"type":"Feature"},
		{"geometry":{"coordinates":[-0.28640,51.23129],"type":"Point"},"properties":{"_source":"warm_welcome","address":"Christ Church Community Hall, Surrey, Surrey RH3 7JR","description":"Open 10am - 1pm 27/1/24 , 24/1/24 , 30/3/24 Open every Saturday morning in January and February and the second Sunday of the month","hours":{"_text":"Saturday: 10:00 - 13:00 Monthly","opening":"Sa 10:00-13:00"},"title":"Christ Church Brockham Green"},"type":"Feature"},
		{"geometry":{"coordinates":[-0.24780,51.34882],"type":"Point"},"properties":{"_source":"warm_welcome","address":"Christ Church Ewell, Cheam Road, Ewell, Surrey KT17 1AD","description":"Lonely people welcome or anyone else who would just like to connect with others in their community. Wednesdays 10am - 1pm. \"Coffee Drop In\" Warm Space - with hot filter coffee, tea, quality biscuits, opportunity to meet others in the community, scrabble, rummikub, other games, puzzles, hot quality home made soup with bread served at 12 noon, weekly notices, short 'thought for the day', toddler toy area, craft table, notices and free thermal items from the council. Free parking for attendees at KT17 1AD","hours":{"_text":"Wednesday: 10:00 - 13:00","opening":"We 10:00-13:00"},"title":"Christ Church Ewell"},"type":"Feature"},
		{"geometry":{"coordinates":[-0.29261,51.38983],"type":"Point"},"properties":{"_source":"warm_welcome","address":"Christ Church, Surrey GU21 6YG","description":"Open to anyone. Free refreshments, people to chat to, board games available. Wednesdays 3.45 - 6pm","hours":{"_text":"Wednesday: 15:45 - 18:00","opening":"We 15:45-18:00"},"title":"Christ Church Warm Welcome"},"type":"Feature"},
		{"geometry":{"coordinates":[-0.33501,51.23065],"type":"Point"},"properties":{"_source":"warm_welcome","address":"Crossways Community Baptist Church, Dorking, Surrey RH4 3HB","description":"SPACE OPENING ON 5th November 2025** A warm and accessible venue offering free hot drinks and food, free energy advice, winter fuel vouchers and warm winter items. There is also the offer of company, arts and crafts, board games and toys for children. The building is fully wheelchair accessible and includes an accessible toilet. *Please note the Warm Welcome Cafe is currently open term time only*","hours":{"_text":"Wednesday: 12:00 - 14:30","opening":"We 12:00-14:30"},"title":"Crossways Community Cafe"},"type":"Feature"},
		{"geometry":{"coordinates":[-0.19814,51.36707],"type":"Point"},"properties":{"_source":"warm_welcome","address":"Crown Road Baptist Church, Surrey, Surrey SM1 1RT","description":"Come and join our regular Thursday coffee morning. Enjoy a cup of tea, coffee or chocolate with biscuits and cakes too. We welcome carers with their children. Local resident wanting a warm space, a quiet chat or social contact will find a warm and friendly welcome. We are just a two or three minute walk from Sainsbury’s","hours":{"_text":"Thursday: 09:30 - 12:00","opening":"Th 09:30-12:00"},"title":"Crown Road Baptist Church (Sutton)"},"type":"Feature"},
		{"geometry":{"coordinates":[-0.08310,51.29280],"type":"Point"},"properties":{"_source":"warm_welcome","address":"de Stafford Sports Centre, Surrey, Surrey CR3 5YX","description":"We offer a large cafe area with comfortable tub chairs and tables serving Costa Coffee, snacks and hot food. The cafe is open to all from 6am - 9pm Monday to Friday (closes at 8.30pm on Friday) and 8am -3.30pm on weekends. No purchase necessary.","hours":{"_text":"Monday: 06:00 - 21:00, Tuesday: 06:00 - 21:00, Wednesday: 06:00 - 21:00, Thursday: 06:00 - 21:00, Friday: 06:00 - 20:30, Saturday: 08:00 - 15:30, Sunday: 08:00 - 15:30","opening":"Mo 06:00-21:00; Tu 06:00-21:00; We 06:00-21:00; Th 06:00-21:00; Fr 06:00-20:30; Sa 08:00-15:30; Su 08:00-15:30"},"title":"de Stafford Sports Centre"},"type":"Feature"},
		{"geometry":{"coordinates":[-0.33376,51.38730],"type":"Point"},"properties":{"_source":"warm_welcome","address":"Dittons Library, Surrey, Surrey KT7 0BS","hours":{"_text":"Tuesday: 09:30 - 17:00, Wednesday: 09:30 - 17:00, Thursday: 09:30 - 17:00, Friday: 09:30 - 17:00, Saturday: 09:30 - 17:00","opening":"Tu 09:30-17:00; We 09:30-17:00; Th 09:30-17:00; Fr 09:30-17:00; Sa 09:30-17:00"},"title":"Dittons Library"},"type":"Feature"},
		{"geometry":{"coordinates":[-0.33324,51.23273],"type":"Point"},"properties":{"_source":"warm_welcome","address":"Dorking Christian Centre, Dorking, Surrey RH4 1DW","description":"Open from 2/12/24 Monday to Friday 8.30am-10am with free breakfast FREE BRAKFAST WILL BE PROVIDED FROM 8.30AM TO 10.15AM AND THEREAFTER THE REGULAR PAYING CAFE WILL RUN","hours":{"_text":"Monday: 08:30 - 10:00, Tuesday: 08:30 - 10:00, Wednesday: 08:30 - 10:00, Thursday: 08:30 - 10:00, Friday: 08:30 - 10:00, Saturday: 00:00 - 00:00, Sunday: 00:00 - 00:00","opening":"Mo 08:30-10:00; Tu 08:30-10:00; We 08:30-10:00; Th 08:30-10:00; Fr 08:30-10:00; Sa 00:00-00:00; Su 00:00-00:00"},"title":"DORKING CHRISTIAN CENTRE"},"type":"Feature"},
		{"geometry":{"coordinates":[-0.33078,51.23244],"type":"Point"},"properties":{"_source":"warm_welcome","address":"Dorking Library, Dorking, Surrey RH4 1UT","description":"Space to work, study or to enjoy our range of events and activities. Free hot and cold drinks. For more information, visit our website: https://www.surreycc.gov.uk/libraries/your-library/find-your-nearest/dorking/events-and-activities","hours":{"_text":"Monday: 09:30 - 17:30, Tuesday: 09:30 - 19:00, Wednesday: 09:30 - 17:30, Thursday: 09:30 - 19:00, Friday: 09:30 - 17:30, Saturday: 09:30 - 17:00","opening":"Mo 09:30-17:30; Tu 09:30-19:00; We 09:30-17:30; Th 09:30-19:00; Fr 09:30-17:30; Sa 09:30-17:00"},"title":"Dorking Library"},"type":"Feature"},
		{"geometry":{"coordinates":[-0.08874,51.35750],"type":"Point"},"properties":{"_source":"warm_welcome","address":"Emmanual Centre, South Croydon, Surrey CR2 7AF","description":"The 1st floor space is accessible to all via Stairs or list. Tables Chairs Comfy Sofas Very Warm Free Hot drinks/Biscuits/Free light Hot lunch of soup and roll plus fruit","hours":{"_text":"Friday: 10:00 - 17:00","opening":"Fr 10:00-17:00"},"title":"Emmanuel Renew Lounge"},"type":"Feature"},
		{"geometry":{"coordinates":[-0.24886,51.35199],"type":"Point"},"properties":{"_source":"warm_welcome","address":"Ewell Hall, Epsom, Surrey KT17 2AY","description":"SPACE OPENING ON 5th November 2024** From November 5th St Mary the Virgin Ewell will be running a Warm Hub and Refugee conversation cafe at Ewell Hall, London Rd. We are the church at the heart of Ewell Village and here to serve all people in our community. Please drop in on Tuesdays between 5:45 and 7:00pm. Free hot food, Wi-Fi, games, puzzles, energy and home advice resources, Wheel chair access, free warm thermal items, coffee, tea, biscuits, sometimes a song, lots of other activities and lots of great conversation. St Mary the Virgin, Ewell, KT17 2AY","hours":{"_text":"Tuesday: 17:45 - 19:00","opening":"Tu 17:45-19:00"},"title":"Ewell Hall Warm Space"},"type":"Feature"},
		{"geometry":{"coordinates":[-0.14792,51.36502],"type":"Point"},"properties":{"_source":"warm_welcome","address":"Maldon Road, Surrey, Surrey SM6 8BL","description":"Church and rooms with cafe","hours":{"_text":"Wednesday: 09:30 - 15:00, Thursday: 09:30 - 15:00, Sunday: 09:00 - 12:30","opening":"We 09:30-15:00; Th 09:30-15:00; Su 09:00-12:30"},"title":"Holy Trinity Church Wallington"},"type":"Feature"},
		{"geometry":{"coordinates":[-0.26109,51.34636],"type":"Point"},"properties":{"_source":"warm_welcome","address":"The Kings Church, Epsom, Surrey KT19 9BU","description":"Keep warm with a free hot meal, free refreshments, games space, homework space and a creche area.","hours":{"_text":"Friday: 18:00 - 20:00","opening":"Fr 18:00-20:00"},"title":"King's Church, Epsom Warm Welcome Space"},"type":"Feature"},
		{"geometry":{"coordinates":[-0.32886,51.29401],"type":"Point"},"properties":{"_source":"warm_welcome","address":"Leatherhead Library, Surrey KT22 8DP","description":"A place to work, study or enjoy our range of events and activities. For more details, please visit our website or come in and see us! Everyone welcome! https://www.surreycc.gov.uk/libraries/your-library/find-your-nearest/leatherhead","hours":{"_text":"Tuesday: 09:30 - 17:00, Wednesday: 09:30 - 17:00, Thursday: 09:30 - 17:00, Friday: 09:30 - 17:00, Saturday: 09:30 - 17:00","opening":"Tu 09:30-17:00; We 09:30-17:00; Th 09:30-17:00; Fr 09:30-17:00; Sa 09:30-17:00"},"title":"Leatherhead Library"},"type":"Feature"},
		{"geometry":{"coordinates":[-0.20165,51.37892],"type":"Point"},"properties":{"_source":"warm_welcome","address":"Sutton Life Centre, 24 Alcorn Close, Surrey, Surrey SM3 9PX","description":"The library is located within the Sutton Life Centre. The Library is fully accessible via a ramp from street level and has automatic doors. Opening Hours : Monday: 8am to 9pm Tuesday: 8am to 9pm Wednesday: 8am to 9pm (staffed 9am to 5pm) Thursday: 8am to 9pm Friday: 8am to 9pm (staffed 9am to 5pm) Saturday: 8am to 9pm (staffed alternate Saturdays on 6 & 20 April ) Sunday: 9am to 6pm Self Access Hours Monday: 8am to 9pm Tuesday: 8am to 9pm Wednesday: 8am to 9am and 5pm to 9pm Thursday: 8am to 9pm Friday: 8am to 9am and 5pm to 9pm Saturday: 8am to 9pm Sunday: 9am to 6pm Self access lets you use the library independently during extended hours. Simply complete the self induction here to use self access: https://libraries.sutton.gov.uk/the-blog/get-ready-for-self-access","hours":{"_text":"Monday: 08:00 - 21:00, Tuesday: 08:00 - 21:00, Wednesday: 08:00 - 21:00, Thursday: 08:00 - 21:00, Friday: 08:00 - 21:00, Saturday: 08:00 - 21:00 Fortnightly, Sunday: 09:00 - 18:00","opening":"Mo 08:00-21:00; Tu 08:00-21:00; We 08:00-21:00; Th 08:00-21:00; Fr 08:00-21:00; Sa 08:00-21:00; Su 09:00-18:00"},"title":"Library @ the Life Centre"},"type":"Feature"},
		{"geometry":{"coordinates":[-0.13308,51.35333],"type":"Point"},"properties":{"_source":"warm_welcome","address":"Library @ the Phoenix Centre, Mollison Drive, Wallington, Wallington SM6 9NZ","description":"Located within the Leisure Centre. Fully accessible & with free car parking. Opening Hours: Monday: 7am to 9pm (staffed 9am to 5pm) Tuesday: 7am to 9pm Wednesday: 7am to 9pm Thursday: 7am to 9pm (staffed 9am to 5pm) Friday: 7am to 9pm Saturday: 9am to 5pm (staffed alternate Saturdays) Sunday: 9am to 6pm Self access lets you use the library independently during extended hours. Simply complete the self induction here to use self access: https://libraries.sutton.gov.uk/the-blog/get-ready-for-self-access","hours":{"_text":"Monday: 07:00 - 21:00, Tuesday: 07:00 - 21:00, Wednesday: 07:00 - 21:00, Thursday: 07:00 - 21:00, Friday: 07:00 - 21:00, Saturday: 09:00 - 17:00, Sunday: 09:00 - 18:00","opening":"Mo 07:00-21:00; Tu 07:00-21:00; We 07:00-21:00; Th 07:00-21:00; Fr 07:00-21:00; Sa 09:00-17:00; Su 09:00-18:00"},"title":"Library @ the Phoenix Centre"},"type":"Feature"},
		{"geometry":{"coordinates":[-0.13311,51.35327],"type":"Point"},"properties":{"_source":"warm_welcome","address":"The Phoenix Centre, Surrey SM6 9NZ","description":"The library is fully accessible. We provide: - Free access to wifi - Free access to PCs - Digital resources for skills building and reading - Charging points","hours":{"_text":"Monday: 09:00 - 19:00, Tuesday: 09:00 - 19:00, Wednesday: 09:00 - 19:00, Thursday: 09:00 - 19:00, Friday: 09:00 - 17:00, Saturday: 09:00 - 17:00, Sunday: 10:00 - 16:00","opening":"Mo 09:00-19:00; Tu 09:00-19:00; We 09:00-19:00; Th 09:00-19:00; Fr 09:00-17:00; Sa 09:00-17:00; Su 10:00-16:00"},"title":"Library at the Phoenix Centre"},"type":"Feature"},
		{"geometry":{"coordinates":[-0.33175,51.35873],"type":"Point"},"properties":{"_source":"warm_welcome","address":"Farm Road, Esher, Surrey KT10 0HT","description":"Open from 3/11/25. Runs every Weds 9.30-12.30 alongside our Advice Cafe which offers free energy advice and other support. Free tea and coffee available during Warm Welcome session. Warm, bright and welcoming, our cafe is open Mon-Thurs 9.30-4.00 (10.00-3.00 in school holidays) serving home made soup, snacks, cakes, cookies and other goodies at affordable prices. We operate a Pay It Forward system and a Community Fridge so food is always available if finances are tight. There is a small enclosed play area for pre-school children, with comfy seating and space to sit, chat, relax or work with wi-fi, books, crafts, puzzles, etc available for all to use.","hours":{"_text":"Monday: 09:30 - 04:30, Tuesday: 09:30 - 04:30, Wednesday: 09:30 - 04:30, Thursday: 09:30 - 04:30","opening":"Mo 09:30-16:30; Tu 09:30-16:30; We 09:30-16:30; Th 09:30-16:30"},"title":"Lower Green Community Centre"},"type":"Feature"},
		{"geometry":{"coordinates":[-0.14469,51.26038],"type":"Point"},"properties":{"_source":"warm_welcome","address":"Merstham Library, Redhill, Surrey RH1 3HY","hours":{"_text":"Monday: 10:00 - 17:00, Tuesday: 10:00 - 17:00, Wednesday: 10:00 - 13:00, Thursday: 10:00 - 13:00, Friday: 10:00 - 17:00, Saturday: 10:00 - 16:00","opening":"Mo 10:00-17:00; Tu 10:00-17:00; We 10:00-13:00; Th 10:00-13:00; Fr 10:00-17:00; Sa 10:00-16:00"},"title":"Merstham Library"},"type":"Feature"},
		{"geometry":{"coordinates":[-0.16880,51.39584],"type":"Point"},"properties":{"_source":"warm_welcome","address":"London Borough Of Merton, Surrey CR4 2YR","description":"The space is open to all the community.","hours":{"_text":"Monday: 08:00 - 20:00, Tuesday: 08:00 - 20:00, Wednesday: 08:00 - 20:00, Thursday: 08:00 - 20:00, Friday: 08:00 - 20:00, Saturday: 08:00 - 17:00","opening":"Mo 08:00-20:00; Tu 08:00-20:00; We 08:00-20:00; Th 08:00-20:00; Fr 08:00-20:00; Sa 08:00-17:00"},"title":"Mitcham Library"},"type":"Feature"},
		{"geometry":{"coordinates":[-0.20509,51.39484],"type":"Point"},"properties":{"_source":"warm_welcome","address":"Morden Leisure Centre, Surrey SM4 5HE","description":"A warm welcoming space for everyone, Morden leisure centre located in the heart of Morden overlooking Morden Park. Come and visit Cafe located in the reception area providing a great meeting place to relax with a hot drink.","hours":{"_text":"Monday: 13:00 - 15:00, Wednesday: 13:00 - 15:00, Friday: 13:00 - 15:00","opening":"Mo 13:00-15:00; We 13:00-15:00; Fr 13:00-15:00"},"title":"Morden Leisure Centre"},"type":"Feature"},
		{"geometry":{"coordinates":[-0.06199,51.39310],"type":"Point"},"properties":{"_source":"warm_welcome","address":"Oasis Academy Arena, London, London SE25 4QL","description":"A space of young people and their families. Part of Oasis Academy Arena.","hours":{"_text":"Tuesday: 15:00 - 16:30, Wednesday: 14:00 - 15:30","opening":"Tu 15:00-16:30; We 14:00-15:30"},"title":"Oasis Community Space"},"type":"Feature"},
		{"geometry":{"coordinates":[-0.00040,51.25749],"type":"Point"},"properties":{"_source":"warm_welcome","address":"12 Gresham Road, Oxted, Surrey RH8 0BQ","description":"SPACE OPENING ON 1st November 2023** Our warm Welcome is a friendly, accessible space in the centre of Oxted; a space that is open to all. Encompassing everything libraries have to offer:- books for pleasure and for learning, as well as free Wi-Fi, computer access, and a place to relax and recharge. We also now offer free hot drinks, activity packs (puzzles, colouring packs, card/board games, crochet sets, knitting sets)","hours":{"_text":"Tuesday: 09:30 - 17:00, Wednesday: 09:30 - 17:00, Thursday: 09:30 - 17:00, Friday: 09:30 - 17:00, Saturday: 09:30 - 17:00","opening":"Tu 09:30-17:00; We 09:30-17:00; Th 09:30-17:00; Fr 09:30-17:00; Sa 09:30-17:00"},"title":"Oxted Library"},"type":"Feature"},
		{"geometry":{"coordinates":[-0.10193,51.24061],"type":"Point"},"properties":{"_source":"warm_welcome","address":"Pavilion Grange Meadow, Redhill, Surrey RH1 E 4`PE","description":"Open to all and is a building that is part of a Community outdoor space. With field, children's play ground, adult gym and kitchen","hours":{"_text":"Monday: Closed / 10:00 - 02:00, Tuesday: Closed / 10:00 - 02:00, Wednesday: Closed / 10:00 - 02:00","opening":"Tu 10:00-14:00; We 10:00-14:00"},"title":"Pavilion Grange Meadow"},"type":"Feature"},
		{"geometry":{"coordinates":[-0.26290,51.33717],"type":"Point"},"properties":{"_source":"warm_welcome","address":"Rainbow Leisure Centre, Surrey KT17 1BN","description":"We’re opening spaces to local residents this winter to keep warm, charge a phone and enjoy a friendly chat over a cuppa. Feel free to drop-in during the times below and enjoy the company of your community.","hours":{"_text":"Monday: 13:00 - 15:00, Wednesday: 13:00 - 15:00, Friday: 13:00 - 15:00","opening":"Mo 13:00-15:00; We 13:00-15:00; Fr 13:00-15:00"},"title":"Rainbow Leisure Centre"},"type":"Feature"},
		{"geometry":{"coordinates":[-0.16910,51.24140],"type":"Point"},"properties":{"_source":"warm_welcome","address":"Surrey County Council, Redhill, Surrey RH1 1NN","hours":{"_text":"Monday: 09:30 - 17:30, Tuesday: 09:30 - 19:00, Wednesday: 09:30 - 17:30, Thursday: 09:30 - 19:00, Friday: 09:30 - 17:30, Saturday: 09:30 - 17:00","opening":"Mo 09:30-17:30; Tu 09:30-19:00; We 09:30-17:30; Th 09:30-19:00; Fr 09:30-17:30; Sa 09:30-17:00"},"title":"Redhill Library"},"type":"Feature"},
		{"geometry":{"coordinates":[-0.20321,51.23679],"type":"Point"},"properties":{"_source":"warm_welcome","address":"Reigate Library, Reigate, Surrey RH2 7RP","hours":{"_text":"Tuesday: 09:30 - 17:00, Wednesday: 09:30 - 17:00, Thursday: 09:30 - 17:00, Friday: 09:30 - 17:00, Saturday: 09:30 - 17:00","opening":"Tu 09:30-17:00; We 09:30-17:00; Th 09:30-17:00; Fr 09:30-17:00; Sa 09:30-17:00"},"title":"Reigate Library"},"type":"Feature"},
		{"geometry":{"coordinates":[-0.08486,51.37058],"type":"Point"},"properties":{"_source":"warm_welcome","address":"The Parish Church Of St. Matthew, Croydon, Surrey CR0 5NQ","description":"Every Monday from 2.00pm-4.00pm our hall becomes a community space for a variety of hobbies and activities. These are run by the community for the community. Anyone is welcome to share a hobby or skill and anyone is welcome to join a workshop or activity. They are all free. Or you can come and relax and chat, or enjoy the peace in our quiet area. The activities are based around the '5 ways to wellbeing' which promote good mental and emotional health. To connect, give, be active, keep learning and take notice will hopefully contribute towards a preventative approach to mental ill health. All are welcome. Phone: 020 8681 3147 Email: churchadmin@stmatthew.org.uk","hours":{"_text":"Monday: 14:00 - 16:00","opening":"Mo 14:00-16:00"},"title":"Renew 121"},"type":"Feature"},
		{"geometry":{"coordinates":[-0.16484,51.20426],"type":"Point"},"properties":{"_source":"warm_welcome","address":"Village Hall, Redhill, Surrey RH1 5DG","description":"Salfords village hall runs free monthly coffee mornings on the first Friday of the month (subject to bank holidays) from 11am to 12.30pm. Tea/ coffee and other refreshements are served togetehr with biscuits and home made cake. It is open to anyone of any age to attend. We often have guest speakers who come and talk about important relevant matters or sometimes just have fun and play games such as bingo.","hours":{"_text":"Friday: 11:00 - 12:30 Monthly","opening":"Fr 11:00-12:30"},"title":"Salfords Village Hall"},"type":"Feature"},
		{"geometry":{"coordinates":[-0.07045,51.32105],"type":"Point"},"properties":{"_source":"warm_welcome","address":"St Antony's Church,, Surrey CR2T 9ET","description":"SPACE OPENING ON 6th December 2023** The space is open to all every Wednesday between 11.00 & 15.00","hours":{"_text":"Wednesday: 11:00 - 15:00","opening":"We 11:00-15:00"},"title":"St Antony's Church."},"type":"Feature"},
		{"geometry":{"coordinates":[-0.20431,51.39225],"type":"Point"},"properties":{"_source":"warm_welcome","address":"St. Lawrence Church, Morden, Surrey SM4 5QT","description":"Starting again Thursday 2nd November 2023. Every Thursday, 1-3pm, we’ll have the heating on – come and get welcomed, get warm, and have a cuppa. Free – Warm – Safe – Welcoming","hours":{"_text":"Thursday: 13:00 - 15:00","opening":"Th 13:00-15:00"},"title":"St Lawrence Church Warm Space"},"type":"Feature"},
		{"geometry":{"coordinates":[-0.20769,51.22656],"type":"Point"},"properties":{"_source":"warm_welcome","address":"St. Lukes Church, Surrey RH2 8HY","description":"A warm space open to all","hours":{"_text":"Wednesday: 10:30 - 14:00","opening":"We 10:30-14:00"},"title":"St Luke's Church, Reigate"},"type":"Feature"},
		{"geometry":{"coordinates":[-0.08345,51.36028],"type":"Point"},"properties":{"_source":"warm_welcome","address":"Croham Road / Croham Park Avenue, South Croydon, Croydon CR2 7HF","description":"We are using our lovely Jubilee Room on the third Thursday afternoon of every month . We offer hot and cold refreshments from 3.30 and a home-cooked supper for guests at around 5.30. We chat, listen, play games, read, chill, draw, puzzle, surf and just relax together. Most of our guests have had some challenges in their lives and find our space safe, open and affirming. All volunteers are DBS checked. We welcome people of all ages but currently our guests are all adults. Those under 14 should be accompanied by an adult please. Please call or text ahead if you are coming so we know numbers for catering. We have quiet space as well as board games, etc available.","hours":{"_text":"Thursday: 15:30 - 18:00 Monthly","opening":"Th 15:30-18:00"},"title":"St Paul's United Reformed Church"},"type":"Feature"},
		{"geometry":{"coordinates":[-0.33277,51.39255],"type":"Point"},"properties":{"_source":"warm_welcome","address":"St. Nicholas Church Hall, Surrey, Surrey KT7 0QQ","description":"On Tuesday we run a community hub from 9:30am-12pm; This includes a cooked breakfast; a cafe serving barista style coffees, tea, cake; a Foodbank Hub; a CAB advisor; a pre-loved clothes rail; a knit & natter craft table; a Bereavement cafe (in partnership with Princess Alice Hospice). On Thursday morning we have a parent (or carer) and toddler group from 9:30-11:30am (during term time). On Friday morning (10am-12pm) we have the Talbot House Cafe run by students from St. Phillips SEND school in Chessington (during term time).","hours":{"_text":"Tuesday: 09:30 - 12:00, Thursday: 09:30 - 11:30, Friday: 10:00 - 12:00","opening":"Tu 09:30-12:00; Th 09:30-11:30; Fr 10:00-12:00"},"title":"St. Nicholas' Thames Ditton Community Hub"},"type":"Feature"},
		{"geometry":{"coordinates":[-0.19641,51.36749],"type":"Point"},"properties":{"_source":"warm_welcome","address":"Sutton Central Library, St. Nicholas Way,, Sutton, London","description":"Sutton Library is the largest library in the borough. The library is fully accessible and has an on site café (open Mon-Sun 9am-4pm). We provide: - Free access to wifi - Free access to PCs - Digital resources for skills building and reading - Charging points","hours":{"_text":"Monday: 09:00 - 20:00, Tuesday: 09:00 - 20:00, Wednesday: 09:00 - 20:00, Thursday: 09:00 - 20:00, Friday: 09:00 - 17:00, Saturday: 09:00 - 17:00, Sunday: 13:00 - 16:30","opening":"Mo 09:00-20:00; Tu 09:00-20:00; We 09:00-20:00; Th 09:00-20:00; Fr 09:00-17:00; Sa 09:00-17:00; Su 13:00-16:30"},"title":"Sutton Central Library"},"type":"Feature"},
		{"geometry":{"coordinates":[-0.20165,51.37892],"type":"Point"},"properties":{"_source":"warm_welcome","address":"Sutton Life Centre, Surrey SM3 9PX","description":"The library is fully accessible and open Monday - Saturday: - Free access to wifi - Free access to PCs - Digital resources for skills building and reading - Charging points","hours":{"_text":"Monday: 09:30 - 19:00, Tuesday: 09:30 - 19:00, Wednesday: 09:30 - 19:00, Thursday: 09:30 - 19:00, Friday: 09:30 - 17:00, Saturday: 09:30 - 17:00","opening":"Mo 09:30-19:00; Tu 09:30-19:00; We 09:30-19:00; Th 09:30-19:00; Fr 09:30-17:00; Sa 09:30-17:00"},"title":"Sutton Life Central Library"},"type":"Feature"},
		{"geometry":{"coordinates":[-0.23142,51.30203],"type":"Point"},"properties":{"_source":"warm_welcome","address":"Leisure Centre, Surrey KT20 5FB","description":"A warm welcome space for everyone, Tadworth Leisure and Community Centre is located just a short drive from the picturesque Epsom Downs. With a wide range of facilities and activities available, we offer something to help everybody get fitter and feel better. Our welcoming members lounge located at reception is available for refreshments","hours":{"_text":"Monday: 09:00 - 12:00, Tuesday: 09:00 - 12:00, Wednesday: 09:00 - 12:00, Thursday: 09:00 - 12:00, Friday: 09:00 - 12:00","opening":"Mo 09:00-12:00; Tu 09:00-12:00; We 09:00-12:00; Th 09:00-12:00; Fr 09:00-12:00"},"title":"Tadworth Leisure & Community Centre"},"type":"Feature"},
		{"geometry":{"coordinates":[-0.22520,51.37299],"type":"Point"},"properties":{"_source":"warm_welcome","address":"London Borough Of Sutton, Surrey SM5 1JJ","description":"The library is fully accessible and has an on site café (open Mon-Sun 9am-4pm). We provide: - Free access to wifi - Free access to PCs - Digital resources for skills building and reading - Charging points","hours":{"_text":"Tuesday: 09:30 - 19:00, Wednesday: 09:30 - 17:00, Thursday: 09:30 - 18:00, Friday: 09:30 - 17:00, Saturday: 09:30 - 17:00","opening":"Tu 09:30-19:00; We 09:30-17:00; Th 09:30-18:00; Fr 09:30-17:00; Sa 09:30-17:00"},"title":"The Circle Library"},"type":"Feature"},
		{"geometry":{"coordinates":[-0.03805,51.35087],"type":"Point"},"properties":{"_source":"warm_welcome","address":"The Kingsmen, Croydon, Surrey CR0 9AS","description":"This space is run by the local church for all people, especially those in the Forestdale community. Monday-Friday 10am-12pm. Enjoy coffee mornings, craft activities, board games, podcast/Book club and wellbeing.","hours":{"_text":"Monday: 10:00 - 12:00, Tuesday: 10:00 - 12:00, Wednesday: 10:00 - 12:00, Thursday: 10:00 - 12:00, Friday: 10:00 - 12:00","opening":"Mo 10:00-12:00; Tu 10:00-12:00; We 10:00-12:00; Th 10:00-12:00; Fr 10:00-12:00"},"title":"The Kingsmen"},"type":"Feature"},
		{"geometry":{"coordinates":[-0.15265,51.36621],"type":"Point"},"properties":{"_source":"warm_welcome","address":"35 Manor Road, Surrey SM6 0BW","description":"Various activities including knitting and craft meet up, board games meet up,art class, Iyengar Yoga, meditation and COOKWISE cooking course. Including free hot drinks and biscuits. Optional hot meal for a small suggested donation","hours":{"_text":"Monday: 14:00 - 18:00, Tuesday: 14:00 - 16:00, Wednesday: 08:00 - 16:00, Thursday: 14:00 - 16:00, Friday: 14:00 - 18:00, Saturday: 08:00 - 11:00","opening":"Mo 14:00-18:00; Tu 14:00-16:00; We 08:00-16:00; Th 14:00-16:00; Fr 14:00-18:00; Sa 08:00-11:00"},"title":"The SNW Hub"},"type":"Feature"},
		{"geometry":{"coordinates":[-0.17329,51.36294],"type":"Point"},"properties":{"_source":"warm_welcome","address":"River Church Sutton, Carshalton, Surrey SM5 3QB","description":"Come and enjoy our relaxed cafe space for a chat or simply a place to be. Simply mention that you are here through Warm Welcome and receive free filter coffee or tea. We also operate a pay it forward scheme.","hours":{"_text":"Tuesday: 10:00 - 14:00, Wednesday: 10:00 - 14:00, Thursday: 10:00 - 14:00, Friday: 10:00 - 14:00","opening":"Tu 10:00-14:00; We 10:00-14:00; Th 10:00-14:00; Fr 10:00-14:00"},"title":"The Well Coffee Lounge"},"type":"Feature"},
		{"geometry":{"coordinates":[-0.33408,51.35777],"type":"Point"},"properties":{"_source":"warm_welcome","address":"Emmanuel Hall, 49 Common Rd, Claygate, Surrey KT10 0HU KT10 0HU","description":"The Well is for young people aged 11-18 and such has a large variety of food and things to do while there, including board games, game consoles and craft activities.","hours":{"_text":"Monday: 15:30 - 18:00, Wednesday: 15:30 - 18:00, Thursday: 15:30 - 18:00","opening":"Mo 15:30-18:00; We 15:30-18:00; Th 15:30-18:00"},"title":"The Well: Youth Drop-In"},"type":"Feature"},
		{"geometry":{"coordinates":[-0.02690,51.39358],"type":"Point"},"properties":{"_source":"bromley_well","address":"251 Eden Park Avenue, BR3 3JN","contact":"Tel: 0208 6503515; Email: office@stjohnsbeckenham.org","description":"Organisation running the Warm Centre: St John's Church First line of address of Warm Centre venue: 251 Eden Park Avenue Town: Beckenham County: Kent Postcode - please enter full postcode: BR3 3JN Contact email for public enquiries: office@stjohnsbeckenham.org Phone number for public enquiries: 0208 6503515 Enter your website: https://www.stjohnsbeckenham.org/green-bird-cafe Enter details of any social media accounts if you would like to engage with us and others online: St John's Church Beckenham Facebook page Please provide details of your open times. e.g Mondays 10-2pm and Fridays 1pm- 3pm: Wednesday - Saturday 9.30am-2.00pm Do you provide teas/coffees?: yes Are the teas/coffees free of charge?: no Please provide a short summary of what you offer and at what times/days. This might include, for example:- warm welcoming place to relax; games and other activities; phone charging points; hot f...: A warm welcoming community cafe open to everyone. On Tuesday mornings the cafe is closed for our Bavby & Toddler Group for ages 0-5 from 9.15am-11.00am. Wednesday - Saturday the cafe is open to all serving barista coffee, hot & cold drinks, homemade cakes and hot and cold lunch options. Board games and books are free to use for children. St Christopher's hospice host a drop in bereavement group in the cafe on Thursday mornings. The cafe hosts a paid for monthly Nest craft workshop. Please provide any information as to the likely start and end dates of the Warm Centre, e.g opening 1st Dec 2023 and expected to run to end of Feb 2024 If activities run throughout the year pleas...: Runs throughout the year Please tell us any other information you would like the public to know: The Green Bird Cafe is a community cafe part of the outreach of St John's Church Beckenham largely run by volunteers.","loc_pcd":true,"title":"Green Bird Cafe","url":"https://www.stjohnsbeckenham.org/green-bird-cafe"},"type":"Feature"},
		{"geometry":{"coordinates":[-0.01615,51.37810],"type":"Point"},"properties":{"_source":"bromley_well","address":"St Francis of Assisi Church, Ravenswood Avenue , BR4 0PW","contact":"Tel: ; Email: francisandmary9@gmail.com","description":"Organisation running the Warm Centre: St Francis of Assisi Church First line of address of Warm Centre venue: St Francis of Assisi Church, Ravenswood Avenue Town: West Wickham County: Kent Postcode - please enter full postcode: BR4 0PW Contact email for public enquiries: francisandmary9@gmail.com Phone number for public enquiries: Enter your website: www.stfranciswestwickham.co.uk Enter details of any social media accounts if you would like to engage with us and others online: Please provide details of your open times. e.g Mondays 10-2pm and Fridays 1pm- 3pm: Wednesdays 10-2 from 6.11.24 Do you provide teas/coffees?: yes Are the teas/coffees free of charge?: yes Please provide a short summary of what you offer and at what times/days. This might include, for example:- warm welcoming place to relax; games and other activities; phone charging points; hot f...: A place to relax; tea&coffee; board games ; knitting; soup and rolls free of charge. Free WIFI, books and a toy corner! Please provide any information as to the likely start and end dates of the Warm Centre, e.g opening 1st Dec 2023 and expected to run to end of Feb 2024 If activities run throughout the year pleas...: Weekly from 6.11.24 Please tell us any other information you would like the public to know:","loc_pcd":true,"title":"St Francis Church Warm Space","url":"www.stfranciswestwickham.co.uk"},"type":"Feature"},
		{"geometry":{"coordinates":[-0.01737,51.37449],"type":"Point"},"properties":{"_source":"bromley_well","address":"Hewitt Room, Emmanuel URC, The Grove, BR4 9JS","contact":"Tel: 020 8777 1150 (answerphone); Email:","description":"Organisation running the Warm Centre: Emmanuel URC, West Wickham First line of address of Warm Centre venue: Hewitt Room, Emmanuel URC, The Grove Town: West Wickham County: Kent Postcode - please enter full postcode: BR4 9JS Contact email for public enquiries: Phone number for public enquiries: 020 8777 1150 (answerphone) Enter your website: https://emmanuelww.org.uk/ Enter details of any social media accounts if you would like to engage with us and others online: Please provide details of your open times. e.g Mondays 10-2pm and Fridays 1pm- 3pm: Warm Welcome Fridays @ Emmanuel from 10am to 4pm in the Hewitt Room. Do you provide teas/coffees?: yes Are the teas/coffees free of charge?: yes Please provide a short summary of what you offer and at what times/days. This might include, for example:- warm welcoming place to relax; games and other activities; phone charging points; hot f...: Warm Welcome Fridays @ Emmanuel. All are welcome to come in for hot drinks, a light bite lunch, and time to sit and chat or relax with the newspaper. Just drop in! There is no charge for anything, but any donations will be given to The Vine Food Bank, New Addington, which we support. Please provide any information as to the likely start and end dates of the Warm Centre, e.g opening 1st Dec 2023 and expected to run to end of Feb 2024 If activities run throughout the year pleas...: Please tell us any other information you would like the public to know:","loc_pcd":true,"title":"Warm Welcome Friday at Emmanuel URC West Wickham","url":"https://emmanuelww.org.uk/"},"type":"Feature"},
		{"geometry":{"coordinates":[-0.02704,51.37766],"type":"Point"},"properties":{"_source":"bromley_well","address":"Wickham Road, CR0 8EH","contact":"Tel: 07535 647660; Email: primetime@mytimeactive.co.uk","description":"Organisation running the Warm Centre: Mytime Active, Primetime First line of address of Warm Centre venue: Wickham Road Town: West Wickham, Bromley County: Kent Postcode - please enter full postcode: CR0 8EH Contact email for public enquiries: primetime@mytimeactive.co.uk Phone number for public enquiries: 07535 647660 Enter your website: www.mytimeactive.co.uk/primetime Enter details of any social media accounts if you would like to engage with us and others online: Facebook - Primetime by Mytime Active Please provide details of your open times. e.g Mondays 10-2pm and Fridays 1pm- 3pm: Classes are during the daytime at various sites. Each class is 45 mins followed by social time Do you provide teas/coffees?: no Are the teas/coffees free of charge?: Please provide a short summary of what you offer and at what times/days. This might include, for example:- warm welcoming place to relax; games and other activities; phone charging points; hot f...: We offer a variety of exercise classes for older people - over 60's - across the borough of Bromley. At some venues we follow the class with social time and tea and coffee, donations welcome. Our classes are dementia friendly and carers attend free. Please contact us to find out full details and let us know you are coming. We look foward to seeing you. Please provide any information as to the likely start and end dates of the Warm Centre, e.g opening 1st Dec 2023 and expected to run to end of Feb 2024 If activities run throughout the year pleas...: Activities run all year Please tell us any other information you would like the public to know: Join us for a free taster and to meet the team and our volunteers. Following registration each class is £6.75 carers attend free.","loc_pcd":true,"title":"West Wickham & Shirley Baptist Church: Primetime Activities","url":"www.mytimeactive.co.uk/primetime"},"type":"Feature"},
		{"geometry":{"coordinates":[-0.09819,51.39814],"type":"Point"},"properties":{"_source":"croydon_council","address":"Bensham Grove, Thornton Heath, CR7 8DB.","contact":"Tel: 0208 771 6577","hours":{"_text":"Saturday, 10.00am to 3.00pm, until April 2025","opening":"Sa 10:00-15:00"},"title":"Anointed Apostolic Church","url":"https://www.croydon.gov.uk/warm-spaces-directory/anointed-apostolic-church"},"type":"Feature"},
		{"geometry":{"coordinates":[-0.06644,51.38462],"type":"Point"},"properties":{"_source":"croydon_council","address":"Pagehurst Road, London, CR0 6NN.","hours":{"_text":"Tuesday 1.00pm to 3.00pm November 2024 to 27th March 2025","opening":"Tu 13:00-15:00"},"title":"BETTER - Ashburton Hall & Park - Café","url":"https://www.croydon.gov.uk/warm-spaces-directory/better-ashburton-hall-park-cafe"},"type":"Feature"},
		{"geometry":{"coordinates":[-0.06420,51.38294],"type":"Point"},"properties":{"_source":"croydon_council","address":"Shirley Road, London, CR9 7AL.","contact":"Tel: 020 7884 5175","hours":{"_text":"Monday, Tuesday and Thursday 10am to 6pm Saturday 9am to 5pm Closed from 24 December 2023 until 2 January 2024","opening":"Mo 10:00-18:00; Tu 10:00-18:00; Th 10:00-18:00; Sa 09:00-17:00"},"title":"Ashburton Library","url":"https://www.croydon.gov.uk/warm-spaces-directory/ashburton-library"},"type":"Feature"},
		{"geometry":{"coordinates":[-0.09948,51.37236],"type":"Point"},"properties":{"_source":"croydon_council","address":"Katharine Street, London, CR0 1NX.","contact":"Tel: 020 7884 5140","hours":{"_text":"Monday, Tuesday, Wednesday, Friday 10.00am to 6.00pm Saturday 9.00am to 5.00pm","opening":"Mo 10:00-18:00; Tu 10:00-18:00; We 10:00-18:00; Fr 10:00-18:00; Sa 09:00-17:00"},"title":"Central Library","url":"https://www.croydon.gov.uk/warm-spaces-directory/central-library-0"},"type":"Feature"},
		{"geometry":{"coordinates":[-0.01723,51.34156],"type":"Point"},"properties":{"_source":"croydon_council","address":"111 Chertsey Crescent, New Addington, CR0 0DH.","contact":"Tel: 07758 702452","hours":{"_text":"Open to all ages from 1 December 2025 to 31 March 2026."},"title":"Centre of Change counselling and mentoring service","url":"https://www.croydon.gov.uk/warm-spaces-directory/centre-change-counselling-and-mentoring-service"},"type":"Feature"},
		{"geometry":{"coordinates":[-0.09917,51.32178],"type":"Point"},"properties":{"_source":"croydon_council","address":"Church Road, London, CR8 5DW.","contact":"Tel: 07454 246059","hours":{"_text":"Wednesday 10am to 12 midday","opening":"We 10:00-12:00"},"title":"Coffee and chatter at All Saints Church, Kenley","url":"https://www.croydon.gov.uk/warm-spaces-directory/coffee-and-chatter-all-saints-church-kenley"},"type":"Feature"},
		{"geometry":{"coordinates":[-0.00938,51.33979],"type":"Point"},"properties":{"_source":"croydon_council","address":"New Addington Baptist Church, Arnhem Drive, Croydon, CR0 0EE.","contact":"Tel: 01689 800291","hours":{"_text":"Tuesday, Wednesday and Thursday 10.00am to 2.00pm","opening":"Tu 10:00-14:00; We 10:00-14:00; Th 10:00-14:00"},"title":"Community Family Project of New Addington Baptist Church","url":"https://www.croydon.gov.uk/warm-spaces-directory/community-family-project-new-addington-baptist-church"},"type":"Feature"},
		{"geometry":{"coordinates":[-0.13897,51.31991],"type":"Point"},"properties":{"_source":"croydon_council","address":"Brighton Road, Coulsdon, CR5 2NH.","contact":"Tel: 020 7884 5180","hours":{"_text":"Monday and Thursday 10.00am to 6.00pm Saturday, 9.00am to 5.00pm","opening":"Mo 10:00-18:00; Th 10:00-18:00; Sa 09:00-17:00"},"title":"Coulsdon Library","url":"https://www.croydon.gov.uk/warm-spaces-directory/coulsdon-library-0"},"type":"Feature"},
		{"geometry":{"coordinates":[-0.09035,51.35661],"type":"Point"},"properties":{"_source":"croydon_council","address":"Rockhampton Road, London, CR2 7AQ.","contact":"Tel: 020 868 86676","hours":{"_text":"Friday 10.00am to 4.00pm","opening":"Fr 10:00-16:00"},"title":"Emmanuel Community Centre","url":"https://www.croydon.gov.uk/warm-spaces-directory/emmanuel-community-centre"},"type":"Feature"},
		{"geometry":{"coordinates":[-0.01357,51.34008],"type":"Point"},"properties":{"_source":"croydon_council","address":"61 Central Parade, Croydon, CR0 0JD.","contact":"Tel: 020 7884 5205","hours":{"_text":"Monday, Thursday and Friday 10.00am to 6.00pm","opening":"Mo 10:00-18:00; Th 10:00-18:00; Fr 10:00-18:00"},"title":"New Addington Library","url":"https://www.croydon.gov.uk/warm-spaces-directory/new-addington-library-0"},"type":"Feature"},
		{"geometry":{"coordinates":[-0.06306,51.38284],"type":"Point"},"properties":{"_source":"croydon_council","address":"Shirley Road, Croydon, CR9 7AL.","hours":{"_text":"Monday, Tuesday, Thursday and Friday, 5:30pm to 8:30pm - term time only.","opening":"Mo 17:30-20:30; Tu 17:30-20:30; Th 17:30-20:30; Fr 17:30-20:30"},"title":"Oasis Academy Shirley Park","url":"https://www.croydon.gov.uk/warm-spaces-directory/oasis-academy-shirley-park"},"type":"Feature"},
		{"geometry":{"coordinates":[-0.11860,51.33916],"type":"Point"},"properties":{"_source":"croydon_council","address":"Banstead Road, Croydon, CR8 3YH.","contact":"Tel: 020 7884 5160","hours":{"_text":"Tuesday and Thursday 10.00am to 6.00pm","opening":"Tu 10:00-18:00; Th 10:00-18:00"},"title":"Purley Library","url":"https://www.croydon.gov.uk/warm-spaces-directory/purley-library-0"},"type":"Feature"},
		{"geometry":{"coordinates":[-0.09917,51.32178],"type":"Point"},"properties":{"_source":"croydon_council","address":"Church Road, London, CR8 5DW.","contact":"Tel: 07454 246059","hours":{"_text":"Enjoy puzzles, games and socialising. Day: Monday Time: 10am to 12 noon. From 20 October 2025 to 31 March 2026."},"title":"Puzzles and games at All Saints and St Barnabas Church, Kenley","url":"https://www.croydon.gov.uk/warm-spaces-directory/puzzles-and-games-all-saints-and-st-barnabas-church-kenley"},"type":"Feature"},
		{"geometry":{"coordinates":[-0.06274,51.34242],"type":"Point"},"properties":{"_source":"croydon_council","address":"Addington Road 130, London, CR2 8LA.","contact":"Tel: 020 7884 5190","hours":{"_text":"Monday, Wednesday and Friday: 10.00am to 6.00pm Tuesday and Thursday: 9am to 5pm Saturday 9am to 7pm","opening":"Mo 10:00-18:00; We 10:00-18:00; Fr 10:00-18:00; Tu 09:00-17:00; Th 09:00-17:00; Sa 09:00-19:00"},"title":"Selsdon Library","url":"https://www.croydon.gov.uk/warm-spaces-directory/selsdon-library"},"type":"Feature"},
		{"geometry":{"coordinates":[-0.07856,51.39740],"type":"Point"},"properties":{"_source":"croydon_council","address":"Lawrence Road, London, SE25 5AA.","contact":"Tel: 020 7884 5195","hours":{"_text":"Monday to Friday: 10am to 6pm Saturday: 9am to 5pm","opening":"Mo-Fr 10:00-18:00; Sa 09:00-17:00"},"title":"South Norwood Library","url":"https://www.croydon.gov.uk/warm-spaces-directory/south-norwood-library"},"type":"Feature"},
		{"geometry":{"coordinates":[-0.09253,51.39801],"type":"Point"},"properties":{"_source":"croydon_council","address":"1 Whitehorse Lane, London, SE25 6RD.","contact":"Tel: 0208 653 6092","hours":{"_text":"Croydon CAB attend each session for either walk in or pre-booked appointments. Trussell Trust is also present for those needing to register or to collect pre- arranged food deliveries.Other information Once a quarter, Croydon Hearing offer re-tubing and general advice regarding hearing services. Please look for information when they are next in on social media. Day: Tuesdays Time: 11am to 2pm"},"title":"St Alban the Martyr Church","url":"https://www.croydon.gov.uk/warm-spaces-directory/st-alban-martyr-church"},"type":"Feature"},
		{"geometry":{"coordinates":[-0.10549,51.39828],"type":"Point"},"properties":{"_source":"croydon_council","address":"St. Andrew's Roman Catholic Church, 45 Brook Road, London, CR7 7RD.","contact":"Tel: 020 8684 3013","hours":{"_text":"Tuesdays 11.00am to 3.00pm November 2024 to March 2025","opening":"Tu 11:00-15:00"},"title":"St Andrew's Roman Catholic Church","url":"https://www.croydon.gov.uk/warm-spaces-directory/st-andrews-roman-catholic-church"},"type":"Feature"},
		{"geometry":{"coordinates":[-0.05307,51.35232],"type":"Point"},"properties":{"_source":"croydon_council","address":"107 Broadcoombe,, Croydon, CR2 8HR.","contact":"Tel: 07862 348 202","hours":{"_text":"Wednesday 11.00am to 1.30pm","opening":"We 11:00-13:30"},"title":"St Francis Selsdon","url":"https://www.croydon.gov.uk/warm-spaces-directory/st-francis-selsdon"},"type":"Feature"},
		{"geometry":{"coordinates":[-0.03220,51.35847],"type":"Point"},"properties":{"_source":"croydon_council","address":"Addington Village Road, London, CR0 5AS.","contact":"Tel: 07469 198372","hours":{"_text":"Tuesday 11.00am to 4pm All year round","opening":"Tu 11:00-16:00"},"title":"St Mary the Blessed Virgin","url":"https://www.croydon.gov.uk/warm-spaces-directory/st-mary-blessed-virgin"},"type":"Feature"},
		{"geometry":{"coordinates":[-0.08333,51.36023],"type":"Point"},"properties":{"_source":"croydon_council","address":"St Paul's United Reformed Church, Croham Road, London, CR2 7AE.","contact":"Tel: 07971068887","hours":{"_text":"Booking is required Thursdays 3:30pm to 6:30pm","opening":"Th 15:30-18:30"},"title":"St Paul's United Reformed Church","url":"https://www.croydon.gov.uk/warm-spaces-directory/st-pauls-united-reformed-church"},"type":"Feature"},
		{"geometry":{"coordinates":[-0.01376,51.33877],"type":"Point"},"properties":{"_source":"croydon_council","address":"St. Edward King and Confessor Church, Cleves Crescent, Croydon, CR0 0DL.","contact":"Tel: 07942 755011","hours":{"_text":"Thursday 9.00am to 4.00pm","opening":"Th 09:00-16:00"},"title":"St. Edward King and Confessor Church","url":"https://www.croydon.gov.uk/warm-spaces-directory/st-edward-king-and-confessor-church"},"type":"Feature"},
		{"geometry":{"coordinates":[-0.10527,51.39676],"type":"Point"},"properties":{"_source":"croydon_council","address":"Brigstock Road, London, CR7 7JH.","contact":"Tel: 020 7884 5185","hours":{"_text":"Monday and Wednesday 10.00am to 6.00pm Saturday 9.00am to 5.00pm","opening":"Mo 10:00-18:00; We 10:00-18:00; Sa 09:00-17:00"},"title":"Thornton Heath Library","url":"https://www.croydon.gov.uk/warm-spaces-directory/thornton-heath-library"},"type":"Feature"},
		{"geometry":{"coordinates":[-0.11819,51.36373],"type":"Point"},"properties":{"_source":"croydon_council","address":"Waddon Leisure Centre, Purley Way, Croydon, CR0 4RG.","hours":{"_text":"Monday, Wednesday and Friday 1.00pm to 3.00pm November 2024 to 28 March 2025","opening":"Mo 13:00-15:00; We 13:00-15:00; Fr 13:00-15:00"},"title":"Waddon Leisure Centre","url":"https://www.croydon.gov.uk/warm-spaces-directory/waddon-leisure-centre"},"type":"Feature"},
		{"geometry":{"coordinates":[-0.13303,51.39115],"type":"Point"},"properties":{"_source":"lewisham_local","contact":"Email: ; Telephone:","description":"description: Read indicators for this borough (http://www.londonspovertyprofile.org.uk/indicators/boroughs/sutton/) cartodb_id: 29","hours":{"_text":""},"title":"Sutton"},"type":"Feature"}
	]
}
