{
	"type": "FeatureCollection",
	"features": [
		{"geometry":{"coordinates":[-5.36439,50.12097],"type":"Point"},"properties":{"_source":"warm_welcome","address":"Balwest Methodist Church, Helston, Cornwall TR13 9TE","description":"Well heated Chapel Hall with coffee morning serving bacon or sausage baps with hot drink. Donations only. Also cake, bric a brac, book stalls and raffle. Vegetarian, vegan, soya milk and gluten free products available. (Normally over 30 people present) Everyone welcome.","hours":{"_text":"Saturday: 10:00 - 12:00 Monthly","opening":"Sa 10:00-12:00"},"title":"Balwest Coffee Morning"},"type":"Feature"},
		{"geometry":{"coordinates":[-5.27682,50.10031],"type":"Point"},"properties":{"_source":"warm_welcome","address":"Balwest Methodist Church, Helston, Cornwall TR13 8EL TR13 8EL","description":"A breakfast Morning on the 2nd Saturday of each month from 10am -12 noon. Breakfast baps and drinks on offer - donations welcome but not necessary. Come and Join a warm welcome and discover a welcoming community. Vegan, vegetarian, gluten free and meat options available.","hours":{"_text":"Saturday: 10:00 - 12:00","opening":"Sa 10:00-12:00"},"title":"Balwest Methodist Church"},"type":"Feature"},
		{"geometry":{"coordinates":[-5.29960,50.21258],"type":"Point"},"properties":{"_source":"warm_welcome","address":"Camborne Wesley Methodist Church, Cornwall TR14 8EG","description":"Free space, open to all, running from 10:00 to 2:00 pm each week day.","hours":{"_text":"Monday: 10:00 - 14:00, Tuesday: 10:00 - 14:00, Wednesday: 10:00 - 14:00, Thursday: 10:00 - 14:00, Friday: 10:00 - 14:00","opening":"Mo 10:00-14:00; Tu 10:00-14:00; We 10:00-14:00; Th 10:00-14:00; Fr 10:00-14:00"},"title":"Camborne Wesley Methodist Church"},"type":"Feature"},
		{"geometry":{"coordinates":[-5.30285,50.22119],"type":"Point"},"properties":{"_source":"warm_welcome","address":"Chapel Street, Camborne, Cornwall TR14 0AA","description":"Open from 16/10/2023 All are welcome Town centre location. Free hot drinks. Meals, sandwiches, soup etc available at modest prices","hours":{"_text":"Monday: 10:00 - 14:00, Tuesday: 10:00 - 14:00, Wednesday: 10:00 - 14:00, Thursday: 10:00 - 14:00, Friday: 10:00 - 14:00","opening":"Mo 10:00-14:00; Tu 10:00-14:00; We 10:00-14:00; Th 10:00-14:00; Fr 10:00-14:00"},"title":"Camborne Wesley Methodist Church - Community Space"},"type":"Feature"},
		{"geometry":{"coordinates":[-5.29333,50.21411],"type":"Point"},"properties":{"_source":"warm_welcome","address":"Centenary Methodist Church, Camborne, Cornwall TR14 8HS","description":"The space is open to all!","hours":{"_text":"Tuesday: 01:30 - 03:30, Wednesday: 10:00 - 12:00 / 05:30 - 06:30, Thursday: 10:00 - 12:00, Friday: 10:00 - 12:00, Saturday: 10:00 - 12:00 Monthly, Sunday: 10:00 - 12:00","opening":"Tu 01:30-03:30; We 10:00-12:00,05:30-06:30; Th 10:00-12:00; Fr 10:00-12:00; Sa 10:00-12:00; Su 10:00-12:00"},"title":"Centenary Methodist Church"},"type":"Feature"},
		{"geometry":{"coordinates":[-5.40811,50.19162],"type":"Point"},"properties":{"_source":"warm_welcome","address":"Phillack Church Hall, 11 Copper Terrace, Hayle, Cornwall","description":"Open from Thursday November 3rd 2022.","hours":{"_text":"Thursday: 12:00 - 15:00","opening":"Th 12:00-15:00"},"title":"Copperhouse Community Cafe"},"type":"Feature"},
		{"geometry":{"coordinates":[-5.27682,50.10031],"type":"Point"},"properties":{"_source":"warm_welcome","address":"Epworth Centre Helston, Helston, Cornwall TR13 8EL","description":"The space is open to all and we provide activities to do with saving wool and fabric from land fill and using them to make new items to send to 3rd world countries or the elderly in our own community.","hours":{"_text":"Tuesday: 02:30 - 04:00","opening":"Tu 02:30-04:00"},"title":"Epworth Centre Helston 'Stitch and Ditch wellbeing warm space'"},"type":"Feature"},
		{"geometry":{"coordinates":[-5.48027,50.21390],"type":"Point"},"properties":{"_source":"warm_welcome","address":"Fore Street Methodist Church, St.Ives, Cornwall TR26 1HW","description":"Building located at the Northern end of the harbour promenade with entrance at the lower end of Fore Street.","hours":{"_text":"Thursday: 10:30 - 12:30","opening":"Th 10:30-12:30"},"title":"Fore Street Methodist Church St.Ives, Cornwall"},"type":"Feature"},
		{"geometry":{"coordinates":[-5.27451,50.10079],"type":"Point"},"properties":{"_source":"warm_welcome","address":"Central Methodist Church, Helston, Cornwall TR13 8EL","description":"This space is open to anyone who'd like a sit down and chat , or needs a hot drink or soup or somewhere warm and safe to sit.","hours":{"_text":"Monday: 09:30 - 18:00, Tuesday: 09:30 - 13:30, Wednesday: 09:30 - 12:00 / 17:00 - 18:00, Thursday: 09:30 - 13:30, Friday: 09:30 - 13:30","opening":"Mo 09:30-18:00; Tu 09:30-13:30; We 09:30-12:00,17:00-18:00; Th 09:30-13:30; Fr 09:30-13:30"},"title":"Helston Town Centre Warm Space"},"type":"Feature"},
		{"geometry":{"coordinates":[-5.56609,50.13317],"type":"Point"},"properties":{"_source":"warm_welcome","address":"Madron Methodist Church, Penzance, Cornwall TR20 8SL","description":"The chapel schoolroom is a space of about 2,000 sq ft with an adjoining kitchen. We have modern chairs and tables to accommodate up to 50 people. We also have toys and games for the younger people. Older folk can have fun with board/card games and/or jigsaws. The room is heated by electric wall mounted heaters.","hours":{"_text":"Wednesday: 10:00 - 12:00","opening":"We 10:00-12:00"},"title":"Madron Methodist Church schoolroom"},"type":"Feature"},
		{"geometry":{"coordinates":[-5.47000,50.12400],"type":"Point"},"properties":{"_source":"warm_welcome","address":"Methodist Church, Marazion, Cornwall TR17 0AL","description":"Marazion Mini's' Space open to Parents, Grandparents, Carers and their pre school children every Thursday morning from 9.30am - 11.30am in term time (10am - noon in school hols). Free drinks and light refreshments and soft play for children.","hours":{"_text":"Thursday: 09:30 - 11:30, Sunday: 10:30 - 12:00","opening":"Th 09:30-11:30; Su 10:30-12:00"},"title":"Marazion Methodist Chapel"},"type":"Feature"},
		{"geometry":{"coordinates":[-5.47247,50.12405],"type":"Point"},"properties":{"_source":"warm_welcome","address":"Marazion Quaker Meeting House, Marazion, Cornwall TR17 0HE","description":"Open from 21-11-2022.","hours":{"_text":"Monday: 11:00 - 15:00","opening":"Mo 11:00-15:00"},"title":"Marazion Quaker Meeting House"},"type":"Feature"},
		{"geometry":{"coordinates":[-5.30672,50.14390],"type":"Point"},"properties":{"_source":"warm_welcome","address":"Nancegollan Village Hall, Cornwall TR13 0AJ","description":"All welcome","hours":{"_text":"Thursday: 10:00 - 13:00","opening":"Th 10:00-13:00"},"title":"Nancegollan Community Cafe"},"type":"Feature"},
		{"geometry":{"coordinates":[-5.30672,50.14392],"type":"Point"},"properties":{"_source":"warm_welcome","address":"The Green, Helston, Cornwall, Helston, Cornwall TR13 0AJ","description":"A welcoming Community Hub providing free hot drinks, refreshments and company.","hours":{"_text":"Thursday: 10:00 - 02:00","opening":"Th 10:00-14:00"},"title":"Nancegollan Village Hall"},"type":"Feature"},
		{"geometry":{"coordinates":[-5.54966,50.10157],"type":"Point"},"properties":{"_source":"warm_welcome","address":"Newlyn Centenary Methodist Church, Penzance, Cornwall TR19 6HP TR18 5LX","description":"A warm welcome to all. Hot drinks and biscuits will be available.","hours":{"_text":"Tuesday: 18:00 - 19:00, Thursday: 10:00 - 14:00, Saturday: 18:00 - 19:00, Sunday: 11:00 - 13:00","opening":"Tu 18:00-19:00; Th 10:00-14:00; Sa 18:00-19:00; Su 11:00-13:00"},"title":"Newlyn Centenary"},"type":"Feature"},
		{"geometry":{"coordinates":[-5.53592,50.11686],"type":"Point"},"properties":{"_source":"warm_welcome","address":"Queen Street, TR18 4BH","description":"Hall Open - warm welcome and warm drink","hours":{"_text":"Tuesday: 10:30 - 15:00, Wednesday: 10:00 - 15:00, Thursday: 10:00 - 15:00, Friday: 10:00 - 15:00, Sunday: 10:30 - 13:00","opening":"Tu 10:30-15:00; We 10:00-15:00; Th 10:00-15:00; Fr 10:00-15:00; Su 10:30-13:00"},"title":"Penzance Salvation Army"},"type":"Feature"},
		{"geometry":{"coordinates":[-5.31518,50.08599],"type":"Point"},"properties":{"_source":"warm_welcome","address":"Porthleven Methodist Church, Helston, Cornwall TR13 9HL","description":"All are weclome","hours":{"_text":"Wednesday: 10:00 - 11:30, Sunday: 08:45 - 10:15 Fortnightly","opening":"We 10:00-11:30; Su 08:45-10:15"},"title":"Porthleven Methodist Church"},"type":"Feature"},
		{"geometry":{"coordinates":[-5.28453,50.20683],"type":"Point"},"properties":{"_source":"warm_welcome","address":"Beacon Methodist Chapel, Camborne, Cornwall TR14 7SW","description":"This space is open to all for a delicious soup, pudding and hot drink. Donations are welcome. From 12-1:30pm on the last Tuesday of the month (not including July, August or December).","hours":{"_text":"Tuesday: 12:00 - 13:30 Monthly","opening":"Tu 12:00-13:30"},"title":"Soup and Sweet"},"type":"Feature"},
		{"geometry":{"coordinates":[-5.62246,50.07448],"type":"Point"},"properties":{"_source":"warm_welcome","address":"St Buryan Church, Penzance, Cornwall TR19 6BA","description":"A Food Larder is available for all those in need. Warm winter clothes also available during the cold months. Breakfast Club - 1st Thursday of each month. Soup Lunch - 3rd Thursday of each month. No charge for the above. Donations can be made for the ongoing mission & ministry of the church. Dog friendly.","hours":{"_text":"Monday: 09:00 - 17:00, Tuesday: 09:00 - 17:00, Wednesday: 09:00 - 17:00, Thursday: 09:00 - 17:00, Friday: 09:00 - 17:00, Saturday: 09:00 - 17:00, Sunday: 09:00 - 17:00","opening":"Mo 09:00-17:00; Tu 09:00-17:00; We 09:00-17:00; Th 09:00-17:00; Fr 09:00-17:00; Sa 09:00-17:00; Su 09:00-17:00"},"title":"St Buryan Church"},"type":"Feature"},
		{"geometry":{"coordinates":[-5.43271,50.16535],"type":"Point"},"properties":{"_source":"warm_welcome","address":"St Erth Methodist Chapel, Hayle, TR27 6HL","description":"Come along for free tea, toast and chat every Tuesday morning, 10:30 to noon.","hours":{"_text":"Tuesday: 10:30 - 12:00","opening":"Tu 10:30-12:00"},"title":"Tea & Toast"},"type":"Feature"},
		{"geometry":{"coordinates":[-5.55061,50.10567],"type":"Point"},"properties":{"_source":"warm_welcome","address":"Chywoone Hill, Newlyn, Cornwall TR18 5AD","description":"Multipurpose church and community centre","hours":{"_text":"Monday: 09:00 - 09:00, Tuesday: 09:00 - 09:00, Wednesday: 02:00 - 09:00, Thursday: 09:00 - 09:00, Friday: 09:00 - 05:00, Saturday: 10:00 - 12:00","opening":"Mo 09:00-09:00; Tu 09:00-09:00; We 02:00-09:00; Th 09:00-09:00; Fr 09:00-17:00; Sa 10:00-12:00"},"title":"The Centre Newlyn"},"type":"Feature"},
		{"geometry":{"coordinates":[-5.27358,50.10137],"type":"Point"},"properties":{"_source":"warm_welcome","address":"The Open Door, 14 Wendron Street, Helston, Cornwall TR13 8PS","description":"A safe space to keep out of the cold, have a chat and a hot drink. We can also help with sign posting to agencies that may be able to help with any issues you may be going through. The Open Door is also where our Helston & The Lizard foodbank can be accessed on the same days but until 2pm.","hours":{"_text":"Monday: 10:00 - 16:00, Wednesday: 10:00 - 16:00, Friday: 10:00 - 16:00","opening":"Mo 10:00-16:00; We 10:00-16:00; Fr 10:00-16:00"},"title":"The Open Door"},"type":"Feature"},
		{"geometry":{"coordinates":[-5.28448,50.21973],"type":"Point"},"properties":{"_source":"carefree_cornwall","address":"Church View Road, Tuckingmill, United Kingdom, TR14 8RQ","description":"Address: Church View Road, Tuckingmill, United Kingdom, TR14 8RQ Contact details: 01209 610260 | info@allsaintscentre.co.uk Warm/Cool Hub: Opening hours: Open to the public on weekdays, additional services within Hub at the weekend. Activities offered: Physical activity; Peer support; Advice or external services; Food larder or café; Arts, crafts, games Area of focus: A broad community offer, with activities and support for people of all ages and needs. Website: https://www.facebook.com/allsaintscentre.co.uk?locale=en_GB Community Maker Area: West (Kerrier) Community Maker: Josh Clarke","loc_pcd":true,"title":"All Saints"},"type":"Feature"},
		{"geometry":{"coordinates":[-5.30244,50.21379],"type":"Point"},"properties":{"_source":"carefree_cornwall","address":"St Martin & St Meriadoc, Church Street, Camborne TR14 7DF","description":"Address: St Martin & St Meriadoc, Church Street, Camborne TR14 7DF Contact details: 07873 612760 | admin@cambornecluster.org.uk Warm/Cool Hub: Opening hours: Everyday - collection of 5 churches Activities offered: Peer support; Food larder or café; Outdoor activity; Arts, crafts, games Area of focus: Families & children; Older people; Loneliness & social connection Website: https://cambornecluster.org.uk/ Community Maker Area: West (Kerrier) Community Maker: Josh Clarke","loc_pcd":true,"title":"Camborne Cluster of Churches"},"type":"Feature"},
		{"geometry":{"coordinates":[-5.30676,50.14389],"type":"Point"},"properties":{"_source":"carefree_cornwall","address":"The Grn, Nancegollan, Helston TR13 0AJ","description":"Address: The Grn, Nancegollan, Helston TR13 0AJ Contact details: 07926 166546 Warm/Cool Hub: Opening hours: Community Café: every Thu from 10:00, year-round. Activities offered: Peer support; Advice or external services; Food larder or café; Arts, crafts, games Area of focus: Loneliness & social connection Website: https://nancegollanvillagehall.co.uk/community-café Community Maker Area: West (Kerrier) Community Maker: Josh Clarke","loc_pcd":true,"title":"Nancegollan Village Hall"},"type":"Feature"},
		{"geometry":{"coordinates":[-5.34824,50.13425],"type":"Point"},"properties":{"_source":"carefree_cornwall","address":"GODOLPHIN CROSS COMMUNITY ASSOCIATION, THE OLD CHAPEL, GODOLPHIN CROSS, HELSTON, TR13 9RA","description":"Address: GODOLPHIN CROSS COMMUNITY ASSOCIATION, THE OLD CHAPEL, GODOLPHIN CROSS, HELSTON, TR13 9RA Contact details: 01736 761331 | info@godolphincross.community Warm/Cool Hub: Extreme weather support: During very hot weather, this hub provides a safe, comfortable space open to the public, with access to facilities and practical resources. Opening hours: Activity-based: weekdays Activities offered: Physical activity; Peer support Area of focus: A broad community offer, with activities and support for people of all ages and needs. Website: https://www.gcca.uk/ Community Maker Area: West (Kerrier) Community Maker: Josh Clarke","loc_pcd":true,"title":"Godolphin Cross Community Association"},"type":"Feature"},
		{"geometry":{"coordinates":[-5.27939,50.09964],"type":"Point"},"properties":{"_source":"carefree_cornwall","address":"Porthleven Rd, Helston TR13 0SR & The Basement, Helston, The Parade, Helston TR13 8RT","description":"Address: Porthleven Rd, Helston TR13 0SR & The Basement, Helston, The Parade, Helston TR13 8RT Contact details: 01326 560606 | info@theoldcattlemarket.co.uk Warm/Cool Hub: Opening hours: Open throughout the week for scheduled activities and events. Activities offered: Physical activity; Peer support; Outdoor activity; Arts, crafts, games Area of focus: Cost of living / practical support; Loneliness & social connection Website: https://lovehelston.co.uk/whats-on/ Community Maker Area: West (Kerrier) Community Maker: Josh Clarke","loc_pcd":true,"title":"South Kerrier Alliance (Old Cattle Market & The Basement)"},"type":"Feature"},
		{"geometry":{"coordinates":[-5.31293,50.08672],"type":"Point"},"properties":{"_source":"carefree_cornwall","address":"Wellington Rd, Porthleven, Helston TR13 9AB","description":"Address: Wellington Rd, Porthleven, Helston TR13 9AB Contact details: 07543 484984 | porthlevenpublichall@gmail.com Warm/Cool Hub: Opening hours: Open throughout the week for scheduled activities and events. Activities offered: Physical activity; Peer support; Advice or external services; Health professionals visiting or personal care; Arts, crafts, games Area of focus: A broad community offer, with activities and support for people of all ages and needs. Website: https://porthlevenhall.wixsite.com/porthleven-hall Community Maker Area: West (Kerrier) Community Maker: Josh Clarke","loc_pcd":true,"title":"Porthleven Village Hall -"},"type":"Feature"},
		{"geometry":{"coordinates":[-5.29283,50.21514],"type":"Point"},"properties":{"_source":"carefree_cornwall","address":"1 Wesley St, Camborne TR14 8DP","description":"Address: 1 Wesley St, Camborne TR14 8DP Contact details: 01209 719415 | admin@transformationcpr.org Warm/Cool Hub: Opening hours: Centenary Camborne: Tue 13:30–15:30; Wed 17:30–18:30; Thu 10:00–12:00; Fri 10:30–12:00. Activities offered: Peer support; Advice or external services; Food larder or café Area of focus: Cost of living / food support; People experiencing hardship Website: https://transformationcpr.org/ Community Maker Area: West (Kerrier) Community Maker: Josh Clarke","loc_pcd":true,"title":"Transformation CPR"},"type":"Feature"},
		{"geometry":{"coordinates":[-5.41496,50.19000],"type":"Point"},"properties":{"_source":"carefree_cornwall","address":"Commercial road, Hayle, TR27 4DH","description":"Address: Commercial road, Hayle, TR27 4DH Contact details: 01736 755000 | admin@hayledaycentre.org.uk Warm/Cool Hub: Opening hours: Weekdays Activities offered: Physical activity; Peer support; Advice or external services; Health professionals visiting or personal care; Food larder or café; Arts, crafts, games Area of focus: Older people; Carers; Loneliness & social connection Website: https://hayledaycentre.org.uk/ Community Maker Area: West (Penwith) Community Maker: Jayne Devlin","loc_pcd":true,"title":"Hayle Day Care Centre"},"type":"Feature"},
		{"geometry":{"coordinates":[-5.41496,50.19000],"type":"Point"},"properties":{"_source":"carefree_cornwall","address":"Commercial Road, Hayle, TR27 4DH","description":"Address: Commercial Road, Hayle, TR27 4DH Contact details: 0300 1234 111 | hayle.library@liscornwall.org.uk Warm/Cool Hub: Opening hours: Monday, Wednesday, Friday & Saturday Activities offered: Peer support; Advice or external services; Outdoor activity; Arts, crafts, games; Digital inclusion Area of focus: Families & children; Loneliness & social connection Website: https://www.cornwall.gov.uk/libraries-museums-and-archives/libraries/your-local-library/hayle-library-and-information-service/ Community Maker Area: West (Penwith) Community Maker: Jayne Devlin","loc_pcd":true,"title":"Hayle Library"},"type":"Feature"},
		{"geometry":{"coordinates":[-5.47911,50.20754],"type":"Point"},"properties":{"_source":"carefree_cornwall","address":"Albany Terrace, St Ives\nTR26 2BS","description":"Address: Albany Terrace, St Ives TR26 2BS Contact details: centremanager@edwardhaincentre.org.uk Warm/Cool Hub: Opening hours: Weekdays Activities offered: Physical activity; Peer support; Advice or external services; Health professionals visiting or personal care; Food larder or café; Outdoor activity; Arts, crafts, games Area of focus: Mental health & wellbeing; Long-term conditions; Cost of living / food support; Health & wellbeing Website: https://edwardhaincentre.org.uk/ Community Maker Area: West (Penwith) Community Maker: Jayne Devlin","loc_pcd":true,"title":"Edward Hain Centre"},"type":"Feature"},
		{"geometry":{"coordinates":[-5.55049,50.12495],"type":"Point"},"properties":{"_source":"carefree_cornwall","address":"John Daniel Centre, Roscadghill Rd, Heamoor, Penzance TR20 8TP","description":"Address: John Daniel Centre, Roscadghill Rd, Heamoor, Penzance TR20 8TP Contact details: 07979 120909 / 07715 406257 | hello@growinglinks.org.uk Warm/Cool Hub: Opening hours: Tuesday, Wednesday (afternoon, evening) and Friday Activities offered: Physical activity; Peer support; Health professionals visiting or personal care; Food larder or café; Outdoor activity Area of focus: Food poverty / hardship; Homelessness; Mental health & wellbeing; Young people; Skills / employment Website: https://www.growinglinks.org.uk/ Community Maker Area: West (Penwith) Community Maker: Pip Macmeikan","loc_pcd":true,"title":"Growing Links CIC"},"type":"Feature"},
		{"geometry":{"coordinates":[-5.53784,50.11645],"type":"Point"},"properties":{"_source":"carefree_cornwall","address":"Morrab Gardens, Penzance TR184DA","description":"Address: Morrab Gardens, Penzance TR184DA Contact details: 01736 364307 | pengarth_day_centre@hotmail.com Warm/Cool Hub: Opening hours: 7 days a week Activities offered: Peer support; Advice or external services; Health professionals visiting or personal care; Food larder or café; Arts, crafts, games Area of focus: Older people; Disability / additional needs; Loneliness & social connection Website: https://pengarth.org.uk/ Community Maker Area: West (Penwith) Community Maker: Pip Macmeikan","loc_pcd":true,"title":"Pengarth Day Centre"},"type":"Feature"},
		{"geometry":{"coordinates":[-5.43738,50.12397],"type":"Point"},"properties":{"_source":"carefree_cornwall","address":"South Rd, Goldsithney, Penzance TR20 9LF","description":"Address: South Rd, Goldsithney, Penzance TR20 9LF Contact details: 07436 196265 | stpiranshallgoldsithney@gmail.com Warm/Cool Hub: Opening hours: 7 days a week Activities offered: Physical activity; Peer support; Outdoor activity; Arts, crafts, games Area of focus: A broad community offer, with activities and support for people of all ages and needs. Website: https://www.stpiranshall.com/ Community Maker Area: West (Penwith) Community Maker: Pip Macmeikan","loc_pcd":true,"title":"St Pirans Hall"},"type":"Feature"},
		{"geometry":{"coordinates":[-5.55169,50.10087],"type":"Point"},"properties":{"_source":"carefree_cornwall","address":"Chywoone Hill, Newlyn, Penzance TR18 5AR","description":"Address: Chywoone Hill, Newlyn, Penzance TR18 5AR Contact details: 01736 365890 | online contact form: http://www.thecentrenewlyn.org/ Warm/Cool Hub: Opening hours: Open to the public on weekdays, additional services within Hub at the weekend. Activities offered: Physical activity; Peer support; Advice or external services; Food larder or café; Outdoor activity; Arts, crafts, games Area of focus: A broad community offer, with activities and support for people of all ages and needs. Website: https://www.thecentrenewlyn.org/ Community Maker Area: West (Penwith) Community Maker: Pip Macmeikan","loc_pcd":true,"title":"The Centre Newlyn"},"type":"Feature"},
		{"geometry":{"coordinates":[-5.53912,50.12596],"type":"Point"},"properties":{"_source":"carefree_cornwall","address":"The Lescudjack Centre, Penmere Cl, Penzance TR18 3PE","description":"Address: The Lescudjack Centre, Penmere Cl, Penzance TR18 3PE Contact details: 01736 334850 | info@trelya.com Warm/Cool Hub: Opening hours: Weekdays Activities offered: Physical activity; Peer support; Advice or external services; Health professionals visiting or personal care; Food larder or café; Outdoor activity; Arts, crafts, games Area of focus: A broad community offer, with activities and support for people of all ages and needs. Website: https://trelya.com/ Community Maker Area: West (Penwith) Community Maker: Pip Macmeikan","loc_pcd":true,"title":"Trelya"},"type":"Feature"},
		{"geometry":{"coordinates":[-5.54318,50.12806],"type":"Point"},"properties":{"_source":"carefree_cornwall","address":"Colinsey Rd, Penzance TR18 3NZ","description":"Address: Colinsey Rd, Penzance TR18 3NZ Contact details: 07835 950853 | info@wholeagaincommunities.co.uk Warm/Cool Hub: Opening hours: Tuesday - Friday Activities offered: Peer support; Advice or external services; Health professionals visiting or personal care; Food larder or café; Outdoor activity; Arts, crafts, games; Digital inclusion Area of focus: A broad community offer, with activities and support for people of all ages and needs. Website: https://www.wholeagaincommunities.co.uk/ Community Maker Area: West (Penwith) Community Maker: Pip Macmeikan","loc_pcd":true,"title":"Whole Again Communities"},"type":"Feature"},
		{"geometry":{"coordinates":[-5.28448,50.21973],"type":"Point"},"properties":{"_source":"carefree_cornwall","address":"Church View Road, Tuckingmill, United Kingdom, TR14 8RQ","description":"Address: Church View Road, Tuckingmill, United Kingdom, TR14 8RQ Contact details: 01209 610260 | info@allsaintscentre.co.uk Warm/Cool Hub: Opening hours: Open to the public on weekdays, additional services within Hub at the weekend. Activities offered: Physical activity; Peer support; Advice or external services; Food larder or café; Arts, crafts, games Area of focus: A broad community offer, with activities and support for people of all ages and needs. Website: https://www.facebook.com/allsaintscentre.co.uk?locale=en_GB Community Maker Area: West (Kerrier) Community Maker: Josh Clarke","loc_pcd":true,"title":"All Saints"},"type":"Feature"},
		{"geometry":{"coordinates":[-5.30244,50.21379],"type":"Point"},"properties":{"_source":"carefree_cornwall","address":"St Martin & St Meriadoc, Church Street, Camborne TR14 7DF","description":"Address: St Martin & St Meriadoc, Church Street, Camborne TR14 7DF Contact details: 07873 612760 | admin@cambornecluster.org.uk Warm/Cool Hub: Opening hours: Everyday - collection of 5 churches Activities offered: Peer support; Food larder or café; Outdoor activity; Arts, crafts, games Area of focus: Families & children; Older people; Loneliness & social connection Website: https://cambornecluster.org.uk/ Community Maker Area: West (Kerrier) Community Maker: Josh Clarke","loc_pcd":true,"title":"Camborne Cluster of Churches"},"type":"Feature"},
		{"geometry":{"coordinates":[-5.30676,50.14389],"type":"Point"},"properties":{"_source":"carefree_cornwall","address":"The Grn, Nancegollan, Helston TR13 0AJ","description":"Address: The Grn, Nancegollan, Helston TR13 0AJ Contact details: 07926 166546 Warm/Cool Hub: Opening hours: Community Café: every Thu from 10:00, year-round. Activities offered: Peer support; Advice or external services; Food larder or café; Arts, crafts, games Area of focus: Loneliness & social connection Website: https://nancegollanvillagehall.co.uk/community-café Community Maker Area: West (Kerrier) Community Maker: Josh Clarke","loc_pcd":true,"title":"Nancegollan Village Hall"},"type":"Feature"},
		{"geometry":{"coordinates":[-5.34824,50.13425],"type":"Point"},"properties":{"_source":"carefree_cornwall","address":"GODOLPHIN CROSS COMMUNITY ASSOCIATION, THE OLD CHAPEL, GODOLPHIN CROSS, HELSTON, TR13 9RA","description":"Address: GODOLPHIN CROSS COMMUNITY ASSOCIATION, THE OLD CHAPEL, GODOLPHIN CROSS, HELSTON, TR13 9RA Contact details: 01736 761331 | info@godolphincross.community Warm/Cool Hub: Extreme weather support: During very hot weather, this hub provides a safe, comfortable space open to the public, with access to facilities and practical resources. Opening hours: Activity-based: weekdays Activities offered: Physical activity; Peer support Area of focus: A broad community offer, with activities and support for people of all ages and needs. Website: https://www.gcca.uk/ Community Maker Area: West (Kerrier) Community Maker: Josh Clarke","loc_pcd":true,"title":"Godolphin Cross Community Association"},"type":"Feature"},
		{"geometry":{"coordinates":[-5.27939,50.09964],"type":"Point"},"properties":{"_source":"carefree_cornwall","address":"Porthleven Rd, Helston TR13 0SR & The Basement, Helston, The Parade, Helston TR13 8RT","description":"Address: Porthleven Rd, Helston TR13 0SR & The Basement, Helston, The Parade, Helston TR13 8RT Contact details: 01326 560606 | info@theoldcattlemarket.co.uk Warm/Cool Hub: Opening hours: Open throughout the week for scheduled activities and events. Activities offered: Physical activity; Peer support; Outdoor activity; Arts, crafts, games Area of focus: Cost of living / practical support; Loneliness & social connection Website: https://lovehelston.co.uk/whats-on/ Community Maker Area: West (Kerrier) Community Maker: Josh Clarke","loc_pcd":true,"title":"South Kerrier Alliance (Old Cattle Market & The Basement)"},"type":"Feature"},
		{"geometry":{"coordinates":[-5.31293,50.08672],"type":"Point"},"properties":{"_source":"carefree_cornwall","address":"Wellington Rd, Porthleven, Helston TR13 9AB","description":"Address: Wellington Rd, Porthleven, Helston TR13 9AB Contact details: 07543 484984 | porthlevenpublichall@gmail.com Warm/Cool Hub: Opening hours: Open throughout the week for scheduled activities and events. Activities offered: Physical activity; Peer support; Advice or external services; Health professionals visiting or personal care; Arts, crafts, games Area of focus: A broad community offer, with activities and support for people of all ages and needs. Website: https://porthlevenhall.wixsite.com/porthleven-hall Community Maker Area: West (Kerrier) Community Maker: Josh Clarke","loc_pcd":true,"title":"Porthleven Village Hall -"},"type":"Feature"},
		{"geometry":{"coordinates":[-5.29283,50.21514],"type":"Point"},"properties":{"_source":"carefree_cornwall","address":"1 Wesley St, Camborne TR14 8DP","description":"Address: 1 Wesley St, Camborne TR14 8DP Contact details: 01209 719415 | admin@transformationcpr.org Warm/Cool Hub: Opening hours: Centenary Camborne: Tue 13:30–15:30; Wed 17:30–18:30; Thu 10:00–12:00; Fri 10:30–12:00. Activities offered: Peer support; Advice or external services; Food larder or café Area of focus: Cost of living / food support; People experiencing hardship Website: https://transformationcpr.org/ Community Maker Area: West (Kerrier) Community Maker: Josh Clarke","loc_pcd":true,"title":"Transformation CPR"},"type":"Feature"},
		{"geometry":{"coordinates":[-5.41496,50.19000],"type":"Point"},"properties":{"_source":"carefree_cornwall","address":"Commercial road, Hayle, TR27 4DH","description":"Address: Commercial road, Hayle, TR27 4DH Contact details: 01736 755000 | admin@hayledaycentre.org.uk Warm/Cool Hub: Opening hours: Weekdays Activities offered: Physical activity; Peer support; Advice or external services; Health professionals visiting or personal care; Food larder or café; Arts, crafts, games Area of focus: Older people; Carers; Loneliness & social connection Website: https://hayledaycentre.org.uk/ Community Maker Area: West (Penwith) Community Maker: Jayne Devlin","loc_pcd":true,"title":"Hayle Day Care Centre"},"type":"Feature"},
		{"geometry":{"coordinates":[-5.41496,50.19000],"type":"Point"},"properties":{"_source":"carefree_cornwall","address":"Commercial Road, Hayle, TR27 4DH","description":"Address: Commercial Road, Hayle, TR27 4DH Contact details: 0300 1234 111 | hayle.library@liscornwall.org.uk Warm/Cool Hub: Opening hours: Monday, Wednesday, Friday & Saturday Activities offered: Peer support; Advice or external services; Outdoor activity; Arts, crafts, games; Digital inclusion Area of focus: Families & children; Loneliness & social connection Website: https://www.cornwall.gov.uk/libraries-museums-and-archives/libraries/your-local-library/hayle-library-and-information-service/ Community Maker Area: West (Penwith) Community Maker: Jayne Devlin","loc_pcd":true,"title":"Hayle Library"},"type":"Feature"},
		{"geometry":{"coordinates":[-5.47911,50.20754],"type":"Point"},"properties":{"_source":"carefree_cornwall","address":"Albany Terrace, St Ives\nTR26 2BS","description":"Address: Albany Terrace, St Ives TR26 2BS Contact details: centremanager@edwardhaincentre.org.uk Warm/Cool Hub: Opening hours: Weekdays Activities offered: Physical activity; Peer support; Advice or external services; Health professionals visiting or personal care; Food larder or café; Outdoor activity; Arts, crafts, games Area of focus: Mental health & wellbeing; Long-term conditions; Cost of living / food support; Health & wellbeing Website: https://edwardhaincentre.org.uk/ Community Maker Area: West (Penwith) Community Maker: Jayne Devlin","loc_pcd":true,"title":"Edward Hain Centre"},"type":"Feature"},
		{"geometry":{"coordinates":[-5.55049,50.12495],"type":"Point"},"properties":{"_source":"carefree_cornwall","address":"John Daniel Centre, Roscadghill Rd, Heamoor, Penzance TR20 8TP","description":"Address: John Daniel Centre, Roscadghill Rd, Heamoor, Penzance TR20 8TP Contact details: 07979 120909 / 07715 406257 | hello@growinglinks.org.uk Warm/Cool Hub: Opening hours: Tuesday, Wednesday (afternoon, evening) and Friday Activities offered: Physical activity; Peer support; Health professionals visiting or personal care; Food larder or café; Outdoor activity Area of focus: Food poverty / hardship; Homelessness; Mental health & wellbeing; Young people; Skills / employment Website: https://www.growinglinks.org.uk/ Community Maker Area: West (Penwith) Community Maker: Pip Macmeikan","loc_pcd":true,"title":"Growing Links CIC"},"type":"Feature"},
		{"geometry":{"coordinates":[-5.53784,50.11645],"type":"Point"},"properties":{"_source":"carefree_cornwall","address":"Morrab Gardens, Penzance TR184DA","description":"Address: Morrab Gardens, Penzance TR184DA Contact details: 01736 364307 | pengarth_day_centre@hotmail.com Warm/Cool Hub: Opening hours: 7 days a week Activities offered: Peer support; Advice or external services; Health professionals visiting or personal care; Food larder or café; Arts, crafts, games Area of focus: Older people; Disability / additional needs; Loneliness & social connection Website: https://pengarth.org.uk/ Community Maker Area: West (Penwith) Community Maker: Pip Macmeikan","loc_pcd":true,"title":"Pengarth Day Centre"},"type":"Feature"},
		{"geometry":{"coordinates":[-5.43738,50.12397],"type":"Point"},"properties":{"_source":"carefree_cornwall","address":"South Rd, Goldsithney, Penzance TR20 9LF","description":"Address: South Rd, Goldsithney, Penzance TR20 9LF Contact details: 07436 196265 | stpiranshallgoldsithney@gmail.com Warm/Cool Hub: Opening hours: 7 days a week Activities offered: Physical activity; Peer support; Outdoor activity; Arts, crafts, games Area of focus: A broad community offer, with activities and support for people of all ages and needs. Website: https://www.stpiranshall.com/ Community Maker Area: West (Penwith) Community Maker: Pip Macmeikan","loc_pcd":true,"title":"St Pirans Hall"},"type":"Feature"},
		{"geometry":{"coordinates":[-5.55169,50.10087],"type":"Point"},"properties":{"_source":"carefree_cornwall","address":"Chywoone Hill, Newlyn, Penzance TR18 5AR","description":"Address: Chywoone Hill, Newlyn, Penzance TR18 5AR Contact details: 01736 365890 | online contact form: http://www.thecentrenewlyn.org/ Warm/Cool Hub: Opening hours: Open to the public on weekdays, additional services within Hub at the weekend. Activities offered: Physical activity; Peer support; Advice or external services; Food larder or café; Outdoor activity; Arts, crafts, games Area of focus: A broad community offer, with activities and support for people of all ages and needs. Website: https://www.thecentrenewlyn.org/ Community Maker Area: West (Penwith) Community Maker: Pip Macmeikan","loc_pcd":true,"title":"The Centre Newlyn"},"type":"Feature"},
		{"geometry":{"coordinates":[-5.53912,50.12596],"type":"Point"},"properties":{"_source":"carefree_cornwall","address":"The Lescudjack Centre, Penmere Cl, Penzance TR18 3PE","description":"Address: The Lescudjack Centre, Penmere Cl, Penzance TR18 3PE Contact details: 01736 334850 | info@trelya.com Warm/Cool Hub: Opening hours: Weekdays Activities offered: Physical activity; Peer support; Advice or external services; Health professionals visiting or personal care; Food larder or café; Outdoor activity; Arts, crafts, games Area of focus: A broad community offer, with activities and support for people of all ages and needs. Website: https://trelya.com/ Community Maker Area: West (Penwith) Community Maker: Pip Macmeikan","loc_pcd":true,"title":"Trelya"},"type":"Feature"},
		{"geometry":{"coordinates":[-5.54318,50.12806],"type":"Point"},"properties":{"_source":"carefree_cornwall","address":"Colinsey Rd, Penzance TR18 3NZ","description":"Address: Colinsey Rd, Penzance TR18 3NZ Contact details: 07835 950853 | info@wholeagaincommunities.co.uk Warm/Cool Hub: Opening hours: Tuesday - Friday Activities offered: Peer support; Advice or external services; Health professionals visiting or personal care; Food larder or café; Outdoor activity; Arts, crafts, games; Digital inclusion Area of focus: A broad community offer, with activities and support for people of all ages and needs. Website: https://www.wholeagaincommunities.co.uk/ Community Maker Area: West (Penwith) Community Maker: Pip Macmeikan","loc_pcd":true,"title":"Whole Again Communities"},"type":"Feature"}
	]
}
