{
	"type": "FeatureCollection",
	"features": [
		{"geometry":{"coordinates":[-6.44155,54.41116],"type":"Point"},"properties":{"_source":"warm_welcome","address":"Helping Hands, Craigavon, County Armagh BT62 3BR","description":"A space for anyone to come and get a cuppa, get support in various ways including; furniture, food, clothing, counselling, training and much more! One group (Stiches) runs every Thursday. Come along and meet some friendly faces and do some knitting and sewing for some great causes like the local Neo-natal unit! Be aware, lots of laughs involved!","hours":{"_text":"Tuesday: 10:00 - 13:00, Wednesday: 10:00 - 13:00, Thursday: 10:00 - 13:00, Friday: 10:00 - 13:00","opening":"Tu 10:00-13:00; We 10:00-13:00; Th 10:00-13:00; Fr 10:00-13:00"},"title":"Helping Hands Community Outreach Project"},"type":"Feature"},
		{"geometry":{"coordinates":[-6.44167,54.42226],"type":"Point"},"properties":{"_source":"warm_welcome","address":"The Salvation Army, Craigavon, County Armagh BT62 3LX","description":"A friendly space for everyone in our community. Everyone welcome no appointment needed. Meet new people and build connections. Have conversation, share ideas and be heard. Find information and local resources. Come and enjoy a cuppa and conversation with others. We are here to pray for you and provide practical help when ever possible.","hours":{"_text":"Tuesday: 10:00 - 12:00, Thursday: 10:00 - 12:00","opening":"Tu 10:00-12:00; Th 10:00-12:00"},"title":"The Meeting Place"},"type":"Feature"}
	]
}
