{
	"type": "FeatureCollection",
	"features": [
		{"geometry":{"coordinates":[-5.69465,50.07143],"type":"Point"},"properties":{"_source":"warm_welcome","address":"Sennen Churchtown Hall, Penzance, Cornwall TR19 7AD","description":"Come and join us every \"Souper Wednesday\" for free soup, roll, cake, tea and coffee at our small Community Hall. A warm space with lots of friendly people and sociable chat! All welcome! The Hall has Charitable status and is run by a Committee of Trustees. It is situated near to the church, in the village of Sennen, near Penzance, Cornwall. The Hall is near to the beautiful Sennen Cove and just a mile from Land's End. It is situated within a large Community field. The Hall is for hire and can house 80 people.","hours":{"_text":"Wednesday: 12:00 - 01:30","opening":"We 12:00-13:30"},"title":"Sennen Churchtown Hall"},"type":"Feature"},
		{"geometry":{"coordinates":[-5.66637,50.15061],"type":"Point"},"properties":{"_source":"carefree_cornwall","address":"Church Rd, Pendeen, Penzance TR19 7SE","description":"Address: Church Rd, Pendeen, Penzance TR19 7SE Contact details: 01736 786776 | info@centreofpendeen.co.uk Warm/Cool Hub: Opening hours: Open to the public on weekdays, additional services within Hub at the weekend. Activities offered: Physical activity; Peer support; Advice or external services; Food larder or café; Outdoor activity; Arts, crafts, games; Digital inclusion Area of focus: A broad community offer, with activities and support for people of all ages and needs. Website: https://www.centreofpendeen.co.uk/activities/ Community Maker Area: West (Penwith) Community Maker: Jayne Devlin","loc_pcd":true,"title":"Centre of Pendeen"},"type":"Feature"},
		{"geometry":{"coordinates":[-5.68041,50.11578],"type":"Point"},"properties":{"_source":"carefree_cornwall","address":"Community Farm, Bosavern, St Just, Penzance TR19 7RD","description":"Address: Community Farm, Bosavern, St Just, Penzance TR19 7RD Contact details: 01736 788454 | info@bosaverncommunityfarm.org.uk Warm/Cool Hub: Opening hours: Open to the public on weekdays, additional services within Hub at the weekend. Activities offered: Physical activity; Peer support; Food larder or café; Outdoor activity Area of focus: Mental health & wellbeing; Loneliness & social connection; Food / growing Website: https://www.bosaverncommunityfarm.org.uk/whats-on-at-the-farm/ Community Maker Area: West (Penwith) Community Maker: Pip Macmeikan","loc_pcd":true,"title":"Bosavern Community Farm"},"type":"Feature"},
		{"geometry":{"coordinates":[-5.66637,50.15061],"type":"Point"},"properties":{"_source":"carefree_cornwall","address":"Church Rd, Pendeen, Penzance TR19 7SE","description":"Address: Church Rd, Pendeen, Penzance TR19 7SE Contact details: 01736 786776 | info@centreofpendeen.co.uk Warm/Cool Hub: Opening hours: Open to the public on weekdays, additional services within Hub at the weekend. Activities offered: Physical activity; Peer support; Advice or external services; Food larder or café; Outdoor activity; Arts, crafts, games; Digital inclusion Area of focus: A broad community offer, with activities and support for people of all ages and needs. Website: https://www.centreofpendeen.co.uk/activities/ Community Maker Area: West (Penwith) Community Maker: Jayne Devlin","loc_pcd":true,"title":"Centre of Pendeen"},"type":"Feature"},
		{"geometry":{"coordinates":[-5.68041,50.11578],"type":"Point"},"properties":{"_source":"carefree_cornwall","address":"Community Farm, Bosavern, St Just, Penzance TR19 7RD","description":"Address: Community Farm, Bosavern, St Just, Penzance TR19 7RD Contact details: 01736 788454 | info@bosaverncommunityfarm.org.uk Warm/Cool Hub: Opening hours: Open to the public on weekdays, additional services within Hub at the weekend. Activities offered: Physical activity; Peer support; Food larder or café; Outdoor activity Area of focus: Mental health & wellbeing; Loneliness & social connection; Food / growing Website: https://www.bosaverncommunityfarm.org.uk/whats-on-at-the-farm/ Community Maker Area: West (Penwith) Community Maker: Pip Macmeikan","loc_pcd":true,"title":"Bosavern Community Farm"},"type":"Feature"}
	]
}
