{
	"type": "FeatureCollection",
	"features": [
		{"geometry":{"coordinates":[-4.67933,50.62249],"type":"Point"},"properties":{"_source":"warm_welcome","address":"Camelford Town Council & Library, Camelford, Cornwall PL32 9PD","description":"Public Lending Library & Community Hub","hours":{"_text":"Monday: 10:00 - 16:30, Tuesday: 10:00 - 16:30, Wednesday: 14:30 - 20:30, Thursday: 10:00 - 13:00, Saturday: 10:00 - 13:00","opening":"Mo 10:00-16:30; Tu 10:00-16:30; We 14:30-20:30; Th 10:00-13:00; Sa 10:00-13:00"},"title":"Camelford Library"},"type":"Feature"},
		{"geometry":{"coordinates":[-4.74668,50.66246],"type":"Point"},"properties":{"_source":"warm_welcome","address":"Tintagel Social Hall, Tintagel, Tintagel PL34 0AB","description":"Community hall offering hot meals and hot/cold drinks. Heated . Car parking. Disabled toilets/access. We also provide food and essentials free of charge","hours":{"_text":"Monday: 09:30 - 16:00, Thursday: 09:30 - 14:00","opening":"Mo 09:30-16:00; Th 09:30-14:00"},"title":"Tintagel Social Hall"},"type":"Feature"},
		{"geometry":{"coordinates":[-4.74668,50.66246],"type":"Point"},"properties":{"_source":"warm_welcome","address":"Tintagel Social Hall, Cornwall PL34 0AB","description":"Open to all. We are open Monday 9am till 4 pm providing a roast lunch from 11.30am. Friday afternoons it’s 1.30 till 4 with afternoon tea. Both are free of charge","hours":{"_text":"Monday: 09:00 - 04:00, Thursday: 09:00 - 01:00","opening":"Mo 09:00-16:00; Th 09:00-13:00"},"title":"Tintagel Social Hall Warm Welcome"},"type":"Feature"},
		{"geometry":{"coordinates":[-4.74367,50.66311],"type":"Point"},"properties":{"_source":"warm_welcome","address":"Bossiney Road, Tintagel, Cornwall PL 34","description":"The church rooms are open to all on Thursday mornings. A","hours":{"_text":"Thursday: 10:30 - 00:00, Friday: 00:00 - 01:30, Sunday: 10:30 - 00:00","opening":"Th 10:30-12:00; Fr 00:00-01:30; Su 10:30-12:00"},"title":"Tintagel United Methodist Church"},"type":"Feature"},
		{"geometry":{"coordinates":[-4.82939,50.52190],"type":"Point"},"properties":{"_source":"carefree_cornwall","address":"Wadebridge Sports & Leisure Centre, Bodieve Road, Wadebridge, Cornwall, PL27 6BU","description":"Address: Wadebridge Sports & Leisure Centre, Bodieve Road, Wadebridge, Cornwall, PL27 6BU Contact details: 01208 814980 | hello@wadebridgeslc.co.uk Warm/Cool Hub: Opening hours: 7 days a week Activities offered: Physical activity; Peer support; Health professionals visiting or personal care Area of focus: Wide range of physical activities for people of all ages and needs Website: https://www.wadebridgeslc.co.uk/about-us Community Maker Area: North Community Maker: Penny Steventon","loc_pcd":true,"title":"Wadebridge SLC (FOWLC)"},"type":"Feature"},
		{"geometry":{"coordinates":[-4.83052,50.57286],"type":"Point"},"properties":{"_source":"carefree_cornwall","address":"Trevathan Farm Shop and Restaurant , St Endellion, Port Isaac PL29 3TP","description":"Address: Trevathan Farm Shop and Restaurant , St Endellion, Port Isaac PL29 3TP Contact details: Online contact form: https://www.twobays.org/contact Warm/Cool Hub: Opening hours: Activity-based. Regular Coastal Crafts: Fri 14:30–16:30 other sessions as advertised. Activities offered: Physical activity; Peer support; Advice or external services; Outdoor activity Area of focus: Mental health & wellbeing; Families & children; Loneliness & social connection Website: https://www.twobays.org/ Community Maker Area: North Community Maker: Penny Steventon","loc_pcd":true,"title":"Two Bays Trust"},"type":"Feature"},
		{"geometry":{"coordinates":[-4.68553,50.62175],"type":"Point"},"properties":{"_source":"carefree_cornwall","address":"Camelford Leisure Centre, Station Road, Camelford PL32 9UE / Camelford Library, Market Pl, Camelford PL32 9PD","description":"Address: Camelford Leisure Centre, Station Road, Camelford PL32 9UE / Camelford Library, Market Pl, Camelford PL32 9PD Contact details: Leisure: 01840 213188 | info@camelfordleisurecentre.co.uk; Library: 0300 1234 111 | camelford.library@liscornwall.org.uk Warm/Cool Hub: Opening hours: Leisure Centre: 7 days a week. Library: Monday, Tuesday, Wednesday, Thursday & Saturday Activities offered: Physical activity; Peer support; Advice or external services; Arts, crafts, games; Digital inclusion Area of focus: Wide range of physical activities for people of all ages and needs Website: https://www.camelfordleisurecentre.co.uk/ Community Maker Area: North Community Maker: Penny Steventon","loc_pcd":true,"title":"Camelford Leisure Centre/Camelford Library"},"type":"Feature"},
		{"geometry":{"coordinates":[-4.83402,50.51519],"type":"Point"},"properties":{"_source":"carefree_cornwall","address":"Concern Wadebridge (The John Betjeman Centre), Southern Way, Wadebridge PL27 7BX","description":"Address: Concern Wadebridge (The John Betjeman Centre), Southern Way, Wadebridge PL27 7BX Contact details: 01208 812392 | admin@concernwadebridge.org.uk Warm/Cool Hub: Extreme weather support: During very hot or cold weather and storms, this hub provides a safe, comfortable space open to the public, with access to facilities and practical resources. Opening hours: Open to the public on weekdays, additional services within Hub at the weekend. Activities offered: Physical activity; Peer support; Advice or external services; Health professionals visiting or personal care; Food larder or café; Arts, crafts, games Area of focus: Older people; Long-term conditions; Loneliness & social connection Website: https://www.concernwadebridge.org.uk/ Community Maker Area: North Community Maker: Penny Steventon","loc_pcd":true,"title":"Concern Wadebridge - John Betjeman Centre"},"type":"Feature"},
		{"geometry":{"coordinates":[-4.90685,50.55047],"type":"Point"},"properties":{"_source":"carefree_cornwall","address":"St Minver Community Hub\nTrewint Playing Fields\nTrewint Lane\nSt Minver Lowlands\nPL27 6LU","description":"Address: St Minver Community Hub Trewint Playing Fields Trewint Lane St Minver Lowlands PL27 6LU Contact details: 01208 640176 | Contact from: https://www.stminvercommunityhub.org.uk/contact/ Warm/Cool Hub: Opening hours: Open to the public on weekdays, additional services within Hub at the weekend. Activities offered: Physical activity; Advice or external services; Digital inclusion Area of focus: A broad community offer, with activities and support for people of all ages and needs. Website: https://www.stminvercommunityhub.org.uk/ Community Maker Area: North Community Maker: Penny Steventon","loc_pcd":true,"title":"St Minver Community Hub"},"type":"Feature"},
		{"geometry":{"coordinates":[-4.74885,50.66233],"type":"Point"},"properties":{"_source":"carefree_cornwall","address":"Tintagel Methodist Church, Bossiney Rd, PL34 0AJ","description":"Address: Tintagel Methodist Church, Bossiney Rd, PL34 0AJ Contact details: 07521 310341 | coachhousefh@gmail.com Warm/Cool Hub: Extreme weather support: During very hot weather, this hub provides a safe, comfortable space open to the public, with access to facilities and practical resources. Opening hours: Food bank: Fri 12:00–13:30. Other community/group hours vary. Activities offered: Food larder or café Area of focus: Cost of living / food support Website: https://www.facebook.com/p/Coachhouse-Food-Hub-61551931373897/ Community Maker Area: North Community Maker: Penny Steventon","loc_pcd":true,"title":"Tintagel (Coach House Food Hub)"},"type":"Feature"},
		{"geometry":{"coordinates":[-4.82939,50.52190],"type":"Point"},"properties":{"_source":"carefree_cornwall","address":"Wadebridge Sports & Leisure Centre, Bodieve Road, Wadebridge, Cornwall, PL27 6BU","description":"Address: Wadebridge Sports & Leisure Centre, Bodieve Road, Wadebridge, Cornwall, PL27 6BU Contact details: 01208 814980 | hello@wadebridgeslc.co.uk Warm/Cool Hub: Opening hours: 7 days a week Activities offered: Physical activity; Peer support; Health professionals visiting or personal care Area of focus: Wide range of physical activities for people of all ages and needs Website: https://www.wadebridgeslc.co.uk/about-us Community Maker Area: North Community Maker: Penny Steventon","loc_pcd":true,"title":"Wadebridge SLC (FOWLC)"},"type":"Feature"},
		{"geometry":{"coordinates":[-4.83052,50.57286],"type":"Point"},"properties":{"_source":"carefree_cornwall","address":"Trevathan Farm Shop and Restaurant , St Endellion, Port Isaac PL29 3TP","description":"Address: Trevathan Farm Shop and Restaurant , St Endellion, Port Isaac PL29 3TP Contact details: Online contact form: https://www.twobays.org/contact Warm/Cool Hub: Opening hours: Activity-based. Regular Coastal Crafts: Fri 14:30–16:30 other sessions as advertised. Activities offered: Physical activity; Peer support; Advice or external services; Outdoor activity Area of focus: Mental health & wellbeing; Families & children; Loneliness & social connection Website: https://www.twobays.org/ Community Maker Area: North Community Maker: Penny Steventon","loc_pcd":true,"title":"Two Bays Trust"},"type":"Feature"},
		{"geometry":{"coordinates":[-4.68553,50.62175],"type":"Point"},"properties":{"_source":"carefree_cornwall","address":"Camelford Leisure Centre, Station Road, Camelford PL32 9UE / Camelford Library, Market Pl, Camelford PL32 9PD","description":"Address: Camelford Leisure Centre, Station Road, Camelford PL32 9UE / Camelford Library, Market Pl, Camelford PL32 9PD Contact details: Leisure: 01840 213188 | info@camelfordleisurecentre.co.uk; Library: 0300 1234 111 | camelford.library@liscornwall.org.uk Warm/Cool Hub: Opening hours: Leisure Centre: 7 days a week. Library: Monday, Tuesday, Wednesday, Thursday & Saturday Activities offered: Physical activity; Peer support; Advice or external services; Arts, crafts, games; Digital inclusion Area of focus: Wide range of physical activities for people of all ages and needs Website: https://www.camelfordleisurecentre.co.uk/ Community Maker Area: North Community Maker: Penny Steventon","loc_pcd":true,"title":"Camelford Leisure Centre/Camelford Library"},"type":"Feature"},
		{"geometry":{"coordinates":[-4.83402,50.51519],"type":"Point"},"properties":{"_source":"carefree_cornwall","address":"Concern Wadebridge (The John Betjeman Centre), Southern Way, Wadebridge PL27 7BX","description":"Address: Concern Wadebridge (The John Betjeman Centre), Southern Way, Wadebridge PL27 7BX Contact details: 01208 812392 | admin@concernwadebridge.org.uk Warm/Cool Hub: Extreme weather support: During very hot or cold weather and storms, this hub provides a safe, comfortable space open to the public, with access to facilities and practical resources. Opening hours: Open to the public on weekdays, additional services within Hub at the weekend. Activities offered: Physical activity; Peer support; Advice or external services; Health professionals visiting or personal care; Food larder or café; Arts, crafts, games Area of focus: Older people; Long-term conditions; Loneliness & social connection Website: https://www.concernwadebridge.org.uk/ Community Maker Area: North Community Maker: Penny Steventon","loc_pcd":true,"title":"Concern Wadebridge - John Betjeman Centre"},"type":"Feature"},
		{"geometry":{"coordinates":[-4.90685,50.55047],"type":"Point"},"properties":{"_source":"carefree_cornwall","address":"St Minver Community Hub\nTrewint Playing Fields\nTrewint Lane\nSt Minver Lowlands\nPL27 6LU","description":"Address: St Minver Community Hub Trewint Playing Fields Trewint Lane St Minver Lowlands PL27 6LU Contact details: 01208 640176 | Contact from: https://www.stminvercommunityhub.org.uk/contact/ Warm/Cool Hub: Opening hours: Open to the public on weekdays, additional services within Hub at the weekend. Activities offered: Physical activity; Advice or external services; Digital inclusion Area of focus: A broad community offer, with activities and support for people of all ages and needs. Website: https://www.stminvercommunityhub.org.uk/ Community Maker Area: North Community Maker: Penny Steventon","loc_pcd":true,"title":"St Minver Community Hub"},"type":"Feature"},
		{"geometry":{"coordinates":[-4.74885,50.66233],"type":"Point"},"properties":{"_source":"carefree_cornwall","address":"Tintagel Methodist Church, Bossiney Rd, PL34 0AJ","description":"Address: Tintagel Methodist Church, Bossiney Rd, PL34 0AJ Contact details: 07521 310341 | coachhousefh@gmail.com Warm/Cool Hub: Extreme weather support: During very hot weather, this hub provides a safe, comfortable space open to the public, with access to facilities and practical resources. Opening hours: Food bank: Fri 12:00–13:30. Other community/group hours vary. Activities offered: Food larder or café Area of focus: Cost of living / food support Website: https://www.facebook.com/p/Coachhouse-Food-Hub-61551931373897/ Community Maker Area: North Community Maker: Penny Steventon","loc_pcd":true,"title":"Tintagel (Coach House Food Hub)"},"type":"Feature"}
	]
}
