{
	"type": "FeatureCollection",
	"features": [
		{"geometry":{"coordinates":[-4.76445,50.34526],"type":"Point"},"properties":{"_source":"warm_welcome","address":"Bethel Methodist Church,, St Austell, Cornwall PL25 3DW","description":"The space is open to all.","hours":{"_text":"Friday: 10:00 - 11:30","opening":"Fr 10:00-11:30"},"title":"Bethel coffee morning"},"type":"Feature"},
		{"geometry":{"coordinates":[-4.73945,50.47071],"type":"Point"},"properties":{"_source":"warm_welcome","address":"Chy Trevail, Bodmin, Cornwall PL31 2FR","description":"Welcoming open space with tables, sofas and a lovely children's area.","hours":{"_text":"Monday: 09:00 - 17:00, Tuesday: 09:00 - 17:00, Wednesday: 09:00 - 17:00, Thursday: 09:00 - 17:00, Friday: 09:00 - 17:00, Saturday: 10:00 - 13:00","opening":"Mo 09:00-17:00; Tu 09:00-17:00; We 09:00-17:00; Th 09:00-17:00; Fr 09:00-17:00; Sa 10:00-13:00"},"title":"Bodmin Library"},"type":"Feature"},
		{"geometry":{"coordinates":[-4.71767,50.47140],"type":"Point"},"properties":{"_source":"warm_welcome","address":"St. Petroc's Church, Bodmin, Cornwall PL31 2DP","description":"Everyone is welcome at this warm space. Free hot drinks, soup and cakes.","hours":{"_text":"Thursday: 10:00 - 16:00","opening":"Th 10:00-16:00"},"title":"Community Cuppa at St Petroc's Church"},"type":"Feature"},
		{"geometry":{"coordinates":[-4.71680,50.47140],"type":"Point"},"properties":{"_source":"warm_welcome","address":"St. Petroc's Parish Centre, Bodmin, Cornwall PL31 2DP","description":"Everyone is welcome at our Community Space.","hours":{"_text":"Friday: 09:30 - 12:30","opening":"Fr 09:30-12:30"},"title":"Community Space at St Petroc's Parish Centre"},"type":"Feature"},
		{"geometry":{"coordinates":[-4.78066,50.33924],"type":"Point"},"properties":{"_source":"warm_welcome","address":"Light & Life Centre, Cornwall PL25 4TJ","description":"The space is open to all","hours":{"_text":"Thursday: 10:00 - 13:00","opening":"Th 10:00-13:00"},"title":"Light & Life Centre"},"type":"Feature"},
		{"geometry":{"coordinates":[-4.66860,50.40849],"type":"Point"},"properties":{"_source":"warm_welcome","address":"The Community Cafe, Lostwithiel, Cornwall PL22 0HA","description":"Community Centre with café open 10-3pm Monday- Saturday. An inclusive space, open to all","hours":{"_text":"Monday: 10:00 - 15:00, Tuesday: 10:00 - 15:00, Wednesday: 10:00 - 15:00, Thursday: 10:00 - 15:00, Friday: 10:00 - 15:00, Saturday: 10:00 - 15:00","opening":"Mo 10:00-15:00; Tu 10:00-15:00; We 10:00-15:00; Th 10:00-15:00; Fr 10:00-15:00; Sa 10:00-15:00"},"title":"Lostwithiel Community Centre"},"type":"Feature"},
		{"geometry":{"coordinates":[-4.85609,50.31409],"type":"Point"},"properties":{"_source":"warm_welcome","address":"Merlin Centre, St. Austell, Cornwall PL26 7JF","description":"Warm welcoming space, parking, accessible to all, hot drinks and food available.","hours":{"_text":"Monday: 10:00 - 14:00, Tuesday: 10:00 - 15:00, Wednesday: 10:00 - 15:00, Thursday: 10:00 - 15:00","opening":"Mo 10:00-14:00; Tu 10:00-15:00; We 10:00-15:00; Th 10:00-15:00"},"title":"Merlin Neurotherapy Centre"},"type":"Feature"},
		{"geometry":{"coordinates":[-4.65320,50.50379],"type":"Point"},"properties":{"_source":"warm_welcome","address":"Millpool Community Room, BODMIN, Cornwall PL30 4HZ","description":"The space is open to all.","hours":{"_text":"Tuesday: 10:00 - 12:00 Monthly, Wednesday: 14:30 - 16:30 / 14:30 - 16:30 Monthly","opening":"Tu 10:00-12:00; We 14:30-16:30,14:30-16:30"},"title":"Millpool Community Room"},"type":"Feature"},
		{"geometry":{"coordinates":[-4.86852,50.37163],"type":"Point"},"properties":{"_source":"warm_welcome","address":"NANPEAN METHODIST CHURCH, ST AUSTELL, CORNWALL PL26 7YB","description":"The space is open to all. Monthly coffee morning. First Saturday of month (February to December) Level with parking. Kitchen and toilet facilities .","hours":{"_text":"Saturday: 10:00 - 12:00 Monthly","opening":"Sa 10:00-12:00"},"title":"NANPEAN METHODIST CHURCH COFFEE MORNING"},"type":"Feature"},
		{"geometry":{"coordinates":[-4.70579,50.35232],"type":"Point"},"properties":{"_source":"warm_welcome","address":"Chapel Road, Cornwall, Cornwall PL24 2AE","description":"Methodist Church hall","hours":{"_text":"Tuesday: 10:30 - 12:00","opening":"Tu 10:30-12:00"},"title":"Par St Mary's Methodist Church"},"type":"Feature"},
		{"geometry":{"coordinates":[-4.78294,50.33967],"type":"Point"},"properties":{"_source":"warm_welcome","address":"Carloyn Road, St Austell, Cornwall PL25 4DB","description":"Public Leisure Centre - St Austell Leisure Centre - Cafe Space; Showers; WiFi; Toilets","hours":{"_text":"Monday: 13:00 - 15:00, Wednesday: 13:00 - 15:00, Friday: 13:00 - 15:00","opening":"Mo 13:00-15:00; We 13:00-15:00; Fr 13:00-15:00"},"title":"St Austell Leisure Centre"},"type":"Feature"},
		{"geometry":{"coordinates":[-4.73733,50.46898],"type":"Point"},"properties":{"_source":"warm_welcome","address":"st.lawrence parish church,bodmin,cornwall, cornwall pl31 2qh","description":"the first sunday of every month:0900-1630 inclusive.all year round","hours":{"_text":"Sunday: 09:00 - 16:30 Monthly","opening":"Su 09:00-16:30"},"title":"st.lawrence's parish church,bodmin,cornwall"},"type":"Feature"},
		{"geometry":{"coordinates":[-4.71736,50.47110],"type":"Point"},"properties":{"_source":"carefree_cornwall","address":"St Petroc's Parish Centre, Priory Rd, Bodmin PL31 2DP","description":"Address: St Petroc's Parish Centre, Priory Rd, Bodmin PL31 2DP Contact details: 01208 809601 | office@bodminway.org Warm/Cool Hub: Opening hours: Larder: Mon 16:30–18:00; Tue 09:00–11:00. Community Space: Fri 09:30–12:00. Activities offered: Advice or external services; Health professionals visiting or personal care; Food larder or café; Arts, crafts, games Area of focus: A broad community offer, with activities and support for people of all ages and needs. Website: https://www.bodminway.org/ Community Maker Area: North Community Maker: Penny Steventon","loc_pcd":true,"title":"Bodmin Way"},"type":"Feature"},
		{"geometry":{"coordinates":[-4.72433,50.47137],"type":"Point"},"properties":{"_source":"carefree_cornwall","address":"The Old Library Bodmin, 10 Lower Bore St, Bodmin PL31 2JX","description":"Address: The Old Library Bodmin, 10 Lower Bore St, Bodmin PL31 2JX Contact details: 01208 811185 | emailus@intobodmin.co.uk Warm/Cool Hub: Opening hours: Monday - Saturday Activities offered: Peer support; Advice or external services; Health professionals visiting or personal care; Food larder or café; Digital inclusion Area of focus: A broad community offer, with activities and support for people of all ages and needs. Website: https://intobodmin.co.uk/ Community Maker Area: North Community Maker: Penny Steventon","loc_pcd":true,"title":"Into Bodmin/The Old Library"},"type":"Feature"},
		{"geometry":{"coordinates":[-4.76133,50.44273],"type":"Point"},"properties":{"_source":"carefree_cornwall","address":"One For All, Lanivet Parish Community Centre, Carters Parc, Rectory Rd, Lanivet, Bodmin PL30 5HG","description":"Address: One For All, Lanivet Parish Community Centre, Carters Parc, Rectory Rd, Lanivet, Bodmin PL30 5HG Contact details: 01208 832684 | manager@lanivetparishcommunitycentre.co.uk Warm/Cool Hub: Extreme weather support: During very hot or cold weather and storms, this hub provides a safe, comfortable space open to the public, with access to facilities and practical resources. Opening hours: 7 days a week Activities offered: Physical activity; Peer support; Health professionals visiting or personal care; Food larder or café Area of focus: A broad community offer, with activities and support for people of all ages and needs. Website: https://www.lanivetparishcommunitycentre.co.uk/ Community Maker Area: North Community Maker: Penny Steventon","loc_pcd":true,"title":"Lanivet Parish Sport and Recreational Trust (Lanivet One and All Community Centre)"},"type":"Feature"},
		{"geometry":{"coordinates":[-4.79370,50.39485],"type":"Point"},"properties":{"_source":"carefree_cornwall","address":"48A Fore St, Bugle, Saint Austell PL26 8PE","description":"Address: 48A Fore St, Bugle, Saint Austell PL26 8PE Contact details: 07968 481721 | buglelibraryofthings@gmail.com Warm/Cool Hub: Extreme weather support: During very hot weather this hub provides a safe, comfortable space open to the public, with access to facilities and practical resources. Opening hours: Weekdays 10am - 1pm Activities offered: Peer support; Advice or external services; Food larder or café Area of focus: A broad community offer, with activities and support for people of all ages and needs. Website: https://www.facebook.com/BugleLibraryofThings/ Community Maker Area: Mid (Restomal) Community Maker: Bill Davies","loc_pcd":true,"title":"Bugle Library of Things"},"type":"Feature"},
		{"geometry":{"coordinates":[-4.88284,50.38402],"type":"Point"},"properties":{"_source":"carefree_cornwall","address":"The Old School\nFore Street\nSt Dennis\nPL26 8AF","description":"Address: The Old School Fore Street St Dennis PL26 8AF Contact details: 01726 828130 | info@claytawc.co.uk Warm/Cool Hub: Opening hours: Monday-Thursday Activities offered: Physical activity; Peer support; Advice or external services; Food larder or café; Arts, crafts, games; Digital inclusion Area of focus: Cost of living / food support; Families & children; Skills / employment; Health & wellbeing Website: https://claytawc.co.uk/ Community Maker Area: Mid (Restomal) Community Maker: Bill Davies","loc_pcd":true,"title":"CLAYTAWC Community Centre"},"type":"Feature"},
		{"geometry":{"coordinates":[-4.66921,50.40843],"type":"Point"},"properties":{"_source":"carefree_cornwall","address":"Pleyber Christ Way, Lostwithiel PL22 0HA","description":"Address: Pleyber Christ Way, Lostwithiel PL22 0HA Contact details: 01208 872207 | reception@lostwithielcommunitycentre.org.uk Warm/Cool Hub: Opening hours: 7 days a week Activities offered: Physical activity; Peer support; Food larder or café Area of focus: Physical activity; Health & Wellbeing; Loneliness & social connection Website: https://www.lostwithielcommunitycentre.org.uk/ Community Maker Area: Mid (Restomal) Community Maker: Bill Davies","loc_pcd":true,"title":"Lostwithiel Community Centre"},"type":"Feature"},
		{"geometry":{"coordinates":[-4.70053,50.35273],"type":"Point"},"properties":{"_source":"carefree_cornwall","address":"31 Eastcliffe Road, Par, Cornwall. PL24 2AQ.","description":"Address: 31 Eastcliffe Road, Par, Cornwall. PL24 2AQ. Contact details: 07980 838578 | parbayct@gmail.com Warm/Cool Hub: Opening hours: Monday, Wednesday, Friday Activities offered: Physical activity; Peer support; Advice or external services; Health professionals visiting or personal care; Food larder or café; Arts, crafts, games; Digital inclusion Area of focus: A broad community offer, with activities and support for people of all ages and needs. Website: https://www.cornubia.org.uk/ Community Maker Area: Mid (Restomal) Community Maker: Bill Davies","loc_pcd":true,"title":"Par Bay Community Trust (Cornibia)"},"type":"Feature"},
		{"geometry":{"coordinates":[-4.75977,50.34121],"type":"Point"},"properties":{"_source":"carefree_cornwall","address":"82 Stennack Rd, Holmbush, Saint Austell PL25 3JQ","description":"Address: 82 Stennack Rd, Holmbush, Saint Austell PL25 3JQ Contact details: 07480 135818 | prosperitymatters@yahoo.co.uk Warm/Cool Hub: Opening hours: Tue, Wed and Fri 09:30–15:00; Thu and Sat 09:30–13:00. Activities offered: Peer support; Food larder or café Area of focus: Cost of living / practical support; Skills / employment Website: https://www.facebook.com/prosperitymatters1/?locale=en_GB Community Maker Area: Mid (Restomal) Community Maker: Bill Davies","loc_pcd":true,"title":"Prosperity Hub St Austell"},"type":"Feature"},
		{"geometry":{"coordinates":[-4.79115,50.33856],"type":"Point"},"properties":{"_source":"carefree_cornwall","address":"7-9 High Cross St, Saint Austell PL25 4AB","description":"Address: 7-9 High Cross St, Saint Austell PL25 4AB Contact details: 01209 310610 | info@cn4c.org.uk Warm/Cool Hub: Opening hours: Monday - Saturday Activities offered: Peer support; Advice or external services; Food larder or café; Arts, crafts, games; Digital inclusion Area of focus: A broad community offer, with activities and support for people of all ages and needs. Website: https://www.cn4c.org.uk/whats-on Community Maker Area: Mid (Restomal) Community Maker: Bill Davies","loc_pcd":true,"title":"CN4C The Bank"},"type":"Feature"},
		{"geometry":{"coordinates":[-4.71736,50.47110],"type":"Point"},"properties":{"_source":"carefree_cornwall","address":"St Petroc's Parish Centre, Priory Rd, Bodmin PL31 2DP","description":"Address: St Petroc's Parish Centre, Priory Rd, Bodmin PL31 2DP Contact details: 01208 809601 | office@bodminway.org Warm/Cool Hub: Opening hours: Larder: Mon 16:30–18:00; Tue 09:00–11:00. Community Space: Fri 09:30–12:00. Activities offered: Advice or external services; Health professionals visiting or personal care; Food larder or café; Arts, crafts, games Area of focus: A broad community offer, with activities and support for people of all ages and needs. Website: https://www.bodminway.org/ Community Maker Area: North Community Maker: Penny Steventon","loc_pcd":true,"title":"Bodmin Way"},"type":"Feature"},
		{"geometry":{"coordinates":[-4.72433,50.47137],"type":"Point"},"properties":{"_source":"carefree_cornwall","address":"The Old Library Bodmin, 10 Lower Bore St, Bodmin PL31 2JX","description":"Address: The Old Library Bodmin, 10 Lower Bore St, Bodmin PL31 2JX Contact details: 01208 811185 | emailus@intobodmin.co.uk Warm/Cool Hub: Opening hours: Monday - Saturday Activities offered: Peer support; Advice or external services; Health professionals visiting or personal care; Food larder or café; Digital inclusion Area of focus: A broad community offer, with activities and support for people of all ages and needs. Website: https://intobodmin.co.uk/ Community Maker Area: North Community Maker: Penny Steventon","loc_pcd":true,"title":"Into Bodmin/The Old Library"},"type":"Feature"},
		{"geometry":{"coordinates":[-4.76133,50.44273],"type":"Point"},"properties":{"_source":"carefree_cornwall","address":"One For All, Lanivet Parish Community Centre, Carters Parc, Rectory Rd, Lanivet, Bodmin PL30 5HG","description":"Address: One For All, Lanivet Parish Community Centre, Carters Parc, Rectory Rd, Lanivet, Bodmin PL30 5HG Contact details: 01208 832684 | manager@lanivetparishcommunitycentre.co.uk Warm/Cool Hub: Extreme weather support: During very hot or cold weather and storms, this hub provides a safe, comfortable space open to the public, with access to facilities and practical resources. Opening hours: 7 days a week Activities offered: Physical activity; Peer support; Health professionals visiting or personal care; Food larder or café Area of focus: A broad community offer, with activities and support for people of all ages and needs. Website: https://www.lanivetparishcommunitycentre.co.uk/ Community Maker Area: North Community Maker: Penny Steventon","loc_pcd":true,"title":"Lanivet Parish Sport and Recreational Trust (Lanivet One and All Community Centre)"},"type":"Feature"},
		{"geometry":{"coordinates":[-4.79370,50.39485],"type":"Point"},"properties":{"_source":"carefree_cornwall","address":"48A Fore St, Bugle, Saint Austell PL26 8PE","description":"Address: 48A Fore St, Bugle, Saint Austell PL26 8PE Contact details: 07968 481721 | buglelibraryofthings@gmail.com Warm/Cool Hub: Extreme weather support: During very hot weather this hub provides a safe, comfortable space open to the public, with access to facilities and practical resources. Opening hours: Weekdays 10am - 1pm Activities offered: Peer support; Advice or external services; Food larder or café Area of focus: A broad community offer, with activities and support for people of all ages and needs. Website: https://www.facebook.com/BugleLibraryofThings/ Community Maker Area: Mid (Restomal) Community Maker: Bill Davies","loc_pcd":true,"title":"Bugle Library of Things"},"type":"Feature"},
		{"geometry":{"coordinates":[-4.88284,50.38402],"type":"Point"},"properties":{"_source":"carefree_cornwall","address":"The Old School\nFore Street\nSt Dennis\nPL26 8AF","description":"Address: The Old School Fore Street St Dennis PL26 8AF Contact details: 01726 828130 | info@claytawc.co.uk Warm/Cool Hub: Opening hours: Monday-Thursday Activities offered: Physical activity; Peer support; Advice or external services; Food larder or café; Arts, crafts, games; Digital inclusion Area of focus: Cost of living / food support; Families & children; Skills / employment; Health & wellbeing Website: https://claytawc.co.uk/ Community Maker Area: Mid (Restomal) Community Maker: Bill Davies","loc_pcd":true,"title":"CLAYTAWC Community Centre"},"type":"Feature"},
		{"geometry":{"coordinates":[-4.66921,50.40843],"type":"Point"},"properties":{"_source":"carefree_cornwall","address":"Pleyber Christ Way, Lostwithiel PL22 0HA","description":"Address: Pleyber Christ Way, Lostwithiel PL22 0HA Contact details: 01208 872207 | reception@lostwithielcommunitycentre.org.uk Warm/Cool Hub: Opening hours: 7 days a week Activities offered: Physical activity; Peer support; Food larder or café Area of focus: Physical activity; Health & Wellbeing; Loneliness & social connection Website: https://www.lostwithielcommunitycentre.org.uk/ Community Maker Area: Mid (Restomal) Community Maker: Bill Davies","loc_pcd":true,"title":"Lostwithiel Community Centre"},"type":"Feature"},
		{"geometry":{"coordinates":[-4.70053,50.35273],"type":"Point"},"properties":{"_source":"carefree_cornwall","address":"31 Eastcliffe Road, Par, Cornwall. PL24 2AQ.","description":"Address: 31 Eastcliffe Road, Par, Cornwall. PL24 2AQ. Contact details: 07980 838578 | parbayct@gmail.com Warm/Cool Hub: Opening hours: Monday, Wednesday, Friday Activities offered: Physical activity; Peer support; Advice or external services; Health professionals visiting or personal care; Food larder or café; Arts, crafts, games; Digital inclusion Area of focus: A broad community offer, with activities and support for people of all ages and needs. Website: https://www.cornubia.org.uk/ Community Maker Area: Mid (Restomal) Community Maker: Bill Davies","loc_pcd":true,"title":"Par Bay Community Trust (Cornibia)"},"type":"Feature"},
		{"geometry":{"coordinates":[-4.75977,50.34121],"type":"Point"},"properties":{"_source":"carefree_cornwall","address":"82 Stennack Rd, Holmbush, Saint Austell PL25 3JQ","description":"Address: 82 Stennack Rd, Holmbush, Saint Austell PL25 3JQ Contact details: 07480 135818 | prosperitymatters@yahoo.co.uk Warm/Cool Hub: Opening hours: Tue, Wed and Fri 09:30–15:00; Thu and Sat 09:30–13:00. Activities offered: Peer support; Food larder or café Area of focus: Cost of living / practical support; Skills / employment Website: https://www.facebook.com/prosperitymatters1/?locale=en_GB Community Maker Area: Mid (Restomal) Community Maker: Bill Davies","loc_pcd":true,"title":"Prosperity Hub St Austell"},"type":"Feature"},
		{"geometry":{"coordinates":[-4.79115,50.33856],"type":"Point"},"properties":{"_source":"carefree_cornwall","address":"7-9 High Cross St, Saint Austell PL25 4AB","description":"Address: 7-9 High Cross St, Saint Austell PL25 4AB Contact details: 01209 310610 | info@cn4c.org.uk Warm/Cool Hub: Opening hours: Monday - Saturday Activities offered: Peer support; Advice or external services; Food larder or café; Arts, crafts, games; Digital inclusion Area of focus: A broad community offer, with activities and support for people of all ages and needs. Website: https://www.cn4c.org.uk/whats-on Community Maker Area: Mid (Restomal) Community Maker: Bill Davies","loc_pcd":true,"title":"CN4C The Bank"},"type":"Feature"}
	]
}
